{
  "type": "FeatureCollection",
  "features": [
    {
      "type": "Feature",
      "properties": {
        "creator": "BRouter-1.7.10",
        "name": "brouter_trekking_0",
        "track-length": "917",
        "filtered ascend": "4",
        "plain-ascend": "0",
        "total-time": "159",
        "total-energy": "15861",
        "cost": "1991",
        "messages": [
          [
            "Longitude",
            "Latitude",
            "Elevation",
            "Distance",
            "CostPerKm",
            "ElevCost",
            "TurnCost",
            "NodeCost",
            "InitialCost",
            "WayTags",
            "NodeTags",
            "Time",
            "Energy"
          ],
          [
            "27361092",
            "44566127",
            "23",
            "1",
            "1450",
            "0",
            "0",
            "0",
            "0",
            "highway=tertiary surface=asphalt oneway=yes",
            "",
            "0",
            "16"
          ],
          [
            "27360964",
            "44566130",
            "23",
            "10",
            "1150",
            "0",
            "87",
            "0",
            "0",
            "highway=residential surface=asphalt oneway=no",
            "",
            "1",
            "174"
          ],
          [
            "27360962",
            "44566062",
            "23",
            "8",
            "1450",
            "0",
            "91",
            "0",
            "0",
            "highway=tertiary surface=asphalt oneway=yes",
            "highway=crossing",
            "2",
            "293"
          ],
          [
            "27360933",
            "44565021",
            "26",
            "116",
            "1450",
            "0",
            "0",
            "0",
            "0",
            "highway=tertiary surface=asphalt oneway=yes",
            "highway=crossing",
            "22",
            "2261"
          ],
          [
            "27360995",
            "44564727",
            "27",
            "34",
            "1450",
            "0",
            "2",
            "0",
            "0",
            "highway=tertiary surface=asphalt oneway=yes",
            "highway=crossing",
            "29",
            "2945"
          ],
          [
            "27360975",
            "44564415",
            "27",
            "35",
            "1450",
            "0",
            "5",
            "0",
            "0",
            "highway=tertiary surface=asphalt",
            "",
            "36",
            "3614"
          ],
          [
            "27361170",
            "44564399",
            "28",
            "16",
            "1450",
            "0",
            "84",
            "0",
            "0",
            "highway=tertiary surface=asphalt oneway=yes",
            "highway=crossing",
            "39",
            "3952"
          ],
          [
            "27363536",
            "44564052",
            "23",
            "194",
            "1450",
            "0",
            "0",
            "0",
            "0",
            "highway=tertiary surface=asphalt oneway=yes",
            "highway=crossing",
            "74",
            "7443"
          ],
          [
            "27363887",
            "44563848",
            "24",
            "37",
            "1450",
            "0",
            "0",
            "0",
            "0",
            "highway=tertiary surface=asphalt oneway=yes",
            "",
            "80",
            "8040"
          ],
          [
            "27363897",
            "44563794",
            "23",
            "6",
            "1450",
            "0",
            "20",
            "0",
            "0",
            "reversedirection=yes highway=tertiary surface=asphalt oneway=no",
            "highway=crossing",
            "81",
            "8132"
          ],
          [
            "27364040",
            "44563082",
            "24",
            "79",
            "1450",
            "0",
            "0",
            "0",
            "0",
            "reversedirection=yes highway=tertiary surface=asphalt oneway=no",
            "",
            "94",
            "9437"
          ],
          [
            "27365190",
            "44563182",
            "22",
            "92",
            "1150",
            "0",
            "86",
            "0",
            "0",
            "highway=residential surface=asphalt oneway=yes",
            "",
            "107",
            "10747"
          ],
          [
            "27365177",
            "44563955",
            "24",
            "86",
            "1150",
            "0",
            "80",
            "0",
            "0",
            "reversedirection=yes highway=residential surface=asphalt oneway=no",
            "highway=crossing crossing=uncontrolled",
            "125",
            "12543"
          ],
          [
            "27365175",
            "44564009",
            "24",
            "6",
            "1150",
            "0",
            "0",
            "0",
            "0",
            "reversedirection=yes highway=residential surface=asphalt oneway=no",
            "",
            "126",
            "12643"
          ],
          [
            "27364980",
            "44564008",
            "24",
            "15",
            "1050",
            "0",
            "88",
            "0",
            "0",
            "highway=tertiary surface=asphalt foot=yes bicycle=yes oneway=yes",
            "",
            "128",
            "12895"
          ],
          [
            "27366151",
            "44565173",
            "22",
            "180",
            "1150",
            "0",
            "111",
            "0",
            "0",
            "reversedirection=yes highway=residential surface=asphalt access=yes foot=yes bicycle=yes cycleway=no",
            "",
            "158",
            "15835"
          ],
          [
            "27366161",
            "44565153",
            "22",
            "2",
            "1150",
            "0",
            "128",
            "0",
            "0",
            "highway=residential surface=asphalt",
            "",
            "158",
            "15861"
          ]
        ],
        "times": [
          0,
          0.168,
          1.745,
          2.938,
          22.616,
          24.417,
          26.463,
          29.453,
          34.26,
          36.14,
          39.52,
          59.714,
          61.801,
          65.699,
          67.256,
          70.135,
          71.595,
          74.421,
          76.351,
          77.966,
          80.4,
          81.317,
          85.425,
          89.442,
          94.361,
          96.86,
          107.463,
          125.417,
          126.423,
          128.938,
          139.676,
          140.574,
          141.11,
          148.416,
          153.765,
          156.274,
          158.334,
          158.597
        ]
      },
      "geometry": {
        "type": "LineString",
        "coordinates": [
          [
            27.361092,
            44.56612,
            23.75
          ],
          [
            27.361092,
            44.566127,
            23.75
          ],
          [
            27.360964,
            44.56613,
            23.5
          ],
          [
            27.360962,
            44.566062,
            23.25
          ],
          [
            27.360933,
            44.565021,
            26.75
          ],
          [
            27.36093,
            44.564932,
            27.0
          ],
          [
            27.360946,
            44.564846,
            27.5
          ],
          [
            27.360995,
            44.564727,
            27.75
          ],
          [
            27.360981,
            44.564502,
            27.5
          ],
          [
            27.360975,
            44.564415,
            27.5
          ],
          [
            27.36117,
            44.564399,
            28.0
          ],
          [
            27.362201,
            44.564337,
            26.25
          ],
          [
            27.362346,
            44.564327,
            25.5
          ],
          [
            27.362732,
            44.564283,
            24.0
          ],
          [
            27.362891,
            44.564252,
            23.5
          ],
          [
            27.363187,
            44.564178,
            23.0
          ],
          [
            27.363323,
            44.564135,
            23.0
          ],
          [
            27.363536,
            44.564052,
            23.75
          ],
          [
            27.363657,
            44.563993,
            24.0
          ],
          [
            27.36375,
            44.563939,
            24.0
          ],
          [
            27.363887,
            44.563848,
            24.0
          ],
          [
            27.363897,
            44.563794,
            23.75
          ],
          [
            27.363953,
            44.563541,
            23.5
          ],
          [
            27.363999,
            44.563291,
            23.25
          ],
          [
            27.36404,
            44.563082,
            24.75
          ],
          [
            27.3642,
            44.563093,
            24.5
          ],
          [
            27.36519,
            44.563182,
            22.75
          ],
          [
            27.365177,
            44.563955,
            24.5
          ],
          [
            27.365175,
            44.564009,
            24.0
          ],
          [
            27.36498,
            44.564008,
            24.0
          ],
          [
            27.364979,
            44.564588,
            24.0
          ],
          [
            27.364994,
            44.564628,
            24.25
          ],
          [
            27.365024,
            44.56465,
            24.25
          ],
          [
            27.365473,
            44.564799,
            24.5
          ],
          [
            27.365846,
            44.564965,
            23.75
          ],
          [
            27.366012,
            44.565069,
            23.25
          ],
          [
            27.366151,
            44.565173,
            22.75
          ],
          [
            27.366161,
            44.565153,
            22.75
          ]
        ]
      }
    }
  ]
}