{
  "type": "FeatureCollection",
  "features": [
    {
      "type": "Feature",
      "properties": {
        "creator": "BRouter-1.7.10",
        "name": "brouter_trekking_0",
        "track-length": "526",
        "filtered ascend": "0",
        "plain-ascend": "0",
        "total-time": "86",
        "total-energy": "8648",
        "cost": "784",
        "messages": [
          [
            "Longitude",
            "Latitude",
            "Elevation",
            "Distance",
            "CostPerKm",
            "ElevCost",
            "TurnCost",
            "NodeCost",
            "InitialCost",
            "WayTags",
            "NodeTags",
            "Time",
            "Energy"
          ],
          [
            "27361092",
            "44566127",
            "23",
            "1",
            "1450",
            "0",
            "0",
            "0",
            "0",
            "highway=tertiary surface=asphalt oneway=yes",
            "",
            "0",
            "16"
          ],
          [
            "27361213",
            "44566162",
            "24",
            "10",
            "1150",
            "0",
            "56",
            "0",
            "0",
            "reversedirection=yes highway=residential surface=asphalt oneway=no",
            "highway=crossing",
            "1",
            "196"
          ],
          [
            "27362046",
            "44566412",
            "22",
            "75",
            "1150",
            "0",
            "17",
            "0",
            "0",
            "reversedirection=yes highway=residential surface=asphalt oneway=no",
            "",
            "13",
            "1381"
          ],
          [
            "27364341",
            "44566819",
            "23",
            "195",
            "1150",
            "0",
            "5",
            "0",
            "0",
            "highway=residential surface=asphalt",
            "highway=crossing crossing=uncontrolled",
            "46",
            "4646"
          ],
          [
            "27364439",
            "44566868",
            "23",
            "10",
            "1150",
            "0",
            "0",
            "0",
            "0",
            "highway=residential surface=asphalt",
            "",
            "48",
            "4833"
          ],
          [
            "27366151",
            "44565173",
            "22",
            "233",
            "1150",
            "0",
            "95",
            "0",
            "0",
            "reversedirection=yes highway=residential surface=asphalt",
            "",
            "86",
            "8610"
          ],
          [
            "27366161",
            "44565153",
            "22",
            "2",
            "1150",
            "0",
            "4",
            "0",
            "0",
            "highway=residential surface=asphalt",
            "",
            "86",
            "8648"
          ]
        ],
        "times": [
          0,
          0.168,
          1.961,
          9.031,
          11.655,
          13.809,
          21.308,
          22.38,
          26.023,
          34.897,
          46.454,
          48.323,
          58.264,
          59.855,
          61.289,
          67.584,
          86.091,
          86.468
        ]
      },
      "geometry": {
        "type": "LineString",
        "coordinates": [
          [
            27.361092,
            44.56612,
            23.75
          ],
          [
            27.361092,
            44.566127,
            23.75
          ],
          [
            27.361213,
            44.566162,
            24.0
          ],
          [
            27.36165,
            44.566332,
            24.0
          ],
          [
            27.361837,
            44.56642,
            23.25
          ],
          [
            27.362046,
            44.566412,
            22.5
          ],
          [
            27.362874,
            44.566382,
            21.25
          ],
          [
            27.362972,
            44.566381,
            21.5
          ],
          [
            27.36323,
            44.566419,
            22.5
          ],
          [
            27.363719,
            44.566533,
            23.5
          ],
          [
            27.364341,
            44.566819,
            23.5
          ],
          [
            27.364439,
            44.566868,
            23.5
          ],
          [
            27.365053,
            44.566232,
            20.75
          ],
          [
            27.365123,
            44.566138,
            20.75
          ],
          [
            27.365166,
            44.566055,
            21.0
          ],
          [
            27.36543,
            44.565809,
            22.0
          ],
          [
            27.366151,
            44.565173,
            22.75
          ],
          [
            27.366161,
            44.565153,
            22.75
          ]
        ]
      }
    }
  ]
}