<?xml version="1.0" encoding="UTF-8"?>
<gpx version="1.1" creator="SLB Slobozia Byke Routes" xmlns="http://www.topografix.com/GPX/1/1">
  <trk>
    <name>Slobozia Bike City - all stations loop</name>
    <trkseg>
      <trkpt lat="44.562138" lon="27.369455"/>
      <trkpt lat="44.562138" lon="27.369319"/>
      <trkpt lat="44.562137" lon="27.369051"/>
      <trkpt lat="44.562135" lon="27.368615"/>
      <trkpt lat="44.561991" lon="27.368612"/>
      <trkpt lat="44.561434" lon="27.368596"/>
      <trkpt lat="44.561248" lon="27.36856"/>
      <trkpt lat="44.561244" lon="27.369207"/>
      <trkpt lat="44.561246" lon="27.369711"/>
      <trkpt lat="44.561192" lon="27.369882"/>
      <trkpt lat="44.56117" lon="27.369973"/>
      <trkpt lat="44.561177" lon="27.370156"/>
      <trkpt lat="44.561201" lon="27.370224"/>
      <trkpt lat="44.561238" lon="27.370294"/>
      <trkpt lat="44.561277" lon="27.370455"/>
      <trkpt lat="44.561307" lon="27.370542"/>
      <trkpt lat="44.561345" lon="27.370581"/>
      <trkpt lat="44.56148" lon="27.370599"/>
      <trkpt lat="44.56099" lon="27.370645"/>
      <trkpt lat="44.560989" lon="27.370839"/>
      <trkpt lat="44.560989" lon="27.371011"/>
      <trkpt lat="44.561491" lon="27.371009"/>
      <trkpt lat="44.561495" lon="27.371137"/>
      <trkpt lat="44.561585" lon="27.371229"/>
      <trkpt lat="44.561588" lon="27.372721"/>
      <trkpt lat="44.561588" lon="27.372849"/>
      <trkpt lat="44.561552" lon="27.374702"/>
      <trkpt lat="44.561541" lon="27.375642"/>
      <trkpt lat="44.561547" lon="27.375688"/>
      <trkpt lat="44.561568" lon="27.375714"/>
      <trkpt lat="44.561671" lon="27.375726"/>
      <trkpt lat="44.561708" lon="27.375754"/>
      <trkpt lat="44.561746" lon="27.375801"/>
      <trkpt lat="44.561865" lon="27.375996"/>
      <trkpt lat="44.561927" lon="27.376041"/>
      <trkpt lat="44.561988" lon="27.376069"/>
      <trkpt lat="44.562392" lon="27.375962"/>
      <trkpt lat="44.56248" lon="27.375941"/>
      <trkpt lat="44.562713" lon="27.375854"/>
      <trkpt lat="44.562976" lon="27.375648"/>
      <trkpt lat="44.563086" lon="27.375548"/>
      <trkpt lat="44.563379" lon="27.375492"/>
      <trkpt lat="44.563516" lon="27.375466"/>
      <trkpt lat="44.563491" lon="27.375186"/>
      <trkpt lat="44.563516" lon="27.375466"/>
      <trkpt lat="44.563593" lon="27.376136"/>
      <trkpt lat="44.563634" lon="27.376475"/>
      <trkpt lat="44.563674" lon="27.376719"/>
      <trkpt lat="44.563713" lon="27.376907"/>
      <trkpt lat="44.563749" lon="27.377033"/>
      <trkpt lat="44.563916" lon="27.377406"/>
      <trkpt lat="44.564292" lon="27.378092"/>
      <trkpt lat="44.564484" lon="27.378415"/>
      <trkpt lat="44.564902" lon="27.379119"/>
      <trkpt lat="44.565849" lon="27.380657"/>
      <trkpt lat="44.565919" lon="27.380771"/>
      <trkpt lat="44.56583" lon="27.380874"/>
      <trkpt lat="44.565117" lon="27.381765"/>
      <trkpt lat="44.565011" lon="27.381898"/>
      <trkpt lat="44.56492" lon="27.381778"/>
      <trkpt lat="44.564772" lon="27.38157"/>
      <trkpt lat="44.564845" lon="27.381486"/>
      <trkpt lat="44.564772" lon="27.38157"/>
      <trkpt lat="44.56492" lon="27.381778"/>
      <trkpt lat="44.565011" lon="27.381898"/>
      <trkpt lat="44.565186" lon="27.382104"/>
      <trkpt lat="44.565597" lon="27.38252"/>
      <trkpt lat="44.566664" lon="27.383498"/>
      <trkpt lat="44.5674" lon="27.38422"/>
      <trkpt lat="44.567555" lon="27.384372"/>
      <trkpt lat="44.567749" lon="27.384571"/>
      <trkpt lat="44.567831" lon="27.38444"/>
      <trkpt lat="44.568161" lon="27.384422"/>
      <trkpt lat="44.568161" lon="27.384398"/>
      <trkpt lat="44.568169" lon="27.384378"/>
      <trkpt lat="44.568182" lon="27.384364"/>
      <trkpt lat="44.568213" lon="27.384364"/>
      <trkpt lat="44.568326" lon="27.384156"/>
      <trkpt lat="44.568349" lon="27.38417"/>
      <trkpt lat="44.568375" lon="27.384173"/>
      <trkpt lat="44.568399" lon="27.384164"/>
      <trkpt lat="44.568421" lon="27.384144"/>
      <trkpt lat="44.568436" lon="27.384116"/>
      <trkpt lat="44.568444" lon="27.384082"/>
      <trkpt lat="44.568444" lon="27.384046"/>
      <trkpt lat="44.568435" lon="27.384012"/>
      <trkpt lat="44.568419" lon="27.383984"/>
      <trkpt lat="44.568581" lon="27.383663"/>
      <trkpt lat="44.568666" lon="27.383497"/>
      <trkpt lat="44.5687" lon="27.383442"/>
      <trkpt lat="44.56848" lon="27.383229"/>
      <trkpt lat="44.56834" lon="27.383084"/>
      <trkpt lat="44.567981" lon="27.382726"/>
      <trkpt lat="44.567515" lon="27.38226"/>
      <trkpt lat="44.567723" lon="27.381833"/>
      <trkpt lat="44.567841" lon="27.38159"/>
      <trkpt lat="44.568064" lon="27.381125"/>
      <trkpt lat="44.568069" lon="27.381041"/>
      <trkpt lat="44.568037" lon="27.380972"/>
      <trkpt lat="44.567987" lon="27.380904"/>
      <trkpt lat="44.568484" lon="27.38028"/>
      <trkpt lat="44.568601" lon="27.3802"/>
      <trkpt lat="44.568783" lon="27.380058"/>
      <trkpt lat="44.570323" lon="27.379304"/>
      <trkpt lat="44.571429" lon="27.378772"/>
      <trkpt lat="44.5715" lon="27.378756"/>
      <trkpt lat="44.572896" lon="27.378107"/>
      <trkpt lat="44.572982" lon="27.378067"/>
      <trkpt lat="44.574837" lon="27.377222"/>
      <trkpt lat="44.5748" lon="27.377062"/>
      <trkpt lat="44.574669" lon="27.376492"/>
      <trkpt lat="44.574538" lon="27.375919"/>
      <trkpt lat="44.574508" lon="27.375788"/>
      <trkpt lat="44.574457" lon="27.375575"/>
      <trkpt lat="44.574333" lon="27.375062"/>
      <trkpt lat="44.574162" lon="27.374354"/>
      <trkpt lat="44.57411" lon="27.374148"/>
      <trkpt lat="44.573741" lon="27.372571"/>
      <trkpt lat="44.573715" lon="27.372461"/>
      <trkpt lat="44.573357" lon="27.371024"/>
      <trkpt lat="44.573033" lon="27.371099"/>
      <trkpt lat="44.572339" lon="27.371267"/>
      <trkpt lat="44.572238" lon="27.371277"/>
      <trkpt lat="44.572196" lon="27.371271"/>
      <trkpt lat="44.572192" lon="27.371165"/>
      <trkpt lat="44.571916" lon="27.369983"/>
      <trkpt lat="44.571394" lon="27.367757"/>
      <trkpt lat="44.57107" lon="27.366404"/>
      <trkpt lat="44.570686" lon="27.364765"/>
      <trkpt lat="44.570589" lon="27.364355"/>
      <trkpt lat="44.570415" lon="27.364446"/>
      <trkpt lat="44.570343" lon="27.364495"/>
      <trkpt lat="44.570306" lon="27.364541"/>
      <trkpt lat="44.570016" lon="27.364525"/>
      <trkpt lat="44.569715" lon="27.364508"/>
      <trkpt lat="44.5697" lon="27.364937"/>
      <trkpt lat="44.569283" lon="27.364916"/>
      <trkpt lat="44.568917" lon="27.364901"/>
      <trkpt lat="44.568365" lon="27.364886"/>
      <trkpt lat="44.56838" lon="27.36445"/>
      <trkpt lat="44.568391" lon="27.36403"/>
      <trkpt lat="44.568393" lon="27.363917"/>
      <trkpt lat="44.568406" lon="27.363338"/>
      <trkpt lat="44.568936" lon="27.36337"/>
      <trkpt lat="44.569236" lon="27.363386"/>
      <trkpt lat="44.569751" lon="27.363406"/>
      <trkpt lat="44.569797" lon="27.362287"/>
      <trkpt lat="44.569838" lon="27.361592"/>
      <trkpt lat="44.569898" lon="27.361407"/>
      <trkpt lat="44.569878" lon="27.361321"/>
      <trkpt lat="44.569632" lon="27.36029"/>
      <trkpt lat="44.569262" lon="27.358819"/>
      <trkpt lat="44.569653" lon="27.358225"/>
      <trkpt lat="44.569674" lon="27.358216"/>
      <trkpt lat="44.569653" lon="27.358225"/>
      <trkpt lat="44.569262" lon="27.358819"/>
      <trkpt lat="44.568995" lon="27.358498"/>
      <trkpt lat="44.568964" lon="27.358461"/>
      <trkpt lat="44.568446" lon="27.358714"/>
      <trkpt lat="44.568105" lon="27.358868"/>
      <trkpt lat="44.568073" lon="27.35888"/>
      <trkpt lat="44.567988" lon="27.358922"/>
      <trkpt lat="44.567759" lon="27.359035"/>
      <trkpt lat="44.567243" lon="27.359285"/>
      <trkpt lat="44.566461" lon="27.359669"/>
      <trkpt lat="44.56646" lon="27.35974"/>
      <trkpt lat="44.566456" lon="27.359949"/>
      <trkpt lat="44.5663" lon="27.360434"/>
      <trkpt lat="44.566163" lon="27.36086"/>
      <trkpt lat="44.56613" lon="27.360964"/>
      <trkpt lat="44.566127" lon="27.361092"/>
      <trkpt lat="44.566062" lon="27.361092"/>
      <trkpt lat="44.56502" lon="27.36109"/>
      <trkpt lat="44.564925" lon="27.36109"/>
      <trkpt lat="44.564932" lon="27.36093"/>
      <trkpt lat="44.564922" lon="27.360604"/>
      <trkpt lat="44.564905" lon="27.359976"/>
      <trkpt lat="44.564903" lon="27.359873"/>
      <trkpt lat="44.564774" lon="27.359869"/>
      <trkpt lat="44.564773" lon="27.359766"/>
      <trkpt lat="44.564768" lon="27.359215"/>
      <trkpt lat="44.564763" lon="27.358283"/>
      <trkpt lat="44.564761" lon="27.358047"/>
      <trkpt lat="44.564758" lon="27.357526"/>
      <trkpt lat="44.564756" lon="27.35736"/>
      <trkpt lat="44.564736" lon="27.355483"/>
      <trkpt lat="44.564735" lon="27.355373"/>
      <trkpt lat="44.564722" lon="27.354216"/>
      <trkpt lat="44.564718" lon="27.353786"/>
      <trkpt lat="44.564631" lon="27.353782"/>
      <trkpt lat="44.564633" lon="27.354137"/>
      <trkpt lat="44.564636" lon="27.354506"/>
      <trkpt lat="44.564631" lon="27.353782"/>
      <trkpt lat="44.564622" lon="27.353128"/>
      <trkpt lat="44.564609" lon="27.351273"/>
      <trkpt lat="44.564605" lon="27.351201"/>
      <trkpt lat="44.564597" lon="27.351057"/>
      <trkpt lat="44.564586" lon="27.350898"/>
      <trkpt lat="44.564671" lon="27.350877"/>
      <trkpt lat="44.564788" lon="27.350834"/>
      <trkpt lat="44.564933" lon="27.350804"/>
      <trkpt lat="44.56487" lon="27.350573"/>
      <trkpt lat="44.564933" lon="27.350804"/>
      <trkpt lat="44.564788" lon="27.350834"/>
      <trkpt lat="44.564671" lon="27.350877"/>
      <trkpt lat="44.564586" lon="27.350898"/>
      <trkpt lat="44.564475" lon="27.350964"/>
      <trkpt lat="44.56434" lon="27.35104"/>
      <trkpt lat="44.563868" lon="27.351294"/>
      <trkpt lat="44.563406" lon="27.351568"/>
      <trkpt lat="44.562911" lon="27.351896"/>
      <trkpt lat="44.562614" lon="27.352102"/>
      <trkpt lat="44.562537" lon="27.352869"/>
      <trkpt lat="44.562532" lon="27.352917"/>
      <trkpt lat="44.5624" lon="27.352889"/>
      <trkpt lat="44.562533" lon="27.351513"/>
      <trkpt lat="44.562432" lon="27.351565"/>
      <trkpt lat="44.562398" lon="27.351583"/>
      <trkpt lat="44.562533" lon="27.351513"/>
      <trkpt lat="44.5624" lon="27.352889"/>
      <trkpt lat="44.562393" lon="27.352966"/>
      <trkpt lat="44.562216" lon="27.354827"/>
      <trkpt lat="44.562201" lon="27.354971"/>
      <trkpt lat="44.562188" lon="27.355141"/>
      <trkpt lat="44.562144" lon="27.355708"/>
      <trkpt lat="44.562143" lon="27.355727"/>
      <trkpt lat="44.562144" lon="27.355708"/>
      <trkpt lat="44.562188" lon="27.355141"/>
      <trkpt lat="44.562201" lon="27.354971"/>
      <trkpt lat="44.562216" lon="27.354827"/>
      <trkpt lat="44.562393" lon="27.352966"/>
      <trkpt lat="44.5624" lon="27.352889"/>
      <trkpt lat="44.562533" lon="27.351513"/>
      <trkpt lat="44.562398" lon="27.351583"/>
      <trkpt lat="44.562401" lon="27.351611"/>
      <trkpt lat="44.562398" lon="27.351583"/>
      <trkpt lat="44.562533" lon="27.351513"/>
      <trkpt lat="44.5624" lon="27.352889"/>
      <trkpt lat="44.562532" lon="27.352917"/>
      <trkpt lat="44.562537" lon="27.352869"/>
      <trkpt lat="44.562614" lon="27.352102"/>
      <trkpt lat="44.562695" lon="27.35121"/>
      <trkpt lat="44.562739" lon="27.350782"/>
      <trkpt lat="44.562748" lon="27.350715"/>
      <trkpt lat="44.56279" lon="27.350307"/>
      <trkpt lat="44.56284" lon="27.349906"/>
      <trkpt lat="44.56284" lon="27.349812"/>
      <trkpt lat="44.562832" lon="27.34973"/>
      <trkpt lat="44.562801" lon="27.349583"/>
      <trkpt lat="44.562821" lon="27.34956"/>
      <trkpt lat="44.562853" lon="27.349503"/>
      <trkpt lat="44.562873" lon="27.349435"/>
      <trkpt lat="44.562878" lon="27.349362"/>
      <trkpt lat="44.56287" lon="27.349301"/>
      <trkpt lat="44.562844" lon="27.349226"/>
      <trkpt lat="44.562802" lon="27.349167"/>
      <trkpt lat="44.562748" lon="27.34913"/>
      <trkpt lat="44.562688" lon="27.34912"/>
      <trkpt lat="44.56263" lon="27.349137"/>
      <trkpt lat="44.562492" lon="27.349045"/>
      <trkpt lat="44.562429" lon="27.349005"/>
      <trkpt lat="44.562374" lon="27.348958"/>
      <trkpt lat="44.562295" lon="27.348929"/>
      <trkpt lat="44.56218" lon="27.348918"/>
      <trkpt lat="44.562186" lon="27.348773"/>
      <trkpt lat="44.562222" lon="27.347873"/>
      <trkpt lat="44.56232" lon="27.347883"/>
      <trkpt lat="44.562222" lon="27.347873"/>
      <trkpt lat="44.562186" lon="27.348773"/>
      <trkpt lat="44.56218" lon="27.348918"/>
      <trkpt lat="44.562295" lon="27.348929"/>
      <trkpt lat="44.562374" lon="27.348958"/>
      <trkpt lat="44.562429" lon="27.349005"/>
      <trkpt lat="44.562492" lon="27.349045"/>
      <trkpt lat="44.56263" lon="27.349137"/>
      <trkpt lat="44.562688" lon="27.34912"/>
      <trkpt lat="44.562748" lon="27.34913"/>
      <trkpt lat="44.562802" lon="27.349167"/>
      <trkpt lat="44.562844" lon="27.349226"/>
      <trkpt lat="44.56287" lon="27.349301"/>
      <trkpt lat="44.562878" lon="27.349362"/>
      <trkpt lat="44.562873" lon="27.349435"/>
      <trkpt lat="44.562853" lon="27.349503"/>
      <trkpt lat="44.562821" lon="27.34956"/>
      <trkpt lat="44.562801" lon="27.349583"/>
      <trkpt lat="44.562832" lon="27.34973"/>
      <trkpt lat="44.56284" lon="27.349812"/>
      <trkpt lat="44.56284" lon="27.349906"/>
      <trkpt lat="44.56279" lon="27.350307"/>
      <trkpt lat="44.562748" lon="27.350715"/>
      <trkpt lat="44.562739" lon="27.350782"/>
      <trkpt lat="44.562695" lon="27.35121"/>
      <trkpt lat="44.562614" lon="27.352102"/>
      <trkpt lat="44.562537" lon="27.352869"/>
      <trkpt lat="44.562532" lon="27.352917"/>
      <trkpt lat="44.562526" lon="27.352994"/>
      <trkpt lat="44.562347" lon="27.354854"/>
      <trkpt lat="44.562336" lon="27.354998"/>
      <trkpt lat="44.562201" lon="27.354971"/>
      <trkpt lat="44.561957" lon="27.354938"/>
      <trkpt lat="44.561732" lon="27.355009"/>
      <trkpt lat="44.561589" lon="27.355007"/>
      <trkpt lat="44.561345" lon="27.354978"/>
      <trkpt lat="44.560798" lon="27.354919"/>
      <trkpt lat="44.560622" lon="27.354891"/>
      <trkpt lat="44.560354" lon="27.354838"/>
      <trkpt lat="44.560009" lon="27.35476"/>
      <trkpt lat="44.5599" lon="27.354733"/>
      <trkpt lat="44.559729" lon="27.354693"/>
      <trkpt lat="44.55935" lon="27.354614"/>
      <trkpt lat="44.559299" lon="27.354627"/>
      <trkpt lat="44.558458" lon="27.354983"/>
      <trkpt lat="44.55824" lon="27.355058"/>
      <trkpt lat="44.558202" lon="27.354878"/>
      <trkpt lat="44.557811" lon="27.355068"/>
      <trkpt lat="44.556862" lon="27.35554"/>
      <trkpt lat="44.557811" lon="27.355068"/>
      <trkpt lat="44.558143" lon="27.356461"/>
      <trkpt lat="44.558137" lon="27.356804"/>
      <trkpt lat="44.558065" lon="27.358822"/>
      <trkpt lat="44.558164" lon="27.358832"/>
      <trkpt lat="44.558234" lon="27.358897"/>
      <trkpt lat="44.558277" lon="27.359017"/>
      <trkpt lat="44.5588" lon="27.359029"/>
      <trkpt lat="44.560339" lon="27.359097"/>
      <trkpt lat="44.560776" lon="27.359117"/>
      <trkpt lat="44.561114" lon="27.359132"/>
      <trkpt lat="44.561102" lon="27.359698"/>
      <trkpt lat="44.561097" lon="27.3599"/>
      <trkpt lat="44.561073" lon="27.360845"/>
      <trkpt lat="44.561922" lon="27.360882"/>
      <trkpt lat="44.562026" lon="27.360887"/>
      <trkpt lat="44.562148" lon="27.36089"/>
      <trkpt lat="44.562252" lon="27.360893"/>
      <trkpt lat="44.562345" lon="27.360899"/>
      <trkpt lat="44.56258" lon="27.360907"/>
      <trkpt lat="44.562653" lon="27.360912"/>
      <trkpt lat="44.563112" lon="27.360924"/>
      <trkpt lat="44.563248" lon="27.360931"/>
      <trkpt lat="44.563264" lon="27.360115"/>
      <trkpt lat="44.563263" lon="27.36011"/>
      <trkpt lat="44.563264" lon="27.360115"/>
      <trkpt lat="44.563248" lon="27.360931"/>
      <trkpt lat="44.563112" lon="27.360924"/>
      <trkpt lat="44.562653" lon="27.360912"/>
      <trkpt lat="44.56258" lon="27.360907"/>
      <trkpt lat="44.562345" lon="27.360899"/>
      <trkpt lat="44.562252" lon="27.360893"/>
      <trkpt lat="44.562148" lon="27.36089"/>
      <trkpt lat="44.562144" lon="27.361151"/>
      <trkpt lat="44.562135" lon="27.361497"/>
      <trkpt lat="44.562116" lon="27.363291"/>
      <trkpt lat="44.562004" lon="27.363294"/>
      <trkpt lat="44.562007" lon="27.3631"/>
      <trkpt lat="44.561909" lon="27.363097"/>
      <trkpt lat="44.562007" lon="27.3631"/>
      <trkpt lat="44.562004" lon="27.363294"/>
      <trkpt lat="44.562005" lon="27.363639"/>
      <trkpt lat="44.562005" lon="27.363916"/>
      <trkpt lat="44.562004" lon="27.364129"/>
      <trkpt lat="44.562122" lon="27.36413"/>
      <trkpt lat="44.562198" lon="27.364128"/>
      <trkpt lat="44.5624" lon="27.364118"/>
      <trkpt lat="44.562787" lon="27.364082"/>
      <trkpt lat="44.563082" lon="27.36404"/>
      <trkpt lat="44.563093" lon="27.3642"/>
      <trkpt lat="44.563182" lon="27.36519"/>
      <trkpt lat="44.563955" lon="27.365177"/>
      <trkpt lat="44.564009" lon="27.365175"/>
      <trkpt lat="44.564008" lon="27.36498"/>
      <trkpt lat="44.564006" lon="27.364338"/>
      <trkpt lat="44.564006" lon="27.364273"/>
      <trkpt lat="44.564006" lon="27.364209"/>
      <trkpt lat="44.564007" lon="27.364172"/>
      <trkpt lat="44.563903" lon="27.363986"/>
      <trkpt lat="44.563848" lon="27.363887"/>
      <trkpt lat="44.563794" lon="27.363897"/>
      <trkpt lat="44.563541" lon="27.363953"/>
      <trkpt lat="44.563291" lon="27.363999"/>
      <trkpt lat="44.563082" lon="27.36404"/>
      <trkpt lat="44.562787" lon="27.364082"/>
      <trkpt lat="44.5624" lon="27.364118"/>
      <trkpt lat="44.562198" lon="27.364128"/>
      <trkpt lat="44.562122" lon="27.36413"/>
      <trkpt lat="44.562004" lon="27.364129"/>
      <trkpt lat="44.56168" lon="27.364116"/>
      <trkpt lat="44.561519" lon="27.364086"/>
      <trkpt lat="44.561402" lon="27.364062"/>
      <trkpt lat="44.561276" lon="27.36405"/>
      <trkpt lat="44.561195" lon="27.364049"/>
      <trkpt lat="44.56021" lon="27.36402"/>
      <trkpt lat="44.560216" lon="27.364219"/>
      <trkpt lat="44.559531" lon="27.364278"/>
      <trkpt lat="44.559344" lon="27.364336"/>
      <trkpt lat="44.559154" lon="27.364412"/>
      <trkpt lat="44.559074" lon="27.364442"/>
      <trkpt lat="44.558983" lon="27.364477"/>
      <trkpt lat="44.559196" lon="27.365368"/>
      <trkpt lat="44.558983" lon="27.364477"/>
      <trkpt lat="44.558955" lon="27.364352"/>
      <trkpt lat="44.558843" lon="27.363894"/>
      <trkpt lat="44.558622" lon="27.36303"/>
      <trkpt lat="44.558594" lon="27.362884"/>
      <trkpt lat="44.558495" lon="27.362458"/>
      <trkpt lat="44.558403" lon="27.362097"/>
      <trkpt lat="44.558363" lon="27.361945"/>
      <trkpt lat="44.558927" lon="27.361587"/>
      <trkpt lat="44.558639" lon="27.361373"/>
      <trkpt lat="44.558659" lon="27.361518"/>
      <trkpt lat="44.558639" lon="27.361373"/>
      <trkpt lat="44.558927" lon="27.361587"/>
      <trkpt lat="44.559345" lon="27.361332"/>
      <trkpt lat="44.55978" lon="27.361067"/>
      <trkpt lat="44.559877" lon="27.361022"/>
      <trkpt lat="44.560056" lon="27.360954"/>
      <trkpt lat="44.560079" lon="27.361092"/>
      <trkpt lat="44.560088" lon="27.36137"/>
      <trkpt lat="44.560072" lon="27.361598"/>
      <trkpt lat="44.560044" lon="27.361832"/>
      <trkpt lat="44.560001" lon="27.362029"/>
      <trkpt lat="44.560018" lon="27.362389"/>
      <trkpt lat="44.560148" lon="27.363224"/>
      <trkpt lat="44.560169" lon="27.363366"/>
      <trkpt lat="44.560205" lon="27.363712"/>
      <trkpt lat="44.56021" lon="27.36402"/>
      <trkpt lat="44.561195" lon="27.364049"/>
      <trkpt lat="44.561276" lon="27.36405"/>
      <trkpt lat="44.561402" lon="27.364062"/>
      <trkpt lat="44.561519" lon="27.364086"/>
      <trkpt lat="44.56168" lon="27.364116"/>
      <trkpt lat="44.562004" lon="27.364129"/>
      <trkpt lat="44.562122" lon="27.36413"/>
      <trkpt lat="44.562198" lon="27.364128"/>
      <trkpt lat="44.5624" lon="27.364118"/>
      <trkpt lat="44.562787" lon="27.364082"/>
      <trkpt lat="44.563082" lon="27.36404"/>
      <trkpt lat="44.563093" lon="27.3642"/>
      <trkpt lat="44.563182" lon="27.36519"/>
      <trkpt lat="44.563194" lon="27.365992"/>
      <trkpt lat="44.563194" lon="27.366509"/>
      <trkpt lat="44.563194" lon="27.366652"/>
      <trkpt lat="44.563191" lon="27.367411"/>
      <trkpt lat="44.563199" lon="27.368156"/>
      <trkpt lat="44.5632" lon="27.368275"/>
      <trkpt lat="44.563418" lon="27.368764"/>
      <trkpt lat="44.563198" lon="27.36908"/>
      <trkpt lat="44.562865" lon="27.369512"/>
      <trkpt lat="44.563517" lon="27.370253"/>
      <trkpt lat="44.563665" lon="27.370431"/>
      <trkpt lat="44.563714" lon="27.370575"/>
      <trkpt lat="44.563754" lon="27.370652"/>
      <trkpt lat="44.56429" lon="27.371338"/>
      <trkpt lat="44.564355" lon="27.371283"/>
      <trkpt lat="44.564832" lon="27.37087"/>
      <trkpt lat="44.565304" lon="27.371624"/>
      <trkpt lat="44.565092" lon="27.372063"/>
      <trkpt lat="44.564791" lon="27.372722"/>
      <trkpt lat="44.564546" lon="27.373248"/>
      <trkpt lat="44.564044" lon="27.374256"/>
      <trkpt lat="44.563757" lon="27.374674"/>
      <trkpt lat="44.56348" lon="27.375054"/>
      <trkpt lat="44.563516" lon="27.375466"/>
      <trkpt lat="44.563593" lon="27.376136"/>
      <trkpt lat="44.563634" lon="27.376475"/>
      <trkpt lat="44.563674" lon="27.376719"/>
      <trkpt lat="44.563713" lon="27.376907"/>
      <trkpt lat="44.563749" lon="27.377033"/>
      <trkpt lat="44.563916" lon="27.377406"/>
      <trkpt lat="44.564292" lon="27.378092"/>
      <trkpt lat="44.564484" lon="27.378415"/>
      <trkpt lat="44.564902" lon="27.379119"/>
      <trkpt lat="44.565849" lon="27.380657"/>
      <trkpt lat="44.565919" lon="27.380771"/>
      <trkpt lat="44.56583" lon="27.380874"/>
      <trkpt lat="44.565117" lon="27.381765"/>
      <trkpt lat="44.565011" lon="27.381898"/>
      <trkpt lat="44.56492" lon="27.381778"/>
      <trkpt lat="44.564816" lon="27.381811"/>
      <trkpt lat="44.563818" lon="27.381764"/>
      <trkpt lat="44.563779" lon="27.381691"/>
      <trkpt lat="44.563726" lon="27.381734"/>
      <trkpt lat="44.56391" lon="27.382047"/>
      <trkpt lat="44.56401" lon="27.382235"/>
      <trkpt lat="44.563116" lon="27.383036"/>
      <trkpt lat="44.562976" lon="27.383153"/>
      <trkpt lat="44.562858" lon="27.383291"/>
      <trkpt lat="44.562356" lon="27.383694"/>
      <trkpt lat="44.562119" lon="27.383485"/>
      <trkpt lat="44.562085" lon="27.383799"/>
      <trkpt lat="44.562004" lon="27.384561"/>
      <trkpt lat="44.56191" lon="27.385474"/>
      <trkpt lat="44.561804" lon="27.386085"/>
      <trkpt lat="44.561535" lon="27.387268"/>
      <trkpt lat="44.561443" lon="27.387577"/>
      <trkpt lat="44.561087" lon="27.388129"/>
      <trkpt lat="44.560007" lon="27.389797"/>
      <trkpt lat="44.55991" lon="27.389939"/>
      <trkpt lat="44.559257" lon="27.390964"/>
      <trkpt lat="44.559042" lon="27.391336"/>
      <trkpt lat="44.559002" lon="27.391405"/>
      <trkpt lat="44.558901" lon="27.39164"/>
      <trkpt lat="44.558814" lon="27.391617"/>
      <trkpt lat="44.558901" lon="27.39164"/>
      <trkpt lat="44.559002" lon="27.391405"/>
      <trkpt lat="44.559042" lon="27.391336"/>
      <trkpt lat="44.559257" lon="27.390964"/>
      <trkpt lat="44.55991" lon="27.389939"/>
      <trkpt lat="44.560007" lon="27.389797"/>
      <trkpt lat="44.561087" lon="27.388129"/>
      <trkpt lat="44.561443" lon="27.387577"/>
      <trkpt lat="44.561535" lon="27.387268"/>
      <trkpt lat="44.561804" lon="27.386085"/>
      <trkpt lat="44.56191" lon="27.385474"/>
      <trkpt lat="44.562004" lon="27.384561"/>
      <trkpt lat="44.562085" lon="27.383799"/>
      <trkpt lat="44.562119" lon="27.383485"/>
      <trkpt lat="44.562356" lon="27.383694"/>
      <trkpt lat="44.562858" lon="27.383291"/>
      <trkpt lat="44.562976" lon="27.383153"/>
      <trkpt lat="44.563116" lon="27.383036"/>
      <trkpt lat="44.56401" lon="27.382235"/>
      <trkpt lat="44.56391" lon="27.382047"/>
      <trkpt lat="44.563726" lon="27.381734"/>
      <trkpt lat="44.563779" lon="27.381691"/>
      <trkpt lat="44.563818" lon="27.381764"/>
      <trkpt lat="44.564816" lon="27.381811"/>
      <trkpt lat="44.56492" lon="27.381778"/>
      <trkpt lat="44.565011" lon="27.381898"/>
      <trkpt lat="44.565117" lon="27.381765"/>
      <trkpt lat="44.56583" lon="27.380874"/>
      <trkpt lat="44.565919" lon="27.380771"/>
      <trkpt lat="44.565849" lon="27.380657"/>
      <trkpt lat="44.564902" lon="27.379119"/>
      <trkpt lat="44.564484" lon="27.378415"/>
      <trkpt lat="44.564292" lon="27.378092"/>
      <trkpt lat="44.563916" lon="27.377406"/>
      <trkpt lat="44.563749" lon="27.377033"/>
      <trkpt lat="44.563713" lon="27.376907"/>
      <trkpt lat="44.563674" lon="27.376719"/>
      <trkpt lat="44.563634" lon="27.376475"/>
      <trkpt lat="44.563593" lon="27.376136"/>
      <trkpt lat="44.563516" lon="27.375466"/>
      <trkpt lat="44.56348" lon="27.375054"/>
      <trkpt lat="44.563757" lon="27.374674"/>
      <trkpt lat="44.564044" lon="27.374256"/>
      <trkpt lat="44.564546" lon="27.373248"/>
      <trkpt lat="44.564791" lon="27.372722"/>
      <trkpt lat="44.565092" lon="27.372063"/>
      <trkpt lat="44.565304" lon="27.371624"/>
      <trkpt lat="44.564832" lon="27.37087"/>
      <trkpt lat="44.564355" lon="27.371283"/>
      <trkpt lat="44.56429" lon="27.371338"/>
      <trkpt lat="44.563754" lon="27.370652"/>
      <trkpt lat="44.563714" lon="27.370575"/>
      <trkpt lat="44.563665" lon="27.370431"/>
      <trkpt lat="44.563517" lon="27.370253"/>
      <trkpt lat="44.562865" lon="27.369512"/>
      <trkpt lat="44.563198" lon="27.36908"/>
      <trkpt lat="44.563418" lon="27.368764"/>
      <trkpt lat="44.5632" lon="27.368275"/>
      <trkpt lat="44.563199" lon="27.368156"/>
      <trkpt lat="44.563191" lon="27.367411"/>
      <trkpt lat="44.563194" lon="27.366652"/>
      <trkpt lat="44.563194" lon="27.366509"/>
      <trkpt lat="44.563194" lon="27.365992"/>
      <trkpt lat="44.563182" lon="27.36519"/>
      <trkpt lat="44.563093" lon="27.3642"/>
      <trkpt lat="44.563082" lon="27.36404"/>
      <trkpt lat="44.562787" lon="27.364082"/>
      <trkpt lat="44.5624" lon="27.364118"/>
      <trkpt lat="44.562198" lon="27.364128"/>
      <trkpt lat="44.562122" lon="27.36413"/>
      <trkpt lat="44.562004" lon="27.364129"/>
      <trkpt lat="44.56168" lon="27.364116"/>
      <trkpt lat="44.561519" lon="27.364086"/>
      <trkpt lat="44.561402" lon="27.364062"/>
      <trkpt lat="44.561276" lon="27.36405"/>
      <trkpt lat="44.561195" lon="27.364049"/>
      <trkpt lat="44.56021" lon="27.36402"/>
      <trkpt lat="44.560205" lon="27.363712"/>
      <trkpt lat="44.560169" lon="27.363366"/>
      <trkpt lat="44.560148" lon="27.363224"/>
      <trkpt lat="44.560018" lon="27.362389"/>
      <trkpt lat="44.560001" lon="27.362029"/>
      <trkpt lat="44.560044" lon="27.361832"/>
      <trkpt lat="44.560072" lon="27.361598"/>
      <trkpt lat="44.560088" lon="27.36137"/>
      <trkpt lat="44.560079" lon="27.361092"/>
      <trkpt lat="44.560056" lon="27.360954"/>
      <trkpt lat="44.559877" lon="27.361022"/>
      <trkpt lat="44.55978" lon="27.361067"/>
      <trkpt lat="44.559345" lon="27.361332"/>
      <trkpt lat="44.558927" lon="27.361587"/>
      <trkpt lat="44.558639" lon="27.361373"/>
      <trkpt lat="44.558659" lon="27.361518"/>
      <trkpt lat="44.558639" lon="27.361373"/>
      <trkpt lat="44.558927" lon="27.361587"/>
      <trkpt lat="44.559345" lon="27.361332"/>
      <trkpt lat="44.55978" lon="27.361067"/>
      <trkpt lat="44.559877" lon="27.361022"/>
      <trkpt lat="44.560056" lon="27.360954"/>
      <trkpt lat="44.560079" lon="27.361092"/>
      <trkpt lat="44.560088" lon="27.36137"/>
      <trkpt lat="44.560072" lon="27.361598"/>
      <trkpt lat="44.560044" lon="27.361832"/>
      <trkpt lat="44.560001" lon="27.362029"/>
      <trkpt lat="44.560018" lon="27.362389"/>
      <trkpt lat="44.560148" lon="27.363224"/>
      <trkpt lat="44.560169" lon="27.363366"/>
      <trkpt lat="44.560205" lon="27.363712"/>
      <trkpt lat="44.56021" lon="27.36402"/>
      <trkpt lat="44.560216" lon="27.364219"/>
      <trkpt lat="44.56039" lon="27.364677"/>
      <trkpt lat="44.560419" lon="27.364824"/>
      <trkpt lat="44.560425" lon="27.365455"/>
      <trkpt lat="44.560443" lon="27.366222"/>
      <trkpt lat="44.560454" lon="27.366503"/>
      <trkpt lat="44.560467" lon="27.366973"/>
      <trkpt lat="44.560511" lon="27.367621"/>
      <trkpt lat="44.560519" lon="27.367739"/>
      <trkpt lat="44.56055" lon="27.368381"/>
      <trkpt lat="44.561194" lon="27.36837"/>
      <trkpt lat="44.5612" lon="27.368471"/>
      <trkpt lat="44.561218" lon="27.368535"/>
      <trkpt lat="44.561248" lon="27.36856"/>
      <trkpt lat="44.561434" lon="27.368596"/>
      <trkpt lat="44.561991" lon="27.368612"/>
      <trkpt lat="44.562135" lon="27.368615"/>
      <trkpt lat="44.562137" lon="27.369051"/>
      <trkpt lat="44.562138" lon="27.369319"/>
      <trkpt lat="44.562138" lon="27.369455"/>
    </trkseg>
  </trk>
</gpx>
