{"type": "FeatureCollection", "features": [{"type": "Feature", "properties": {"creator": "BRouter-1.7.10", "name": "brouter_trekking_0", "track-length": "1975", "filtered ascend": "0", "plain-ascend": "-5", "total-time": "337", "total-energy": "33732", "cost": "6829", "messages": [["Longitude", "Latitude", "Elevation", "Distance", "CostPerKm", "ElevCost", "TurnCost", "NodeCost", "InitialCost", "WayTags", "NodeTags", "Time", "Energy"], ["27364130", "44562122", "28", "0", "3050", "0", "0", "0", "0", "highway=primary surface=asphalt smoothness=excellent oneway=no", "estimated_crossing_class=5", "0", "25"], ["27364315", "44562123", "28", "15", "3050", "0", "0", "0", "0", "highway=primary surface=asphalt smoothness=excellent oneway=no", "highway=crossing estimated_crossing_class=5", "3", "395"], ["27364727", "44562123", "27", "33", "3050", "0", "0", "0", "0", "highway=primary surface=asphalt smoothness=excellent oneway=no", "estimated_crossing_class=5", "10", "1023"], ["27365877", "44562128", "23", "91", "3050", "0", "0", "0", "0", "highway=primary surface=asphalt smoothness=excellent oneway=no", "highway=crossing estimated_crossing_class=5", "20", "2056"], ["27366253", "44562127", "23", "30", "3050", "0", "0", "0", "0", "highway=primary surface=asphalt smoothness=excellent oneway=no", "estimated_crossing_class=5", "24", "2420"], ["27367418", "44562131", "24", "93", "3050", "0", "0", "0", "0", "highway=primary surface=asphalt smoothness=excellent oneway=no", "highway=crossing estimated_crossing_class=5", "40", "4080"], ["27368615", "44562135", "23", "95", "3050", "0", "0", "0", "0", "highway=primary surface=asphalt smoothness=excellent oneway=no", "estimated_crossing_class=5", "53", "5398"], ["27369319", "44562138", "24", "56", "3050", "0", "0", "0", "0", "highway=primary surface=asphalt smoothness=excellent oneway=no", "highway=crossing estimated_crossing_class=4", "64", "6446"], ["27369488", "44562139", "24", "13", "3050", "0", "0", "0", "0", "highway=primary surface=asphalt smoothness=excellent oneway=no", "estimated_crossing_class=4", "67", "6726"], ["27369851", "44562144", "25", "29", "3050", "0", "0", "0", "0", "highway=primary surface=asphalt smoothness=excellent oneway=no", "highway=crossing estimated_crossing_class=4", "73", "7399"], ["27372667", "44562162", "27", "224", "3050", "0", "0", "0", "0", "highway=primary surface=asphalt smoothness=excellent oneway=no", "highway=crossing estimated_crossing_class=4", "121", "12158"], ["27372732", "44562163", "26", "5", "3050", "0", "0", "0", "0", "highway=primary surface=asphalt smoothness=excellent oneway=no", "estimated_crossing_class=4", "122", "12245"], ["27372857", "44562162", "26", "10", "3050", "0", "0", "0", "0", "highway=primary surface=asphalt smoothness=excellent oneway=no", "estimated_crossing_class=4", "124", "12418"], ["27373708", "44562154", "24", "68", "3050", "0", "0", "0", "0", "highway=primary surface=asphalt smoothness=excellent oneway=no", "estimated_crossing_class=4", "132", "13240"], ["27375844", "44562376", "25", "171", "3050", "0", "0", "0", "0", "highway=primary surface=asphalt smoothness=excellent oneway=no", "highway=crossing crossing=uncontrolled", "159", "15947"], ["27375962", "44562392", "26", "10", "3050", "0", "0", "0", "0", "highway=primary surface=asphalt smoothness=excellent oneway=no", "estimated_crossing_class=4", "161", "16155"], ["27377422", "44562592", "26", "119", "3050", "0", "0", "0", "0", "highway=primary surface=asphalt smoothness=excellent oneway=no", "estimated_crossing_class=4", "187", "18743"], ["27378287", "44562895", "22", "77", "3050", "0", "0", "0", "0", "highway=primary surface=asphalt smoothness=excellent oneway=no", "estimated_crossing_class=4", "198", "19877"], ["27378483", "44562993", "21", "19", "3050", "0", "0", "0", "0", "highway=primary surface=asphalt smoothness=excellent oneway=no", "highway=crossing estimated_crossing_class=4 crossing=uncontrolled", "201", "20164"], ["27380255", "44564023", "24", "182", "3050", "0", "0", "0", "0", "highway=primary surface=asphalt smoothness=excellent oneway=no", "estimated_crossing_class=4", "231", "23186"], ["27381570", "44564772", "24", "134", "3050", "0", "0", "0", "0", "highway=primary surface=asphalt smoothness=excellent oneway=no", "highway=crossing estimated_crossing_class=4", "252", "25262"], ["27381778", "44564920", "23", "23", "3050", "0", "0", "0", "0", "highway=primary surface=asphalt smoothness=excellent oneway=no", "estimated_crossing_class=4", "256", "25615"], ["27381898", "44565011", "24", "14", "3050", "0", "0", "0", "0", "highway=primary surface=asphalt smoothness=excellent oneway=no", "estimated_crossing_class=4", "258", "25847"], ["27382104", "44565186", "24", "25", "3050", "0", "0", "0", "0", "highway=primary surface=asphalt smoothness=excellent oneway=no", "estimated_crossing_class=4", "262", "26287"], ["27383498", "44566664", "25", "198", "3050", "0", "0", "0", "0", "highway=primary surface=asphalt oneway=no", "highway=crossing estimated_crossing_class=4", "297", "29798"], ["27384220", "44567400", "25", "100", "3050", "0", "0", "0", "0", "highway=primary surface=asphalt oneway=no", "estimated_crossing_class=4", "318", "31862"], ["27384372", "44567555", "25", "21", "3050", "0", "0", "0", "0", "highway=primary surface=asphalt oneway=no", "highway=crossing estimated_crossing_class=4", "321", "32189"], ["27384571", "44567749", "23", "27", "3050", "0", "0", "0", "0", "highway=primary surface=asphalt oneway=no", "estimated_crossing_class=4", "324", "32491"], ["27384422", "44568161", "21", "51", "5050", "0", "110", "0", "0", "reversedirection=yes highway=footway", "", "332", "33263"], ["27384792", "44567999", "22", "37", "5050", "0", "157", "0", "0", "highway=footway", "estimated_crossing_class=3", "336", "33676"], ["27384818", "44568039", "22", "5", "53050", "0", "109", "0", "0", "reversedirection=yes highway=primary surface=asphalt oneway=yes", "", "337", "33732"]], "times": [0.255, 3.958, 10.235, 13.83, 20.558, 24.201, 40.797, 43.876, 53.977, 60.077, 64.458, 67.257, 73.99, 101.738, 121.574, 122.442, 124.173, 132.391, 135.087, 137.962, 141.937, 150.271, 159.45, 161.53, 184.134, 187.408, 189.742, 190.299, 191.719, 193.532, 198.745, 201.615, 206.663, 221.528, 231.836, 243.334, 252.598, 256.124, 258.441, 262.846, 271.617, 286.54, 297.947, 318.585, 321.855, 324.88, 326.409, 332.6, 332.935, 333.27, 336.725, 337.285]}, "geometry": {"type": "LineString", "coordinates": [[27.36413, 44.562122, 28.25], [27.364315, 44.562123, 28.25], [27.364727, 44.562123, 27.5], [27.365053, 44.562124, 23.25], [27.365877, 44.562128, 23.25], [27.366253, 44.562127, 23.25], [27.367418, 44.562131, 24.75], [27.367671, 44.562131, 23.0], [27.368615, 44.562135, 23.0], [27.369051, 44.562137, 23.75], [27.369319, 44.562138, 24.5], [27.369488, 44.562139, 24.75], [27.369851, 44.562144, 25.25], [27.371426, 44.562154, 27.0], [27.372667, 44.562162, 27.0], [27.372732, 44.562163, 26.75], [27.372857, 44.562162, 26.75], [27.373708, 44.562154, 24.75], [27.374002, 44.562154, 24.0], [27.374289, 44.562169, 24.0], [27.37463, 44.562208, 24.5], [27.375237, 44.562292, 25.5], [27.375844, 44.562376, 25.5], [27.375962, 44.562392, 26.0], [27.377183, 44.562552, 27.0], [27.377422, 44.562592, 26.25], [27.37762, 44.562635, 25.75], [27.377671, 44.56265, 25.25], [27.377775, 44.56268, 25.25], [27.377938, 44.562742, 24.0], [27.378287, 44.562895, 22.0], [27.378483, 44.562993, 21.75], [27.378906, 44.563234, 23.25], [27.37964, 44.56367, 25.25], [27.380255, 44.564023, 24.75], [27.381001, 44.564447, 24.0], [27.38157, 44.564772, 24.0], [27.381778, 44.56492, 23.75], [27.381898, 44.565011, 24.0], [27.382104, 44.565186, 24.25], [27.38252, 44.565597, 23.75], [27.3831, 44.566229, 25.0], [27.383498, 44.566664, 25.0], [27.38422, 44.5674, 25.75], [27.384372, 44.567555, 25.0], [27.384571, 44.567749, 23.25], [27.38444, 44.567831, 22.75], [27.384422, 44.568161, 21.5], [27.384443, 44.568167, 21.5], [27.384458, 44.56818, 21.5], [27.384792, 44.567999, 22.0], [27.384818, 44.568039, 22.0]]}}]}