{"type": "FeatureCollection", "features": [{"type": "Feature", "properties": {"creator": "BRouter-1.7.10", "name": "brouter_trekking_0", "track-length": "258", "filtered ascend": "2", "plain-ascend": "2", "total-time": "40", "total-energy": "4011", "cost": "786", "messages": [["Longitude", "Latitude", "Elevation", "Distance", "CostPerKm", "ElevCost", "TurnCost", "NodeCost", "InitialCost", "WayTags", "NodeTags", "Time", "Energy"], ["27361151", "44562144", "25", "21", "3050", "0", "0", "0", "0", "highway=primary surface=asphalt smoothness=excellent oneway=no", "highway=crossing estimated_crossing_class=0 crossing=zebra", "2", "296"], ["27363291", "44562116", "24", "171", "3050", "0", "0", "0", "0", "highway=primary surface=asphalt smoothness=excellent oneway=no", "estimated_crossing_class=5", "25", "2563"], ["27363636", "44562119", "25", "27", "3050", "0", "0", "0", "0", "highway=primary surface=asphalt smoothness=excellent oneway=no", "estimated_crossing_class=5", "30", "3078"], ["27363914", "44562121", "26", "22", "3050", "0", "0", "0", "0", "highway=primary surface=asphalt smoothness=excellent oneway=no", "highway=crossing estimated_crossing_class=5", "37", "3709"], ["27364130", "44562122", "28", "17", "3050", "0", "0", "0", "0", "highway=primary surface=asphalt smoothness=excellent oneway=no", "", "40", "4011"]], "times": [0, 2.966, 7.065, 25.626, 30.784, 37.086, 40.111]}, "geometry": {"type": "LineString", "coordinates": [[27.36089, 44.562148, 26.25], [27.361151, 44.562144, 25.5], [27.361497, 44.562135, 25.5], [27.363291, 44.562116, 24.0], [27.363636, 44.562119, 25.0], [27.363914, 44.562121, 26.75], [27.36413, 44.562122, 28.25]]}}]}