{"type": "FeatureCollection", "features": [{"type": "Feature", "properties": {"creator": "BRouter-1.7.10", "name": "brouter_trekking_0", "track-length": "651", "filtered ascend": "1", "plain-ascend": "1", "total-time": "113", "total-energy": "11290", "cost": "2200", "messages": [["Longitude", "Latitude", "Elevation", "Distance", "CostPerKm", "ElevCost", "TurnCost", "NodeCost", "InitialCost", "WayTags", "NodeTags", "Time", "Energy"], ["27352889", "44562400", "25", "0", "5050", "0", "0", "0", "0", "reversedirection=yes highway=footway", "", "0", "16"], ["27352917", "44562532", "26", "15", "5150", "0", "92", "0", "0", "reversedirection=yes highway=residential surface=asphalt oneway=yes", "estimated_crossing_class=5", "2", "285"], ["27352994", "44562526", "26", "6", "3050", "0", "86", "0", "0", "highway=primary surface=asphalt smoothness=excellent oneway=no", "highway=crossing estimated_crossing_class=5", "3", "392"], ["27354854", "44562347", "25", "149", "3050", "0", "0", "0", "0", "highway=primary surface=asphalt smoothness=excellent oneway=no", "highway=crossing estimated_crossing_class=0 crossing=zebra", "27", "2794"], ["27354998", "44562336", "25", "12", "3050", "0", "0", "0", "0", "highway=primary surface=asphalt smoothness=excellent oneway=no", "estimated_crossing_class=5", "29", "2980"], ["27355169", "44562322", "25", "14", "3050", "0", "0", "0", "0", "highway=primary surface=asphalt smoothness=excellent oneway=no", "highway=crossing estimated_crossing_class=0 crossing=zebra", "31", "3187"], ["27356442", "44562255", "26", "101", "3050", "0", "0", "0", "0", "highway=primary surface=asphalt smoothness=excellent oneway=no", "highway=crossing estimated_crossing_class=5", "49", "4998"], ["27358795", "44562198", "26", "188", "3050", "0", "0", "0", "0", "highway=primary surface=asphalt smoothness=excellent oneway=no", "highway=crossing estimated_crossing_class=5 crossing=uncontrolled", "82", "8252"], ["27359190", "44562189", "26", "31", "3050", "0", "0", "0", "0", "highway=primary surface=asphalt smoothness=excellent oneway=no", "estimated_crossing_class=5", "88", "8839"], ["27360671", "44562155", "26", "118", "3050", "0", "0", "0", "0", "highway=primary surface=asphalt smoothness=excellent oneway=no", "highway=crossing estimated_crossing_class=0 crossing=zebra", "110", "11026"], ["27360890", "44562148", "26", "17", "3050", "0", "0", "0", "0", "highway=primary surface=asphalt smoothness=excellent oneway=no", "", "112", "11290"]], "times": [0.168, 2.853, 3.92, 27.941, 29.804, 31.872, 45.188, 49.984, 51.618, 70.821, 82.518, 84.133, 88.391, 110.257, 112.904]}, "geometry": {"type": "LineString", "coordinates": [[27.352889, 44.5624, 25.75], [27.352917, 44.562532, 26.0], [27.352994, 44.562526, 26.0], [27.354854, 44.562347, 25.5], [27.354998, 44.562336, 25.25], [27.355169, 44.562322, 25.0], [27.356111, 44.562267, 25.75], [27.356442, 44.562255, 26.0], [27.35655, 44.562252, 26.5], [27.357867, 44.562225, 26.5], [27.358795, 44.562198, 26.0], [27.358923, 44.562195, 26.75], [27.35919, 44.562189, 26.75], [27.360671, 44.562155, 26.75], [27.36089, 44.562148, 26.25]]}}]}