{"type": "FeatureCollection", "features": [{"type": "Feature", "properties": {"creator": "BRouter-1.7.10", "name": "brouter_trekking_0", "track-length": "747", "filtered ascend": "0", "plain-ascend": "-1", "total-time": "128", "total-energy": "12803", "cost": "1082", "messages": [["Longitude", "Latitude", "Elevation", "Distance", "CostPerKm", "ElevCost", "TurnCost", "NodeCost", "InitialCost", "WayTags", "NodeTags", "Time", "Energy"], ["27360890", "44562148", "26", "0", "1450", "0", "0", "0", "0", "highway=tertiary surface=asphalt", "estimated_crossing_class=5", "0", "20"], ["27360887", "44562026", "27", "14", "1450", "0", "0", "0", "0", "highway=tertiary surface=asphalt", "highway=crossing crossing=uncontrolled", "3", "367"], ["27360917", "44560179", "24", "206", "1450", "0", "0", "0", "0", "highway=tertiary surface=asphalt", "highway=crossing crossing=uncontrolled", "39", "3902"], ["27362419", "44557674", "25", "304", "1450", "0", "0", "0", "0", "highway=tertiary surface=asphalt", "highway=crossing", "94", "9437"], ["27363616", "44555861", "24", "223", "1450", "0", "0", "0", "0", "highway=tertiary surface=asphalt", "", "128", "12803"]], "times": [0.207, 3.676, 24.075, 27.292, 28.776, 31.204, 39.024, 41.219, 44.191, 45.785, 53.766, 64.266, 78.612, 94.37, 128.026]}, "geometry": {"type": "LineString", "coordinates": [[27.36089, 44.562148, 26.25], [27.360887, 44.562026, 27.0], [27.360845, 44.561073, 26.5], [27.360841, 44.560845, 24.5], [27.36084, 44.560756, 24.5], [27.36085, 44.560598, 24.0], [27.360917, 44.560179, 24.75], [27.360954, 44.560056, 24.5], [27.361022, 44.559877, 24.0], [27.361067, 44.55978, 24.0], [27.361332, 44.559345, 24.0], [27.361587, 44.558927, 25.25], [27.361945, 44.558363, 25.75], [27.362419, 44.557674, 25.75], [27.363616, 44.555861, 24.5]]}}]}