{"type": "FeatureCollection", "features": [{"type": "Feature", "properties": {"creator": "BRouter-1.7.10", "name": "brouter_trekking_0", "track-length": "177", "filtered ascend": "0", "plain-ascend": "-3", "total-time": "28", "total-energy": "2770", "cost": "362", "messages": [["Longitude", "Latitude", "Elevation", "Distance", "CostPerKm", "ElevCost", "TurnCost", "NodeCost", "InitialCost", "WayTags", "NodeTags", "Time", "Energy"], ["27360995", "44564727", "27", "25", "1450", "0", "0", "0", "0", "reversedirection=yes highway=tertiary surface=asphalt", "highway=crossing", "4", "462"], ["27361090", "44565020", "26", "34", "1450", "0", "8", "0", "0", "highway=tertiary surface=asphalt oneway=yes", "highway=crossing", "9", "988"], ["27361092", "44566062", "23", "116", "1450", "0", "0", "0", "0", "highway=tertiary surface=asphalt oneway=yes", "highway=crossing", "27", "2739"], ["27361112", "44566062", "23", "2", "5050", "0", "90", "0", "0", "reversedirection=yes highway=footway", "", "27", "2770"]], "times": [0.168, 4.63, 6.949, 8.351, 9.885, 27.392, 27.709]}, "geometry": {"type": "LineString", "coordinates": [[27.360981, 44.564502, 27.5], [27.360995, 44.564727, 27.75], [27.361066, 44.564847, 27.5], [27.36109, 44.564925, 27.25], [27.36109, 44.56502, 26.75], [27.361092, 44.566062, 23.75], [27.361112, 44.566062, 23.75]]}}]}