{"type": "FeatureCollection", "features": [{"type": "Feature", "properties": {"creator": "BRouter-1.7.10", "name": "brouter_trekking_0", "track-length": "506", "filtered ascend": "1", "plain-ascend": "1", "total-time": "85", "total-energy": "8481", "cost": "1405", "messages": [["Longitude", "Latitude", "Elevation", "Distance", "CostPerKm", "ElevCost", "TurnCost", "NodeCost", "InitialCost", "WayTags", "NodeTags", "Time", "Energy"], ["27360981", "44564502", "27", "0", "21450", "0", "0", "0", "0", "reversedirection=yes highway=tertiary surface=asphalt oneway=yes", "", "0", "17"], ["27360975", "44564415", "27", "10", "1450", "0", "73", "0", "0", "highway=tertiary surface=asphalt", "", "1", "197"], ["27361170", "44564399", "28", "16", "1450", "0", "84", "0", "0", "highway=tertiary surface=asphalt oneway=yes", "highway=crossing", "5", "520"], ["27363536", "44564052", "23", "194", "1450", "0", "0", "0", "0", "highway=tertiary surface=asphalt oneway=yes", "highway=crossing", "28", "2892"], ["27363887", "44563848", "24", "37", "1450", "0", "0", "0", "0", "highway=tertiary surface=asphalt oneway=yes", "", "34", "3435"], ["27363897", "44563794", "23", "6", "1450", "0", "20", "0", "0", "reversedirection=yes highway=tertiary surface=asphalt oneway=no", "highway=crossing", "35", "3520"], ["27363986", "44563903", "24", "24", "5050", "0", "195", "0", "0", "reversedirection=yes highway=footway", "highway=crossing", "38", "3872"], ["27363923", "44563967", "24", "9", "5050", "0", "0", "0", "0", "reversedirection=yes highway=footway", "", "40", "4014"], ["27363986", "44563903", "24", "9", "5050", "0", "0", "0", "0", "highway=footway", "highway=crossing", "41", "4165"], ["27363887", "44563848", "24", "10", "1450", "0", "85", "0", "0", "highway=tertiary surface=asphalt oneway=yes", "", "43", "4333"], ["27363897", "44563794", "23", "6", "1450", "0", "44", "0", "0", "reversedirection=yes highway=tertiary surface=asphalt oneway=no", "highway=crossing", "44", "4428"], ["27364128", "44562198", "28", "177", "1450", "0", "0", "0", "0", "reversedirection=yes highway=tertiary surface=asphalt oneway=no", "highway=crossing", "81", "8194"], ["27364130", "44562122", "28", "8", "1450", "0", "0", "0", "0", "reversedirection=yes highway=tertiary surface=asphalt oneway=no", "", "84", "8481"]], "times": [0.18, 1.972, 5.208, 16.529, 18.041, 21.23, 22.563, 25.104, 26.409, 28.919, 30.65, 32.115, 34.347, 35.197, 36.922, 37.941, 38.722, 40.135, 41.647, 43.327, 44.273, 48.484, 52.574, 57.574, 65.631, 77.945, 81.922, 84.796]}, "geometry": {"type": "LineString", "coordinates": [[27.360981, 44.564502, 27.5], [27.360975, 44.564415, 27.5], [27.36117, 44.564399, 28.0], [27.362201, 44.564337, 26.25], [27.362346, 44.564327, 25.5], [27.362732, 44.564283, 24.0], [27.362891, 44.564252, 23.5], [27.363187, 44.564178, 23.0], [27.363323, 44.564135, 23.0], [27.363536, 44.564052, 23.75], [27.363657, 44.563993, 24.0], [27.36375, 44.563939, 24.0], [27.363887, 44.563848, 24.0], [27.363897, 44.563794, 23.75], [27.364045, 44.563804, 23.75], [27.364025, 44.563865, 23.75], [27.363986, 44.563903, 24.0], [27.363923, 44.563967, 24.0], [27.363986, 44.563903, 24.0], [27.363887, 44.563848, 24.0], [27.363897, 44.563794, 23.75], [27.363953, 44.563541, 23.5], [27.363999, 44.563291, 23.25], [27.36404, 44.563082, 24.75], [27.364082, 44.562787, 25.5], [27.364118, 44.5624, 26.75], [27.364128, 44.562198, 28.5], [27.36413, 44.562122, 28.25]]}}]}