{"type": "FeatureCollection", "features": [{"type": "Feature", "properties": {"creator": "BRouter-1.7.10", "name": "brouter_trekking_0", "track-length": "834", "filtered ascend": "6", "plain-ascend": "4", "total-time": "155", "total-energy": "15544", "cost": "1610", "messages": [["Longitude", "Latitude", "Elevation", "Distance", "CostPerKm", "ElevCost", "TurnCost", "NodeCost", "InitialCost", "WayTags", "NodeTags", "Time", "Energy"], ["27350877", "44564671", "23", "8", "1450", "0", "0", "0", "0", "highway=tertiary surface=asphalt oneway=yes", "", "1", "126"], ["27350898", "44564586", "23", "10", "1450", "0", "97", "0", "0", "reversedirection=yes highway=tertiary surface=asphalt", "", "2", "275"], ["27351201", "44564605", "24", "24", "1450", "0", "83", "0", "0", "highway=tertiary surface=asphalt oneway=yes", "highway=crossing", "7", "724"], ["27353782", "44564631", "24", "205", "1450", "0", "0", "0", "0", "highway=tertiary surface=asphalt oneway=yes", "highway=crossing crossing=uncontrolled", "40", "4067"], ["27355483", "44564645", "24", "136", "1450", "0", "0", "0", "0", "highway=tertiary surface=asphalt oneway=yes", "highway=crossing crossing=uncontrolled", "66", "6664"], ["27357365", "44564651", "25", "149", "1450", "0", "0", "0", "0", "highway=tertiary surface=asphalt oneway=yes", "highway=crossing", "95", "9554"], ["27358286", "44564654", "30", "73", "1450", "0", "0", "0", "0", "highway=tertiary surface=asphalt oneway=yes", "highway=crossing", "114", "11449"], ["27359762", "44564654", "24", "118", "1450", "0", "0", "0", "0", "highway=tertiary surface=asphalt oneway=yes", "highway=crossing", "132", "13249"], ["27360975", "44564415", "27", "101", "1450", "0", "2", "0", "0", "highway=tertiary surface=asphalt oneway=yes", "", "152", "15302"], ["27360981", "44564502", "27", "10", "1450", "0", "101", "0", "0", "reversedirection=yes highway=tertiary surface=asphalt", "", "155", "15544"]], "times": [0, 1.261, 2.752, 5.12, 7.241, 8.385, 29.78, 40.652, 65.017, 66.626, 93.611, 95.522, 98.318, 99.446, 114.46, 117.253, 127.135, 132.465, 133.634, 135.02, 136.385, 149.691, 152.986, 155.411]}, "geometry": {"type": "LineString", "coordinates": [[27.350973, 44.564677, 24.0], [27.350877, 44.564671, 23.75], [27.350898, 44.564586, 23.5], [27.351057, 44.564597, 24.25], [27.351201, 44.564605, 24.5], [27.351273, 44.564609, 24.5], [27.353128, 44.564622, 23.0], [27.353782, 44.564631, 24.25], [27.355374, 44.564644, 24.5], [27.355483, 44.564645, 24.5], [27.357238, 44.564649, 25.25], [27.357365, 44.564651, 25.5], [27.357525, 44.564651, 26.0], [27.357592, 44.564651, 26.25], [27.358286, 44.564654, 30.5], [27.358421, 44.564655, 30.75], [27.359213, 44.564657, 26.0], [27.359762, 44.564654, 24.5], [27.359871, 44.564654, 24.5], [27.360002, 44.564637, 24.25], [27.360122, 44.564613, 24.5], [27.36081, 44.564436, 26.75], [27.360975, 44.564415, 27.5], [27.360981, 44.564502, 27.5]]}}]}