{"type": "FeatureCollection", "features": [{"type": "Feature", "properties": {"creator": "BRouter-1.7.10", "name": "brouter_trekking_0", "track-length": "669", "filtered ascend": "5", "plain-ascend": "-2", "total-time": "111", "total-energy": "11109", "cost": "1177", "messages": [["Longitude", "Latitude", "Elevation", "Distance", "CostPerKm", "ElevCost", "TurnCost", "NodeCost", "InitialCost", "WayTags", "NodeTags", "Time", "Energy"], ["27364209", "44564006", "23", "5", "1050", "0", "0", "0", "0", "highway=tertiary surface=asphalt foot=yes bicycle=yes oneway=yes", "highway=crossing", "0", "89"], ["27364172", "44564007", "23", "3", "1050", "0", "0", "0", "0", "highway=tertiary surface=asphalt foot=yes bicycle=yes oneway=yes", "", "1", "143"], ["27363986", "44563903", "24", "19", "1450", "0", "21", "0", "0", "highway=tertiary surface=asphalt oneway=yes", "highway=crossing", "5", "503"], ["27363887", "44563848", "24", "10", "1450", "0", "0", "0", "0", "highway=tertiary surface=asphalt oneway=yes", "", "6", "690"], ["27363897", "44563794", "23", "6", "1450", "0", "44", "0", "0", "reversedirection=yes highway=tertiary surface=asphalt oneway=no", "highway=crossing", "7", "793"], ["27364128", "44562198", "28", "177", "1450", "0", "0", "0", "0", "reversedirection=yes highway=tertiary surface=asphalt oneway=no", "highway=crossing", "47", "4707"], ["27364130", "44562122", "28", "8", "1450", "0", "0", "0", "0", "reversedirection=yes highway=tertiary surface=asphalt oneway=no", "estimated_crossing_class=5", "48", "4843"], ["27364129", "44562004", "27", "13", "1150", "0", "0", "0", "0", "highway=residential surface=asphalt", "highway=crossing", "52", "5260"], ["27364020", "44560210", "21", "199", "1150", "0", "0", "0", "0", "highway=residential surface=asphalt", "", "76", "7673"], ["27364219", "44560216", "22", "16", "1150", "0", "95", "0", "0", "highway=residential", "", "79", "7943"], ["27364477", "44558983", "21", "138", "1150", "0", "89", "0", "0", "reversedirection=yes highway=residential", "", "100", "10084"], ["27365368", "44559196", "21", "75", "1150", "0", "95", "0", "0", "highway=residential surface=asphalt", "", "111", "11109"]], "times": [0, 0.898, 1.435, 5.037, 6.901, 7.939, 12.485, 16.814, 22.063, 30.415, 43.017, 47.066, 48.427, 52.595, 57.039, 59.414, 61.186, 63.141, 64.5, 76.718, 79.425, 92.881, 95.932, 98.486, 99.581, 100.828, 111.072]}, "geometry": {"type": "LineString", "coordinates": [[27.364273, 44.564006, 23.5], [27.364209, 44.564006, 23.75], [27.364172, 44.564007, 23.75], [27.363986, 44.563903, 24.0], [27.363887, 44.563848, 24.0], [27.363897, 44.563794, 23.75], [27.363953, 44.563541, 23.5], [27.363999, 44.563291, 23.25], [27.36404, 44.563082, 24.75], [27.364082, 44.562787, 25.5], [27.364118, 44.5624, 26.75], [27.364128, 44.562198, 28.5], [27.36413, 44.562122, 28.25], [27.364129, 44.562004, 27.75], [27.364116, 44.56168, 24.0], [27.364086, 44.561519, 24.0], [27.364062, 44.561402, 24.0], [27.36405, 44.561276, 24.0], [27.364049, 44.561195, 24.25], [27.36402, 44.56021, 21.75], [27.364219, 44.560216, 22.75], [27.364278, 44.559531, 23.0], [27.364336, 44.559344, 22.25], [27.364412, 44.559154, 21.0], [27.364442, 44.559074, 21.0], [27.364477, 44.558983, 21.0], [27.365368, 44.559196, 21.0]]}}]}