{"type": "FeatureCollection", "features": [{"type": "Feature", "properties": {"creator": "BRouter-1.7.10", "name": "brouter_trekking_0", "track-length": "1294", "filtered ascend": "7", "plain-ascend": "1", "total-time": "239", "total-energy": "23934", "cost": "2500", "messages": [["Longitude", "Latitude", "Elevation", "Distance", "CostPerKm", "ElevCost", "TurnCost", "NodeCost", "InitialCost", "WayTags", "NodeTags", "Time", "Energy"], ["27364477", "44558983", "21", "75", "1150", "0", "0", "0", "0", "reversedirection=yes highway=residential surface=asphalt", "", "12", "1260"], ["27364219", "44560216", "22", "138", "1150", "0", "96", "0", "0", "highway=residential", "", "42", "4238"], ["27364020", "44560210", "21", "16", "1150", "0", "88", "0", "0", "reversedirection=yes highway=residential", "", "44", "4479"], ["27364129", "44562004", "27", "199", "1150", "0", "95", "0", "0", "reversedirection=yes highway=residential surface=asphalt", "highway=crossing", "88", "8872"], ["27364130", "44562122", "28", "13", "1150", "0", "0", "0", "0", "reversedirection=yes highway=residential surface=asphalt", "estimated_crossing_class=5", "91", "9172"], ["27364128", "44562198", "28", "8", "1450", "0", "0", "0", "0", "highway=tertiary surface=asphalt oneway=no", "highway=crossing", "93", "9363"], ["27363897", "44563794", "23", "177", "1450", "0", "0", "0", "0", "highway=tertiary surface=asphalt oneway=no", "highway=crossing", "124", "12463"], ["27363887", "44563848", "24", "6", "1450", "0", "0", "0", "0", "highway=tertiary surface=asphalt oneway=no", "", "125", "12559"], ["27363606", "44564121", "23", "40", "1450", "0", "9", "0", "0", "highway=tertiary surface=asphalt oneway=yes", "highway=crossing", "131", "13192"], ["27363656", "44564689", "25", "64", "5050", "0", "70", "0", "0", "highway=footway", "", "143", "14395"], ["27363628", "44565504", "21", "90", "1150", "0", "0", "0", "0", "reversedirection=yes highway=residential surface=asphalt oneway=no", "", "153", "15383"], ["27363719", "44566533", "23", "114", "1150", "0", "0", "0", "0", "highway=residential surface=asphalt oneway=yes", "", "175", "17552"], ["27364341", "44566819", "23", "59", "1150", "0", "36", "0", "0", "highway=residential surface=asphalt", "highway=crossing crossing=uncontrolled", "186", "18625"], ["27364439", "44566868", "23", "10", "1150", "0", "0", "0", "0", "highway=residential surface=asphalt", "", "188", "18803"], ["27364259", "44567120", "24", "31", "1150", "0", "81", "0", "0", "reversedirection=yes highway=residential surface=asphalt", "", "194", "19464"], ["27364876", "44567790", "23", "113", "1150", "0", "130", "0", "0", "highway=residential surface=asphalt oneway=yes", "", "213", "21312"], ["27363917", "44568393", "21", "141", "1150", "0", "89", "0", "0", "reversedirection=yes highway=residential surface=asphalt oneway=no", "", "239", "23934"]], "times": [0, 12.6, 14.28, 15.792, 20.85, 26.328, 42.376, 44.785, 71.026, 72.733, 75.354, 77.754, 81.032, 88.709, 91.709, 93.621, 100.379, 108.886, 114.093, 116.793, 120.496, 124.619, 125.579, 126.863, 128.151, 129.767, 131.906, 133.22, 137.01, 143.933, 151.279, 153.815, 156.851, 175.495, 186.232, 188.008, 190.823, 194.614, 198.261, 199.497, 202.672, 203.171, 203.801, 213.098, 224.536, 226.081, 233.492, 238.141, 239.312]}, "geometry": {"type": "LineString", "coordinates": [[27.365368, 44.559196, 21.0], [27.364477, 44.558983, 21.0], [27.364442, 44.559074, 21.0], [27.364412, 44.559154, 21.0], [27.364336, 44.559344, 22.25], [27.364278, 44.559531, 23.0], [27.364219, 44.560216, 22.75], [27.36402, 44.56021, 21.75], [27.364049, 44.561195, 24.25], [27.36405, 44.561276, 24.0], [27.364062, 44.561402, 24.0], [27.364086, 44.561519, 24.0], [27.364116, 44.56168, 24.0], [27.364129, 44.562004, 27.75], [27.36413, 44.562122, 28.25], [27.364128, 44.562198, 28.5], [27.364118, 44.5624, 26.75], [27.364082, 44.562787, 25.5], [27.36404, 44.563082, 24.75], [27.363999, 44.563291, 23.25], [27.363953, 44.563541, 23.5], [27.363897, 44.563794, 23.75], [27.363887, 44.563848, 24.0], [27.363864, 44.563915, 24.0], [27.363827, 44.563979, 24.0], [27.36375, 44.564052, 24.0], [27.363606, 44.564121, 23.75], [27.36364, 44.56419, 24.0], [27.36367, 44.564393, 24.0], [27.363656, 44.564689, 25.0], [27.363622, 44.565295, 21.75], [27.363628, 44.565504, 21.0], [27.363641, 44.565697, 22.0], [27.363719, 44.566533, 23.5], [27.364341, 44.566819, 23.5], [27.364439, 44.566868, 23.5], [27.364352, 44.566978, 24.0], [27.364259, 44.56712, 24.5], [27.364436, 44.567193, 24.75], [27.364502, 44.56721, 24.5], [27.364822, 44.56721, 22.5], [27.364862, 44.56723, 22.25], [27.364874, 44.567274, 22.25], [27.364876, 44.56779, 23.25], [27.364882, 44.568291, 24.25], [27.364886, 44.568365, 24.25], [27.36445, 44.56838, 24.75], [27.36403, 44.568391, 23.25], [27.363917, 44.568393, 21.5]]}}]}