{"type": "FeatureCollection", "features": [{"type": "Feature", "properties": {"creator": "BRouter-1.7.10", "name": "brouter_trekking_0", "track-length": "2295", "filtered ascend": "2", "plain-ascend": "-1", "total-time": "396", "total-energy": "39617", "cost": "3789", "messages": [["Longitude", "Latitude", "Elevation", "Distance", "CostPerKm", "ElevCost", "TurnCost", "NodeCost", "InitialCost", "WayTags", "NodeTags", "Time", "Energy"], ["27361090", "44564925", "27", "39", "1150", "0", "0", "0", "0", "highway=residential", "", "7", "795"], ["27361090", "44565020", "26", "11", "1450", "0", "95", "0", "0", "highway=tertiary surface=asphalt oneway=yes", "highway=crossing", "9", "991"], ["27361092", "44566062", "23", "116", "1450", "0", "0", "0", "0", "highway=tertiary surface=asphalt oneway=yes", "highway=crossing", "23", "2318"], ["27361092", "44566127", "23", "7", "1450", "0", "0", "0", "0", "highway=tertiary surface=asphalt oneway=yes", "", "24", "2413"], ["27361213", "44566162", "24", "10", "1150", "0", "56", "0", "0", "reversedirection=yes highway=residential surface=asphalt oneway=no", "highway=crossing", "25", "2559"], ["27362046", "44566412", "22", "75", "1150", "0", "17", "0", "0", "reversedirection=yes highway=residential surface=asphalt oneway=no", "", "35", "3596"], ["27364341", "44566819", "23", "195", "1150", "0", "5", "0", "0", "highway=residential surface=asphalt", "highway=crossing crossing=uncontrolled", "67", "6758"], ["27364439", "44566868", "23", "10", "1150", "0", "0", "0", "0", "highway=residential surface=asphalt", "", "69", "6942"], ["27366151", "44565173", "22", "233", "1150", "0", "95", "0", "0", "reversedirection=yes highway=residential surface=asphalt", "", "107", "10706"], ["27369977", "44565714", "24", "325", "1150", "0", "164", "0", "0", "reversedirection=yes highway=residential surface=asphalt access=yes foot=yes bicycle=yes cycleway=no", "highway=crossing crossing=uncontrolled", "169", "16921"], ["27370089", "44565722", "23", "9", "1150", "0", "0", "0", "0", "reversedirection=yes highway=residential surface=asphalt access=yes foot=yes bicycle=yes cycleway=no", "", "170", "17078"], ["27370138", "44565668", "23", "7", "1450", "0", "48", "0", "0", "highway=tertiary surface=asphalt", "highway=crossing", "171", "17200"], ["27370870", "44564832", "20", "110", "1450", "0", "0", "0", "0", "highway=tertiary surface=asphalt", "", "185", "18528"], ["27375054", "44563480", "21", "421", "1150", "0", "173", "0", "0", "highway=residential surface=asphalt", "", "256", "25637"], ["27375466", "44563516", "22", "33", "1150", "0", "35", "0", "0", "reversedirection=yes highway=residential surface=asphalt", "", "262", "26221"], ["27376136", "44563593", "24", "54", "1150", "0", "0", "0", "0", "highway=residential surface=asphalt", "highway=crossing crossing=uncontrolled", "276", "27665"], ["27376475", "44563634", "24", "27", "1150", "0", "0", "0", "0", "highway=residential surface=asphalt", "highway=crossing crossing=uncontrolled", "282", "28283"], ["27377406", "44563916", "23", "82", "1150", "0", "1", "0", "0", "highway=residential surface=asphalt", "highway=crossing crossing=uncontrolled", "298", "29900"], ["27380657", "44565849", "26", "336", "1150", "0", "0", "0", "0", "highway=residential surface=asphalt", "highway=crossing crossing=uncontrolled", "368", "36812"], ["27380771", "44565919", "26", "12", "1150", "0", "0", "0", "0", "highway=residential surface=asphalt", "", "370", "37061"], ["27380874", "44565830", "26", "13", "1150", "0", "91", "0", "0", "highway=residential surface=asphalt oneway=yes", "highway=crossing crossing=uncontrolled", "373", "37341"], ["27381765", "44565117", "24", "106", "1150", "0", "0", "0", "0", "highway=residential surface=asphalt oneway=yes", "highway=crossing crossing=uncontrolled", "386", "38677"], ["27381898", "44565011", "24", "16", "1150", "0", "0", "0", "0", "highway=residential surface=asphalt oneway=yes", "estimated_crossing_class=4", "389", "38907"], ["27381778", "44564920", "23", "14", "3050", "0", "82", "0", "0", "reversedirection=yes highway=primary surface=asphalt smoothness=excellent oneway=no", "estimated_crossing_class=4", "390", "39101"], ["27381570", "44564772", "24", "23", "3050", "0", "0", "0", "0", "reversedirection=yes highway=primary surface=asphalt smoothness=excellent oneway=no", "highway=crossing estimated_crossing_class=4", "394", "39448"], ["27381486", "44564845", "24", "11", "5050", "0", "98", "0", "0", "reversedirection=yes highway=footway", "", "396", "39617"]], "times": [0, 5.247, 7.959, 9.918, 23.179, 24.129, 25.59, 31.606, 33.964, 35.955, 43.107, 44.137, 47.635, 56.235, 67.574, 69.418, 79.302, 80.886, 82.315, 88.587, 107.056, 112.288, 132.731, 145.703, 148.911, 169.187, 170.758, 171.977, 174.585, 179.092, 185.254, 198.557, 206.872, 218.971, 226.766, 242.631, 250.224, 256.335, 262.181, 276.618, 282.795, 287.081, 290.373, 292.578, 298.956, 310, 315.094, 328.559, 368.07, 370.554, 373.359, 386.714, 389.01, 390.949, 394.42, 396.108]}, "geometry": {"type": "LineString", "coordinates": [[27.360604, 44.564922, 26.25], [27.36093, 44.564932, 27.0], [27.36109, 44.564925, 27.25], [27.36109, 44.56502, 26.75], [27.361092, 44.566062, 23.75], [27.361092, 44.566127, 23.75], [27.361213, 44.566162, 24.0], [27.36165, 44.566332, 24.0], [27.361837, 44.56642, 23.25], [27.362046, 44.566412, 22.5], [27.362874, 44.566382, 21.25], [27.362972, 44.566381, 21.5], [27.36323, 44.566419, 22.5], [27.363719, 44.566533, 23.5], [27.364341, 44.566819, 23.5], [27.364439, 44.566868, 23.5], [27.365053, 44.566232, 20.75], [27.365123, 44.566138, 20.75], [27.365166, 44.566055, 21.0], [27.36543, 44.565809, 22.0], [27.366151, 44.565173, 22.75], [27.36639, 44.565479, 21.25], [27.367438, 44.565526, 24.0], [27.368606, 44.565614, 22.0], [27.368853, 44.565634, 22.25], [27.369977, 44.565714, 24.0], [27.370089, 44.565722, 23.5], [27.370138, 44.565668, 23.5], [27.370262, 44.565535, 22.75], [27.370537, 44.565224, 21.0], [27.37087, 44.564832, 20.75], [27.371624, 44.565304, 21.75], [27.372063, 44.565092, 22.5], [27.372722, 44.564791, 22.75], [27.373248, 44.564546, 22.0], [27.374256, 44.564044, 22.0], [27.374674, 44.563757, 22.0], [27.375054, 44.56348, 21.25], [27.375466, 44.563516, 22.0], [27.376136, 44.563593, 24.0], [27.376475, 44.563634, 24.0], [27.376719, 44.563674, 24.0], [27.376907, 44.563713, 24.0], [27.377033, 44.563749, 24.0], [27.377406, 44.563916, 23.75], [27.378092, 44.564292, 23.25], [27.378415, 44.564484, 23.0], [27.379119, 44.564902, 23.75], [27.380657, 44.565849, 26.25], [27.380771, 44.565919, 26.5], [27.380874, 44.56583, 26.75], [27.381765, 44.565117, 24.0], [27.381898, 44.565011, 24.0], [27.381778, 44.56492, 23.75], [27.38157, 44.564772, 24.0], [27.381486, 44.564845, 24.0]]}}]}