{"type": "FeatureCollection", "features": [{"type": "Feature", "properties": {"creator": "BRouter-1.7.10", "name": "brouter_trekking_0", "track-length": "792", "filtered ascend": "4", "plain-ascend": "1", "total-time": "141", "total-energy": "14076", "cost": "1781", "messages": [["Longitude", "Latitude", "Elevation", "Distance", "CostPerKm", "ElevCost", "TurnCost", "NodeCost", "InitialCost", "WayTags", "NodeTags", "Time", "Energy"], ["27363916", "44562005", "26", "75", "5050", "0", "90", "0", "0", "highway=footway", "", "16", "1625"], ["27364129", "44562004", "27", "17", "5050", "0", "0", "0", "0", "reversedirection=yes highway=footway", "highway=crossing", "19", "1919"], ["27364130", "44562122", "28", "13", "1150", "0", "90", "0", "0", "reversedirection=yes highway=residential surface=asphalt", "estimated_crossing_class=5", "21", "2174"], ["27364128", "44562198", "28", "8", "1450", "0", "0", "0", "0", "highway=tertiary surface=asphalt oneway=no", "highway=crossing", "23", "2340"], ["27364040", "44563082", "24", "98", "1450", "0", "0", "0", "0", "highway=tertiary surface=asphalt oneway=no", "", "42", "4212"], ["27366509", "44563194", "23", "197", "1150", "0", "90", "0", "0", "highway=residential surface=asphalt oneway=yes", "highway=crossing crossing=uncontrolled", "68", "6893"], ["27368156", "44563199", "25", "130", "1150", "0", "0", "0", "0", "highway=residential surface=asphalt oneway=yes", "highway=crossing crossing=uncontrolled", "96", "9695"], ["27368764", "44563418", "24", "55", "1150", "0", "13", "0", "0", "highway=residential surface=asphalt oneway=yes", "", "106", "10618"], ["27369831", "44562680", "24", "118", "1150", "0", "69", "0", "0", "highway=residential surface=asphalt", "highway=crossing", "124", "12433"], ["27369896", "44562528", "24", "24", "1150", "0", "86", "0", "0", "highway=residential surface=asphalt", "highway=crossing", "129", "12902"], ["27369579", "44562222", "25", "42", "1150", "0", "0", "0", "0", "highway=residential surface=asphalt", "highway=crossing", "138", "13812"], ["27369488", "44562139", "24", "12", "1150", "0", "0", "0", "0", "highway=residential surface=asphalt", "estimated_crossing_class=4", "140", "14027"], ["27369455", "44562138", "24", "3", "3050", "0", "34", "0", "0", "reversedirection=yes highway=primary surface=asphalt smoothness=excellent oneway=no", "", "140", "14076"]], "times": [0, 1.848, 4.368, 10.16, 16.256, 19.196, 21.746, 23.4, 29.426, 37.196, 42.116, 43.988, 53.123, 62.794, 68.931, 70.729, 82.275, 96.942, 98.933, 106.171, 110.976, 118.308, 124.319, 126.994, 129.006, 138.111, 140.253, 140.751]}, "geometry": {"type": "LineString", "coordinates": [[27.363097, 44.561909, 24.0], [27.3631, 44.562007, 24.0], [27.363294, 44.562004, 24.0], [27.363639, 44.562005, 25.0], [27.363916, 44.562005, 26.25], [27.364129, 44.562004, 27.75], [27.36413, 44.562122, 28.25], [27.364128, 44.562198, 28.5], [27.364118, 44.5624, 26.75], [27.364082, 44.562787, 25.5], [27.36404, 44.563082, 24.75], [27.3642, 44.563093, 24.5], [27.36519, 44.563182, 22.75], [27.365992, 44.563194, 23.25], [27.366509, 44.563194, 23.0], [27.366652, 44.563194, 23.25], [27.367411, 44.563191, 24.0], [27.368156, 44.563199, 25.5], [27.368275, 44.5632, 25.5], [27.368764, 44.563418, 24.25], [27.36908, 44.563198, 23.5], [27.369512, 44.562865, 23.5], [27.369831, 44.56268, 24.25], [27.36997, 44.562598, 24.5], [27.369896, 44.562528, 24.75], [27.369579, 44.562222, 25.25], [27.369488, 44.562139, 24.75], [27.369455, 44.562138, 24.5]]}}]}