{"type": "FeatureCollection", "features": [{"type": "Feature", "properties": {"creator": "BRouter-1.7.10", "name": "brouter_trekking_0", "track-length": "678", "filtered ascend": "1", "plain-ascend": "-1", "total-time": "119", "total-energy": "11942", "cost": "1451", "messages": [["Longitude", "Latitude", "Elevation", "Distance", "CostPerKm", "ElevCost", "TurnCost", "NodeCost", "InitialCost", "WayTags", "NodeTags", "Time", "Energy"], ["27364209", "44564006", "23", "5", "1050", "0", "0", "0", "0", "highway=tertiary surface=asphalt foot=yes bicycle=yes oneway=yes", "highway=crossing", "0", "89"], ["27363843", "44564050", "24", "30", "1050", "0", "3", "0", "0", "highway=tertiary surface=asphalt foot=yes bicycle=yes oneway=yes", "highway=crossing", "6", "653"], ["27363750", "44564052", "24", "7", "1050", "0", "0", "0", "0", "highway=tertiary surface=asphalt foot=yes bicycle=yes oneway=yes", "", "7", "782"], ["27363606", "44564121", "23", "14", "1450", "0", "13", "0", "0", "highway=tertiary surface=asphalt oneway=yes", "highway=crossing", "10", "1023"], ["27363656", "44564689", "25", "64", "5050", "0", "70", "0", "0", "highway=footway", "", "23", "2331"], ["27363628", "44565504", "21", "90", "1150", "0", "0", "0", "0", "reversedirection=yes highway=residential surface=asphalt oneway=no", "", "33", "3346"], ["27363719", "44566533", "23", "114", "1150", "0", "0", "0", "0", "highway=residential surface=asphalt oneway=yes", "", "55", "5546"], ["27364341", "44566819", "23", "59", "1150", "0", "36", "0", "0", "highway=residential surface=asphalt", "highway=crossing crossing=uncontrolled", "66", "6626"], ["27364439", "44566868", "23", "10", "1150", "0", "0", "0", "0", "highway=residential surface=asphalt", "", "68", "6804"], ["27364259", "44567120", "24", "31", "1150", "0", "81", "0", "0", "reversedirection=yes highway=residential surface=asphalt", "", "74", "7468"], ["27364876", "44567790", "23", "113", "1150", "0", "130", "0", "0", "highway=residential surface=asphalt oneway=yes", "", "93", "9319"], ["27363917", "44568393", "21", "141", "1150", "0", "89", "0", "0", "reversedirection=yes highway=residential surface=asphalt oneway=no", "", "119", "11942"]], "times": [0, 0.898, 1.435, 4.285, 6.53, 7.826, 10.234, 11.7, 15.863, 23.314, 30.882, 33.465, 36.564, 55.459, 66.26, 68.043, 70.869, 74.672, 78.329, 79.568, 82.749, 83.249, 83.88, 93.188, 104.634, 106.18, 113.594, 118.245, 119.416]}, "geometry": {"type": "LineString", "coordinates": [[27.364273, 44.564006, 23.5], [27.364209, 44.564006, 23.75], [27.364172, 44.564007, 23.75], [27.36399, 44.564039, 24.0], [27.363843, 44.56405, 24.0], [27.36375, 44.564052, 24.0], [27.363606, 44.564121, 23.75], [27.36364, 44.56419, 24.0], [27.36367, 44.564393, 24.0], [27.363656, 44.564689, 25.0], [27.363622, 44.565295, 21.75], [27.363628, 44.565504, 21.0], [27.363641, 44.565697, 22.0], [27.363719, 44.566533, 23.5], [27.364341, 44.566819, 23.5], [27.364439, 44.566868, 23.5], [27.364352, 44.566978, 24.0], [27.364259, 44.56712, 24.5], [27.364436, 44.567193, 24.75], [27.364502, 44.56721, 24.5], [27.364822, 44.56721, 22.5], [27.364862, 44.56723, 22.25], [27.364874, 44.567274, 22.25], [27.364876, 44.56779, 23.25], [27.364882, 44.568291, 24.25], [27.364886, 44.568365, 24.25], [27.36445, 44.56838, 24.75], [27.36403, 44.568391, 23.25], [27.363917, 44.568393, 21.5]]}}]}