{"type": "FeatureCollection", "features": [{"type": "Feature", "properties": {"creator": "BRouter-1.7.10", "name": "brouter_trekking_0", "track-length": "316", "filtered ascend": "1", "plain-ascend": "1", "total-time": "56", "total-energy": "5627", "cost": "639", "messages": [["Longitude", "Latitude", "Elevation", "Distance", "CostPerKm", "ElevCost", "TurnCost", "NodeCost", "InitialCost", "WayTags", "NodeTags", "Time", "Energy"], ["27350804", "44564933", "23", "20", "1350", "0", "0", "0", "0", "reversedirection=yes highway=service", "", "3", "380"], ["27350877", "44564671", "23", "29", "1150", "0", "109", "0", "0", "reversedirection=yes highway=residential surface=asphalt", "", "9", "935"], ["27350898", "44564586", "23", "10", "1450", "0", "0", "0", "0", "reversedirection=yes highway=tertiary surface=asphalt", "", "11", "1104"], ["27351201", "44564605", "24", "24", "1450", "0", "83", "0", "0", "highway=tertiary surface=asphalt oneway=yes", "highway=crossing", "16", "1608"], ["27353782", "44564631", "24", "205", "1450", "0", "0", "0", "0", "highway=tertiary surface=asphalt oneway=yes", "highway=crossing crossing=uncontrolled", "50", "5077"], ["27354137", "44564633", "24", "28", "1450", "0", "0", "0", "0", "highway=tertiary surface=asphalt oneway=yes", "", "56", "5627"]], "times": [0, 3.807, 6.99, 9.356, 11.047, 13.718, 16.079, 17.341, 39.716, 50.776, 56.274]}, "geometry": {"type": "LineString", "coordinates": [[27.350573, 44.56487, 23.25], [27.350804, 44.564933, 23.75], [27.350834, 44.564788, 24.0], [27.350877, 44.564671, 23.75], [27.350898, 44.564586, 23.5], [27.351057, 44.564597, 24.25], [27.351201, 44.564605, 24.5], [27.351273, 44.564609, 24.5], [27.353128, 44.564622, 23.0], [27.353782, 44.564631, 24.25], [27.354137, 44.564633, 24.5]]}}]}