{"type": "FeatureCollection", "features": [{"type": "Feature", "properties": {"creator": "BRouter-1.7.10", "name": "brouter_trekking_0", "track-length": "1004", "filtered ascend": "0", "plain-ascend": "0", "total-time": "168", "total-energy": "16833", "cost": "2182", "messages": [["Longitude", "Latitude", "Elevation", "Distance", "CostPerKm", "ElevCost", "TurnCost", "NodeCost", "InitialCost", "WayTags", "NodeTags", "Time", "Energy"], ["27370599", "44561480", "23", "70", "5050", "0", "83", "0", "0", "highway=footway", "", "9", "948"], ["27368560", "44561248", "24", "184", "1150", "0", "227", "0", "0", "reversedirection=yes highway=residential surface=asphalt oneway=no", "", "39", "3955"], ["27368612", "44561991", "22", "83", "1150", "0", "101", "0", "0", "highway=residential oneway=no", "highway=crossing", "52", "5225"], ["27368615", "44562135", "23", "16", "1150", "0", "0", "0", "0", "highway=residential oneway=no", "estimated_crossing_class=5", "54", "5479"], ["27369319", "44562138", "24", "56", "3050", "0", "88", "0", "0", "highway=primary surface=asphalt smoothness=excellent oneway=no", "highway=crossing estimated_crossing_class=4", "66", "6618"], ["27369488", "44562139", "24", "13", "3050", "0", "0", "0", "0", "highway=primary surface=asphalt smoothness=excellent oneway=no", "estimated_crossing_class=4", "69", "6915"], ["27369579", "44562222", "25", "12", "1150", "0", "34", "0", "0", "reversedirection=yes highway=residential surface=asphalt", "highway=crossing", "72", "7216"], ["27369896", "44562528", "24", "42", "1150", "0", "0", "0", "0", "reversedirection=yes highway=residential surface=asphalt", "highway=crossing", "80", "8074"], ["27369831", "44562680", "24", "24", "1150", "0", "86", "0", "0", "reversedirection=yes highway=residential surface=asphalt", "highway=crossing", "84", "8493"], ["27367874", "44564071", "23", "219", "1150", "0", "1", "0", "0", "reversedirection=yes highway=residential surface=asphalt", "", "120", "12015"], ["27364273", "44564006", "23", "285", "1050", "0", "32", "0", "0", "highway=tertiary surface=asphalt foot=yes bicycle=yes oneway=yes", "", "168", "16833"]], "times": [0, 2.52, 9.485, 11.541, 12.239, 13.368, 15.172, 16.148, 17.047, 19.615, 20.981, 23.385, 29.527, 39.548, 43.476, 52.249, 54.787, 61.473, 66.173, 69.143, 72.157, 80.727, 82.55, 84.922, 89.654, 97.203, 103.708, 120.134, 121.528, 123.9, 142.597, 147.672, 157.89, 160.326, 167.524, 168.308]}, "geometry": {"type": "LineString", "coordinates": [[27.370839, 44.560989, 24.5], [27.370645, 44.56099, 24.5], [27.370599, 44.56148, 23.0], [27.370581, 44.561345, 23.0], [27.370542, 44.561307, 23.0], [27.370455, 44.561277, 23.0], [27.370294, 44.561238, 22.5], [27.370224, 44.561201, 22.75], [27.370156, 44.561177, 23.0], [27.369973, 44.56117, 23.5], [27.369882, 44.561192, 23.5], [27.369711, 44.561246, 23.25], [27.369207, 44.561244, 23.0], [27.36856, 44.561248, 24.0], [27.368596, 44.561434, 24.0], [27.368612, 44.561991, 22.75], [27.368615, 44.562135, 23.0], [27.369051, 44.562137, 23.75], [27.369319, 44.562138, 24.5], [27.369488, 44.562139, 24.75], [27.369579, 44.562222, 25.25], [27.369896, 44.562528, 24.75], [27.36997, 44.562598, 24.5], [27.369831, 44.56268, 24.25], [27.369512, 44.562865, 23.5], [27.36908, 44.563198, 23.5], [27.368764, 44.563418, 24.25], [27.367874, 44.564071, 23.75], [27.367757, 44.564065, 23.5], [27.367542, 44.564058, 23.0], [27.366338, 44.56403, 24.5], [27.365986, 44.564023, 24.5], [27.365175, 44.564009, 24.0], [27.36498, 44.564008, 24.0], [27.364338, 44.564006, 23.25], [27.364273, 44.564006, 23.75]]}}]}