{"type": "FeatureCollection", "features": [{"type": "Feature", "properties": {"creator": "BRouter-1.7.10", "name": "brouter_trekking_0", "track-length": "999", "filtered ascend": "1", "plain-ascend": "0", "total-time": "168", "total-energy": "16791", "cost": "2514", "messages": [["Longitude", "Latitude", "Elevation", "Distance", "CostPerKm", "ElevCost", "TurnCost", "NodeCost", "InitialCost", "WayTags", "NodeTags", "Time", "Energy"], ["27354971", "44562201", "25", "61", "5050", "0", "0", "0", "0", "reversedirection=yes highway=footway", "highway=crossing", "9", "976"], ["27354998", "44562336", "25", "15", "1150", "0", "93", "0", "0", "reversedirection=yes highway=residential surface=asphalt", "estimated_crossing_class=5", "12", "1235"], ["27355016", "44562420", "25", "9", "1150", "0", "0", "0", "0", "highway=residential surface=asphalt oneway=yes", "highway=crossing crossing=zebra", "14", "1401"], ["27355226", "44563373", "24", "107", "1150", "0", "0", "0", "0", "highway=residential surface=asphalt oneway=yes", "", "30", "3076"], ["27359906", "44563260", "24", "373", "1150", "0", "79", "0", "0", "highway=residential oneway=yes", "", "93", "9363"], ["27360931", "44563248", "26", "82", "1150", "0", "0", "0", "0", "reversedirection=yes highway=residential surface=asphalt oneway=no", "", "114", "11415"], ["27360893", "44562252", "25", "110", "1450", "0", "91", "0", "0", "highway=tertiary surface=asphalt", "highway=crossing crossing=zebra", "131", "13193"], ["27360890", "44562148", "26", "12", "1450", "0", "0", "0", "0", "highway=tertiary surface=asphalt", "estimated_crossing_class=5", "134", "13440"], ["27361151", "44562144", "25", "21", "3050", "0", "90", "0", "0", "highway=primary surface=asphalt smoothness=excellent oneway=no", "highway=crossing estimated_crossing_class=0 crossing=zebra", "137", "13786"], ["27363291", "44562116", "24", "171", "3050", "0", "0", "0", "0", "highway=primary surface=asphalt smoothness=excellent oneway=no", "estimated_crossing_class=5", "162", "16203"], ["27363294", "44562004", "24", "12", "1150", "0", "87", "0", "0", "reversedirection=yes highway=residential", "", "163", "16387"], ["27363097", "44561909", "24", "26", "5050", "0", "183", "0", "0", "reversedirection=yes highway=footway", "", "167", "16791"]], "times": [0, 0.336, 7.502, 9.762, 12.354, 14.01, 30.762, 48.579, 51.991, 65.513, 76.846, 77.577, 83.826, 93.627, 97.333, 114.142, 116.726, 124.592, 125.853, 130.242, 131.929, 134.392, 137.859, 142.499, 162.019, 163.858, 166.184, 167.906]}, "geometry": {"type": "LineString", "coordinates": [[27.355727, 44.562143, 25.25], [27.355708, 44.562144, 25.25], [27.355141, 44.562188, 25.0], [27.354971, 44.562201, 25.0], [27.354998, 44.562336, 25.25], [27.355016, 44.56242, 25.5], [27.355226, 44.563373, 24.75], [27.35695, 44.563325, 23.0], [27.357186, 44.563319, 23.75], [27.357923, 44.563299, 25.0], [27.358677, 44.563274, 24.75], [27.358725, 44.563273, 24.75], [27.359242, 44.563266, 24.0], [27.359906, 44.56326, 24.75], [27.360115, 44.563264, 25.5], [27.360931, 44.563248, 26.75], [27.360924, 44.563112, 25.75], [27.360912, 44.562653, 25.25], [27.360907, 44.56258, 25.25], [27.360899, 44.562345, 25.5], [27.360893, 44.562252, 25.5], [27.36089, 44.562148, 26.25], [27.361151, 44.562144, 25.5], [27.361497, 44.562135, 25.5], [27.363291, 44.562116, 24.0], [27.363294, 44.562004, 24.0], [27.3631, 44.562007, 24.0], [27.363097, 44.561909, 24.0]]}}]}