{"type": "FeatureCollection", "features": [{"type": "Feature", "properties": {"creator": "BRouter-1.7.10", "name": "brouter_trekking_0", "track-length": "2214", "filtered ascend": "1", "plain-ascend": "-9", "total-time": "356", "total-energy": "35643", "cost": "2964", "messages": [["Longitude", "Latitude", "Elevation", "Distance", "CostPerKm", "ElevCost", "TurnCost", "NodeCost", "InitialCost", "WayTags", "NodeTags", "Time", "Energy"], ["27361090", "44564925", "27", "39", "1150", "0", "0", "0", "0", "highway=residential", "", "7", "795"], ["27361090", "44565020", "26", "11", "1450", "0", "95", "0", "0", "highway=tertiary surface=asphalt oneway=yes", "highway=crossing", "9", "991"], ["27361092", "44566062", "23", "116", "1450", "0", "0", "0", "0", "highway=tertiary surface=asphalt oneway=yes", "highway=crossing", "23", "2318"], ["27361092", "44566127", "23", "7", "1450", "0", "0", "0", "0", "highway=tertiary surface=asphalt oneway=yes", "", "24", "2413"], ["27360964", "44566130", "23", "10", "1150", "0", "87", "0", "0", "highway=residential surface=asphalt oneway=no", "", "25", "2543"], ["27360860", "44566163", "23", "9", "1150", "0", "6", "0", "0", "highway=residential surface=asphalt oneway=yes", "highway=crossing", "26", "2657"], ["27359949", "44566456", "24", "79", "1150", "0", "0", "0", "0", "highway=residential surface=asphalt oneway=yes", "", "38", "3843"], ["27359740", "44566460", "24", "17", "1150", "0", "7", "0", "0", "reversedirection=yes highway=residential surface=asphalt", "highway=crossing", "41", "4192"], ["27359669", "44566461", "25", "6", "1150", "0", "0", "0", "0", "reversedirection=yes highway=residential surface=asphalt", "", "43", "4322"], ["27358922", "44567988", "22", "180", "1050", "0", "58", "0", "0", "reversedirection=yes highway=tertiary surface=asphalt foot=yes bicycle=yes cycleway=no oneway=no", "highway=crossing crossing=uncontrolled", "72", "7232"], ["27358461", "44568964", "20", "115", "1050", "0", "0", "0", "0", "reversedirection=yes highway=tertiary surface=asphalt foot=yes bicycle=yes cycleway=no oneway=no", "", "84", "8499"], ["27358498", "44568995", "20", "5", "1050", "0", "44", "0", "0", "highway=tertiary surface=asphalt access=yes foot=yes bicycle=yes cycleway=no oneway=no", "highway=crossing", "85", "8560"], ["27361321", "44569878", "20", "249", "1050", "0", "12", "0", "0", "highway=tertiary surface=asphalt access=yes foot=yes bicycle=yes cycleway=no oneway=no", "highway=crossing", "126", "12668"], ["27371271", "44572196", "21", "831", "1050", "0", "3", "0", "0", "highway=tertiary surface=asphalt access=yes foot=yes bicycle=yes cycleway=no oneway=no", "", "272", "27274"], ["27371024", "44573357", "21", "130", "1550", "0", "77", "0", "0", "reversedirection=yes highway=residential surface=unpaved", "", "299", "29953"], ["27372571", "44573741", "19", "130", "1150", "0", "74", "0", "0", "highway=residential", "highway=crossing crossing=uncontrolled", "316", "31632"], ["27374148", "44574110", "18", "132", "1150", "0", "0", "0", "0", "highway=residential", "highway=crossing crossing=uncontrolled", "332", "33226"], ["27375575", "44574457", "18", "119", "1150", "0", "0", "0", "0", "highway=residential", "highway=crossing crossing=uncontrolled", "351", "35177"], ["27375919", "44574538", "16", "29", "1150", "0", "0", "0", "0", "highway=residential", "", "356", "35643"]], "times": [0, 5.247, 7.959, 9.918, 23.179, 24.129, 25.435, 26.573, 31.274, 38.424, 41.919, 43.211, 59.701, 69.252, 72.311, 73.405, 73.854, 78.275, 84.98, 85.591, 90.406, 115.662, 126.667, 127.656, 144.272, 154.591, 186.825, 191.223, 212.23, 226.116, 254.858, 271.185, 272.703, 273.645, 275.697, 294.501, 299.494, 315.043, 316.285, 332.216, 334.302, 343.834, 351.719, 354.747, 356.383]}, "geometry": {"type": "LineString", "coordinates": [[27.360604, 44.564922, 26.25], [27.36093, 44.564932, 27.0], [27.36109, 44.564925, 27.25], [27.36109, 44.56502, 26.75], [27.361092, 44.566062, 23.75], [27.361092, 44.566127, 23.75], [27.360964, 44.56613, 23.5], [27.36086, 44.566163, 23.25], [27.360434, 44.5663, 23.0], [27.359949, 44.566456, 24.0], [27.35974, 44.56646, 24.75], [27.359669, 44.566461, 25.0], [27.359285, 44.567243, 24.5], [27.359035, 44.567759, 24.0], [27.358922, 44.567988, 22.25], [27.35888, 44.568073, 21.75], [27.358868, 44.568105, 21.75], [27.358714, 44.568446, 21.25], [27.358461, 44.568964, 20.25], [27.358498, 44.568995, 20.25], [27.358819, 44.569262, 20.0], [27.36029, 44.569632, 22.25], [27.361321, 44.569878, 20.25], [27.361407, 44.569898, 20.25], [27.36222, 44.570093, 22.75], [27.362848, 44.570243, 22.5], [27.364355, 44.570589, 24.75], [27.364765, 44.570686, 22.75], [27.366404, 44.57107, 20.0], [27.367757, 44.571394, 18.0], [27.369983, 44.571916, 21.0], [27.371165, 44.572192, 21.0], [27.371271, 44.572196, 21.5], [27.371277, 44.572238, 21.5], [27.371267, 44.572339, 21.5], [27.371099, 44.573033, 23.0], [27.371024, 44.573357, 21.25], [27.372461, 44.573715, 20.0], [27.372571, 44.573741, 19.75], [27.374148, 44.57411, 18.0], [27.374354, 44.574162, 17.25], [27.375062, 44.574333, 18.25], [27.375575, 44.574457, 18.75], [27.375788, 44.574508, 18.5], [27.375919, 44.574538, 16.5]]}}]}