{"type": "FeatureCollection", "features": [{"type": "Feature", "properties": {"creator": "BRouter-1.7.10", "name": "brouter_trekking_0", "track-length": "638", "filtered ascend": "4", "plain-ascend": "2", "total-time": "123", "total-energy": "12277", "cost": "1622", "messages": [["Longitude", "Latitude", "Elevation", "Distance", "CostPerKm", "ElevCost", "TurnCost", "NodeCost", "InitialCost", "WayTags", "NodeTags", "Time", "Energy"], ["27363916", "44562005", "26", "75", "5050", "0", "90", "0", "0", "highway=footway", "", "16", "1625"], ["27364129", "44562004", "27", "17", "5050", "0", "0", "0", "0", "reversedirection=yes highway=footway", "highway=crossing", "19", "1919"], ["27364130", "44562122", "28", "13", "1150", "0", "90", "0", "0", "reversedirection=yes highway=residential surface=asphalt", "estimated_crossing_class=5", "21", "2174"], ["27364128", "44562198", "28", "8", "1450", "0", "0", "0", "0", "highway=tertiary surface=asphalt oneway=no", "highway=crossing", "23", "2340"], ["27363897", "44563794", "23", "177", "1450", "0", "0", "0", "0", "highway=tertiary surface=asphalt oneway=no", "highway=crossing", "52", "5236"], ["27363887", "44563848", "24", "6", "1450", "0", "0", "0", "0", "highway=tertiary surface=asphalt oneway=no", "", "53", "5329"], ["27363606", "44564121", "23", "40", "1450", "0", "9", "0", "0", "highway=tertiary surface=asphalt oneway=yes", "highway=crossing", "59", "5951"], ["27361167", "44564483", "28", "200", "1450", "0", "0", "0", "0", "highway=tertiary surface=asphalt oneway=yes", "highway=crossing", "96", "9668"], ["27360981", "44564502", "27", "15", "1450", "0", "0", "0", "0", "highway=tertiary surface=asphalt oneway=yes", "", "101", "10170"], ["27360995", "44564727", "27", "25", "1450", "0", "81", "0", "0", "reversedirection=yes highway=tertiary surface=asphalt", "highway=crossing", "109", "10961"], ["27361090", "44564925", "27", "23", "1450", "0", "6", "0", "0", "highway=tertiary surface=asphalt oneway=yes", "", "115", "11551"], ["27360604", "44564922", "25", "39", "1150", "0", "104", "0", "0", "reversedirection=yes highway=residential", "", "122", "12277"]], "times": [0, 1.848, 4.368, 10.16, 16.256, 19.196, 21.746, 23.4, 29.426, 37.196, 42.116, 44.73, 48.327, 52.351, 53.291, 54.549, 55.814, 57.403, 59.51, 62.25, 64.083, 68.309, 70.921, 77.528, 81.045, 96.67, 101.694, 109.598, 113.346, 115.494, 118.294, 122.751]}, "geometry": {"type": "LineString", "coordinates": [[27.363097, 44.561909, 24.0], [27.3631, 44.562007, 24.0], [27.363294, 44.562004, 24.0], [27.363639, 44.562005, 25.0], [27.363916, 44.562005, 26.25], [27.364129, 44.562004, 27.75], [27.36413, 44.562122, 28.25], [27.364128, 44.562198, 28.5], [27.364118, 44.5624, 26.75], [27.364082, 44.562787, 25.5], [27.36404, 44.563082, 24.75], [27.363999, 44.563291, 23.25], [27.363953, 44.563541, 23.5], [27.363897, 44.563794, 23.75], [27.363887, 44.563848, 24.0], [27.363864, 44.563915, 24.0], [27.363827, 44.563979, 24.0], [27.36375, 44.564052, 24.0], [27.363606, 44.564121, 23.75], [27.363381, 44.564211, 23.25], [27.36323, 44.56426, 23.25], [27.362917, 44.564341, 23.75], [27.36274, 44.564377, 24.0], [27.362372, 44.56442, 25.0], [27.36221, 44.564431, 26.0], [27.361167, 44.564483, 28.0], [27.360981, 44.564502, 27.5], [27.360995, 44.564727, 27.75], [27.361066, 44.564847, 27.5], [27.36109, 44.564925, 27.25], [27.36093, 44.564932, 27.0], [27.360604, 44.564922, 25.5]]}}]}