{"type": "FeatureCollection", "features": [{"type": "Feature", "properties": {"creator": "BRouter-1.7.10", "name": "brouter_trekking_0", "track-length": "466", "filtered ascend": "4", "plain-ascend": "0", "total-time": "81", "total-energy": "8086", "cost": "1359", "messages": [["Longitude", "Latitude", "Elevation", "Distance", "CostPerKm", "ElevCost", "TurnCost", "NodeCost", "InitialCost", "WayTags", "NodeTags", "Time", "Energy"], ["27363916", "44562005", "26", "75", "5050", "0", "90", "0", "0", "highway=footway", "", "16", "1625"], ["27364129", "44562004", "27", "17", "5050", "0", "0", "0", "0", "reversedirection=yes highway=footway", "highway=crossing", "19", "1919"], ["27364130", "44562122", "28", "13", "1150", "0", "90", "0", "0", "reversedirection=yes highway=residential surface=asphalt", "estimated_crossing_class=5", "21", "2174"], ["27364128", "44562198", "28", "8", "1450", "0", "0", "0", "0", "highway=tertiary surface=asphalt oneway=no", "highway=crossing", "23", "2340"], ["27364040", "44563082", "24", "98", "1450", "0", "0", "0", "0", "highway=tertiary surface=asphalt oneway=no", "", "42", "4212"], ["27365190", "44563182", "22", "92", "1150", "0", "90", "0", "0", "highway=residential surface=asphalt oneway=yes", "", "53", "5313"], ["27365177", "44563955", "24", "86", "1150", "0", "80", "0", "0", "reversedirection=yes highway=residential surface=asphalt oneway=no", "highway=crossing crossing=uncontrolled", "69", "6958"], ["27365175", "44564009", "24", "6", "1150", "0", "0", "0", "0", "reversedirection=yes highway=residential surface=asphalt oneway=no", "", "70", "7054"], ["27364273", "44564006", "23", "71", "1050", "0", "88", "0", "0", "highway=tertiary surface=asphalt foot=yes bicycle=yes oneway=yes", "", "80", "8086"]], "times": [0, 1.848, 4.368, 10.16, 16.256, 19.196, 21.746, 23.4, 29.426, 37.196, 42.116, 43.988, 53.123, 69.577, 70.534, 72.937, 80.073, 80.851]}, "geometry": {"type": "LineString", "coordinates": [[27.363097, 44.561909, 24.0], [27.3631, 44.562007, 24.0], [27.363294, 44.562004, 24.0], [27.363639, 44.562005, 25.0], [27.363916, 44.562005, 26.25], [27.364129, 44.562004, 27.75], [27.36413, 44.562122, 28.25], [27.364128, 44.562198, 28.5], [27.364118, 44.5624, 26.75], [27.364082, 44.562787, 25.5], [27.36404, 44.563082, 24.75], [27.3642, 44.563093, 24.5], [27.36519, 44.563182, 22.75], [27.365177, 44.563955, 24.5], [27.365175, 44.564009, 24.0], [27.36498, 44.564008, 24.0], [27.364338, 44.564006, 23.25], [27.364273, 44.564006, 23.75]]}}]}