{"type": "FeatureCollection", "features": [{"type": "Feature", "properties": {"creator": "BRouter-1.7.10", "name": "brouter_trekking_0", "track-length": "1867", "filtered ascend": "3", "plain-ascend": "-3", "total-time": "313", "total-energy": "31285", "cost": "3144", "messages": [["Longitude", "Latitude", "Elevation", "Distance", "CostPerKm", "ElevCost", "TurnCost", "NodeCost", "InitialCost", "WayTags", "NodeTags", "Time", "Energy"], ["27369319", "44562138", "24", "11", "3050", "0", "0", "0", "0", "reversedirection=yes highway=primary surface=asphalt smoothness=excellent oneway=no", "highway=crossing estimated_crossing_class=4", "1", "184"], ["27368615", "44562135", "23", "56", "3050", "0", "0", "0", "0", "reversedirection=yes highway=primary surface=asphalt smoothness=excellent oneway=no", "estimated_crossing_class=5", "9", "925"], ["27368612", "44561991", "22", "16", "1150", "0", "88", "0", "0", "reversedirection=yes highway=residential oneway=no", "highway=crossing", "11", "1130"], ["27368370", "44561194", "24", "100", "1150", "0", "30", "0", "0", "reversedirection=yes highway=residential oneway=no", "", "28", "2875"], ["27368381", "44560550", "23", "72", "1150", "0", "83", "0", "0", "reversedirection=yes highway=residential", "", "40", "4047"], ["27364219", "44560216", "22", "335", "1150", "0", "90", "0", "0", "highway=residential oneway=yes", "", "96", "9640"], ["27364020", "44560210", "21", "16", "1150", "0", "9", "0", "0", "reversedirection=yes highway=residential", "", "98", "9824"], ["27361092", "44560079", "24", "236", "1150", "0", "8", "0", "0", "highway=residential surface=asphalt", "highway=crossing crossing=uncontrolled", "145", "14504"], ["27360954", "44560056", "24", "11", "1150", "0", "1", "0", "0", "highway=residential surface=asphalt", "", "146", "14693"], ["27360917", "44560179", "24", "14", "1450", "0", "91", "0", "0", "reversedirection=yes highway=tertiary surface=asphalt", "highway=crossing crossing=uncontrolled", "149", "14949"], ["27360845", "44561073", "26", "100", "1450", "0", "0", "0", "0", "reversedirection=yes highway=tertiary surface=asphalt", "", "169", "16961"], ["27359132", "44561114", "25", "136", "1150", "0", "88", "0", "0", "highway=residential surface=asphalt oneway=no", "", "195", "19575"], ["27359097", "44560339", "25", "87", "1150", "0", "90", "0", "0", "highway=residential surface=asphalt", "highway=crossing crossing=uncontrolled", "210", "21037"], ["27355068", "44557811", "26", "565", "1150", "0", "164", "0", "0", "highway=residential surface=asphalt", "", "295", "29538"], ["27355540", "44556862", "21", "112", "1150", "0", "92", "0", "0", "highway=residential", "", "312", "31285"]], "times": [0, 1.848, 4.814, 9.254, 11.298, 22.193, 25.826, 26.515, 27.376, 28.751, 40.465, 51.525, 53.61, 62.529, 68.17, 71.608, 80.476, 89.049, 90.97, 96.391, 98.224, 101.803, 105.467, 107.305, 120.37, 127.112, 131.329, 136.604, 140.928, 145.026, 146.914, 149.471, 156.633, 159.818, 169.585, 186.614, 189.285, 195.726, 201.17, 210.332, 235.849, 244.386, 245.806, 246.995, 248.564, 271.332, 275.359, 295.341, 312.807]}, "geometry": {"type": "LineString", "coordinates": [[27.369455, 44.562138, 24.5], [27.369319, 44.562138, 24.5], [27.369051, 44.562137, 23.75], [27.368615, 44.562135, 23.0], [27.368612, 44.561991, 22.75], [27.368596, 44.561434, 24.0], [27.36856, 44.561248, 24.0], [27.368535, 44.561218, 24.0], [27.368471, 44.5612, 24.0], [27.36837, 44.561194, 24.0], [27.368381, 44.56055, 23.75], [27.367739, 44.560519, 25.0], [27.367621, 44.560511, 25.5], [27.366973, 44.560467, 24.5], [27.366503, 44.560454, 24.0], [27.366222, 44.560443, 24.0], [27.365455, 44.560425, 23.5], [27.364824, 44.560419, 24.0], [27.364677, 44.56039, 23.75], [27.364219, 44.560216, 22.75], [27.36402, 44.56021, 21.75], [27.363712, 44.560205, 19.75], [27.363366, 44.560169, 19.0], [27.363224, 44.560148, 19.5], [27.362389, 44.560018, 23.5], [27.362029, 44.560001, 24.5], [27.361832, 44.560044, 25.25], [27.361598, 44.560072, 25.75], [27.36137, 44.560088, 25.5], [27.361092, 44.560079, 24.75], [27.360954, 44.560056, 24.5], [27.360917, 44.560179, 24.75], [27.36085, 44.560598, 24.0], [27.36084, 44.560756, 24.5], [27.360845, 44.561073, 26.5], [27.3599, 44.561097, 26.5], [27.359698, 44.561102, 25.75], [27.359132, 44.561114, 25.0], [27.359117, 44.560776, 24.75], [27.359097, 44.560339, 25.75], [27.359029, 44.5588, 24.5], [27.359017, 44.558277, 24.0], [27.358897, 44.558234, 23.25], [27.358832, 44.558164, 23.25], [27.358822, 44.558065, 23.5], [27.356804, 44.558137, 22.75], [27.356461, 44.558143, 22.5], [27.355068, 44.557811, 26.0], [27.35554, 44.556862, 21.0]]}}]}