{"type": "FeatureCollection", "features": [{"type": "Feature", "properties": {"creator": "BRouter-1.7.10", "name": "brouter_trekking_0", "track-length": "1984", "filtered ascend": "1", "plain-ascend": "-6", "total-time": "326", "total-energy": "32582", "cost": "3178", "messages": [["Longitude", "Latitude", "Elevation", "Distance", "CostPerKm", "ElevCost", "TurnCost", "NodeCost", "InitialCost", "WayTags", "NodeTags", "Time", "Energy"], ["27364209", "44564006", "23", "5", "1050", "0", "0", "0", "0", "highway=tertiary surface=asphalt foot=yes bicycle=yes oneway=yes", "highway=crossing", "0", "89"], ["27363843", "44564050", "24", "30", "1050", "0", "3", "0", "0", "highway=tertiary surface=asphalt foot=yes bicycle=yes oneway=yes", "highway=crossing", "6", "653"], ["27363750", "44564052", "24", "7", "1050", "0", "0", "0", "0", "highway=tertiary surface=asphalt foot=yes bicycle=yes oneway=yes", "", "7", "782"], ["27363606", "44564121", "23", "14", "1450", "0", "13", "0", "0", "highway=tertiary surface=asphalt oneway=yes", "highway=crossing", "10", "1023"], ["27363656", "44564689", "25", "64", "5050", "0", "70", "0", "0", "highway=footway", "", "23", "2331"], ["27363622", "44565295", "21", "67", "1150", "0", "0", "0", "0", "reversedirection=yes highway=residential surface=asphalt oneway=no", "", "30", "3088"], ["27368195", "44568047", "22", "485", "1150", "0", "103", "0", "0", "reversedirection=yes highway=residential surface=asphalt", "", "108", "10868"], ["27366404", "44571070", "20", "366", "1450", "0", "90", "0", "0", "reversedirection=yes highway=tertiary surface=asphalt", "", "167", "16705"], ["27371271", "44572196", "21", "406", "1050", "0", "97", "0", "0", "highway=tertiary surface=asphalt access=yes foot=yes bicycle=yes cycleway=no oneway=no", "", "241", "24133"], ["27371024", "44573357", "21", "130", "1550", "0", "77", "0", "0", "reversedirection=yes highway=residential surface=unpaved", "", "268", "26881"], ["27372571", "44573741", "19", "130", "1150", "0", "74", "0", "0", "highway=residential", "highway=crossing crossing=uncontrolled", "285", "28569"], ["27374148", "44574110", "18", "132", "1150", "0", "0", "0", "0", "highway=residential", "highway=crossing crossing=uncontrolled", "301", "30164"], ["27375575", "44574457", "18", "119", "1150", "0", "0", "0", "0", "highway=residential", "highway=crossing crossing=uncontrolled", "321", "32116"], ["27375919", "44574538", "16", "29", "1150", "0", "0", "0", "0", "highway=residential", "", "325", "32582"]], "times": [0, 0.898, 1.435, 4.285, 6.53, 7.826, 10.234, 11.7, 15.863, 23.314, 30.882, 33.441, 34.577, 35.646, 36.876, 51.668, 87.804, 90.799, 94.344, 108.674, 121.146, 125.007, 133.128, 137.492, 140.099, 144.605, 148.328, 167.038, 180.571, 222.055, 239.72, 241.31, 242.293, 244.428, 263.719, 268.773, 284.407, 285.653, 301.605, 303.693, 313.23, 321.117, 324.146, 325.781]}, "geometry": {"type": "LineString", "coordinates": [[27.364273, 44.564006, 23.5], [27.364209, 44.564006, 23.75], [27.364172, 44.564007, 23.75], [27.36399, 44.564039, 24.0], [27.363843, 44.56405, 24.0], [27.36375, 44.564052, 24.0], [27.363606, 44.564121, 23.75], [27.36364, 44.56419, 24.0], [27.36367, 44.564393, 24.0], [27.363656, 44.564689, 25.0], [27.363622, 44.565295, 21.75], [27.363835, 44.565292, 22.5], [27.363926, 44.5653, 22.75], [27.364006, 44.565326, 22.5], [27.364084, 44.565367, 22.5], [27.365166, 44.566055, 21.0], [27.367151, 44.567609, 20.75], [27.367283, 44.567703, 21.5], [27.367427, 44.567772, 22.5], [27.368195, 44.568047, 22.25], [27.367882, 44.568495, 23.0], [27.367777, 44.568651, 23.0], [27.367558, 44.568993, 23.0], [27.367442, 44.569201, 22.75], [27.367359, 44.569347, 22.0], [27.367167, 44.569688, 20.25], [27.367031, 44.569935, 20.5], [27.366404, 44.57107, 20.0], [27.367757, 44.571394, 18.0], [27.369983, 44.571916, 21.0], [27.371165, 44.572192, 21.0], [27.371271, 44.572196, 21.5], [27.371277, 44.572238, 21.5], [27.371267, 44.572339, 21.5], [27.371099, 44.573033, 23.0], [27.371024, 44.573357, 21.25], [27.372461, 44.573715, 20.0], [27.372571, 44.573741, 19.75], [27.374148, 44.57411, 18.0], [27.374354, 44.574162, 17.25], [27.375062, 44.574333, 18.25], [27.375575, 44.574457, 18.75], [27.375788, 44.574508, 18.5], [27.375919, 44.574538, 16.5]]}}]}