{"type": "FeatureCollection", "features": [{"type": "Feature", "properties": {"creator": "BRouter-1.7.10", "name": "brouter_trekking_0", "track-length": "2572", "filtered ascend": "1", "plain-ascend": "-7", "total-time": "427", "total-energy": "42731", "cost": "3489", "messages": [["Longitude", "Latitude", "Elevation", "Distance", "CostPerKm", "ElevCost", "TurnCost", "NodeCost", "InitialCost", "WayTags", "NodeTags", "Time", "Energy"], ["27355483", "44564645", "24", "107", "1450", "0", "0", "0", "0", "highway=tertiary surface=asphalt oneway=yes", "highway=crossing crossing=uncontrolled", "18", "1874"], ["27357365", "44564651", "25", "149", "1450", "0", "0", "0", "0", "highway=tertiary surface=asphalt oneway=yes", "highway=crossing", "47", "4708"], ["27357525", "44564651", "26", "13", "1450", "0", "0", "0", "0", "highway=tertiary surface=asphalt oneway=yes", "", "49", "4986"], ["27357529", "44564831", "25", "20", "1150", "0", "89", "0", "0", "highway=residential surface=asphalt oneway=yes", "highway=crossing", "53", "5353"], ["27357488", "44565632", "23", "90", "1150", "0", "1", "0", "0", "highway=residential surface=asphalt oneway=yes", "", "64", "6494"], ["27357468", "44565722", "22", "10", "1150", "0", "0", "0", "0", "highway=residential surface=asphalt oneway=no", "highway=crossing crossing=uncontrolled", "66", "6614"], ["27357001", "44567244", "22", "173", "1150", "0", "0", "0", "0", "highway=residential surface=asphalt oneway=no", "", "89", "8970"], ["27359131", "44567243", "25", "170", "1150", "0", "108", "0", "0", "highway=residential surface=asphalt", "highway=crossing crossing=uncontrolled", "127", "12745"], ["27359285", "44567243", "24", "12", "1150", "0", "0", "0", "0", "highway=residential surface=asphalt", "", "129", "12971"], ["27358922", "44567988", "22", "88", "1050", "0", "119", "0", "0", "reversedirection=yes highway=tertiary surface=asphalt foot=yes bicycle=yes cycleway=no oneway=no", "highway=crossing crossing=uncontrolled", "142", "14290"], ["27358461", "44568964", "20", "115", "1050", "0", "0", "0", "0", "reversedirection=yes highway=tertiary surface=asphalt foot=yes bicycle=yes cycleway=no oneway=no", "", "155", "15572"], ["27358498", "44568995", "20", "5", "1050", "0", "44", "0", "0", "highway=tertiary surface=asphalt access=yes foot=yes bicycle=yes cycleway=no oneway=no", "highway=crossing", "156", "15633"], ["27361321", "44569878", "20", "249", "1050", "0", "12", "0", "0", "highway=tertiary surface=asphalt access=yes foot=yes bicycle=yes cycleway=no oneway=no", "highway=crossing", "197", "19754"], ["27371271", "44572196", "21", "831", "1050", "0", "3", "0", "0", "highway=tertiary surface=asphalt access=yes foot=yes bicycle=yes cycleway=no oneway=no", "", "343", "34362"], ["27371024", "44573357", "21", "130", "1550", "0", "77", "0", "0", "reversedirection=yes highway=residential surface=unpaved", "", "370", "37041"], ["27372571", "44573741", "19", "130", "1150", "0", "74", "0", "0", "highway=residential", "highway=crossing crossing=uncontrolled", "387", "38720"], ["27374148", "44574110", "18", "132", "1150", "0", "0", "0", "0", "highway=residential", "highway=crossing crossing=uncontrolled", "403", "40314"], ["27375575", "44574457", "18", "119", "1150", "0", "0", "0", "0", "highway=residential", "highway=crossing crossing=uncontrolled", "422", "42264"], ["27375919", "44574538", "16", "29", "1150", "0", "0", "0", "0", "highway=residential", "", "427", "42731"]], "times": [0, 17.194, 18.743, 45.192, 47.087, 49.861, 52.19, 53.53, 60.755, 64.935, 66.137, 69.242, 74.812, 89.695, 108.829, 112.519, 118.105, 127.432, 129.7, 139.75, 142.882, 143.997, 144.454, 148.939, 155.701, 156.316, 161.159, 186.504, 197.52, 198.509, 215.134, 225.455, 257.693, 262.092, 283.099, 296.985, 325.727, 342.054, 343.572, 344.513, 346.566, 365.369, 370.363, 385.912, 387.154, 403.085, 405.171, 414.703, 422.588, 425.616, 427.251]}, "geometry": {"type": "LineString", "coordinates": [[27.354137, 44.564633, 24.25], [27.355374, 44.564644, 24.5], [27.355483, 44.564645, 24.5], [27.357238, 44.564649, 25.25], [27.357365, 44.564651, 25.5], [27.357525, 44.564651, 26.0], [27.357526, 44.564758, 25.75], [27.357529, 44.564831, 25.25], [27.35754, 44.56534, 23.75], [27.357488, 44.565632, 23.25], [27.357468, 44.565722, 22.75], [27.357395, 44.565969, 22.0], [27.357239, 44.566428, 21.0], [27.357001, 44.567244, 22.25], [27.358108, 44.567248, 23.75], [27.358345, 44.567242, 23.75], [27.35863, 44.567243, 24.75], [27.359131, 44.567243, 25.0], [27.359285, 44.567243, 24.5], [27.359035, 44.567759, 24.0], [27.358922, 44.567988, 22.25], [27.35888, 44.568073, 21.75], [27.358868, 44.568105, 21.75], [27.358714, 44.568446, 21.25], [27.358461, 44.568964, 20.25], [27.358498, 44.568995, 20.25], [27.358819, 44.569262, 20.0], [27.36029, 44.569632, 22.25], [27.361321, 44.569878, 20.25], [27.361407, 44.569898, 20.25], [27.36222, 44.570093, 22.75], [27.362848, 44.570243, 22.5], [27.364355, 44.570589, 24.75], [27.364765, 44.570686, 22.75], [27.366404, 44.57107, 20.0], [27.367757, 44.571394, 18.0], [27.369983, 44.571916, 21.0], [27.371165, 44.572192, 21.0], [27.371271, 44.572196, 21.5], [27.371277, 44.572238, 21.5], [27.371267, 44.572339, 21.5], [27.371099, 44.573033, 23.0], [27.371024, 44.573357, 21.25], [27.372461, 44.573715, 20.0], [27.372571, 44.573741, 19.75], [27.374148, 44.57411, 18.0], [27.374354, 44.574162, 17.25], [27.375062, 44.574333, 18.25], [27.375575, 44.574457, 18.75], [27.375788, 44.574508, 18.5], [27.375919, 44.574538, 16.5]]}}]}