{"type": "FeatureCollection", "features": [{"type": "Feature", "properties": {"creator": "BRouter-1.7.10", "name": "brouter_trekking_0", "track-length": "1792", "filtered ascend": "2", "plain-ascend": "-1", "total-time": "303", "total-energy": "30309", "cost": "2584", "messages": [["Longitude", "Latitude", "Elevation", "Distance", "CostPerKm", "ElevCost", "TurnCost", "NodeCost", "InitialCost", "WayTags", "NodeTags", "Time", "Energy"], ["27375054", "44563480", "21", "11", "1150", "0", "0", "0", "0", "highway=residential surface=asphalt", "", "1", "184"], ["27370870", "44564832", "20", "421", "1150", "0", "103", "0", "0", "reversedirection=yes highway=residential surface=asphalt", "", "74", "7433"], ["27370138", "44565668", "23", "110", "1450", "0", "105", "0", "0", "reversedirection=yes highway=tertiary surface=asphalt", "highway=crossing", "96", "9676"], ["27369035", "44566950", "21", "167", "1450", "0", "0", "0", "0", "reversedirection=yes highway=tertiary surface=asphalt", "highway=crossing", "123", "12346"], ["27368921", "44567091", "21", "18", "1450", "0", "0", "0", "0", "reversedirection=yes highway=tertiary surface=asphalt", "highway=crossing", "126", "12616"], ["27367167", "44569688", "20", "322", "1450", "0", "0", "0", "0", "reversedirection=yes highway=tertiary surface=asphalt", "", "183", "18330"], ["27361407", "44569898", "20", "460", "1150", "0", "63", "0", "0", "reversedirection=yes highway=residential surface=asphalt", "", "260", "26081"], ["27361321", "44569878", "20", "7", "1050", "0", "23", "0", "0", "reversedirection=yes highway=tertiary surface=asphalt access=yes foot=yes bicycle=yes cycleway=no oneway=no", "highway=crossing", "261", "26169"], ["27358819", "44569262", "20", "210", "1050", "0", "0", "0", "0", "reversedirection=yes highway=tertiary surface=asphalt access=yes foot=yes bicycle=yes cycleway=no oneway=no", "", "294", "29468"], ["27358225", "44569653", "19", "64", "1150", "0", "47", "0", "0", "reversedirection=yes highway=residential surface=asphalt access=yes foot=yes bicycle=yes cycleway=no oneway=no", "highway=crossing", "302", "30282"], ["27358216", "44569674", "19", "2", "5050", "0", "13", "0", "0", "reversedirection=yes highway=footway", "", "303", "30309"]], "times": [0, 1.848, 10.402, 19.009, 36.378, 46.528, 57.544, 63.753, 74.329, 82.254, 92.021, 96.756, 98.504, 109.918, 114.218, 123.452, 124.905, 126.155, 142.673, 148.464, 160.308, 164.037, 171.95, 176.236, 178.81, 183.284, 196.085, 200.972, 209.86, 215.775, 223.852, 237.491, 251.948, 258.824, 260.786, 261.672, 278.685, 294.66, 302.789, 303.063]}, "geometry": {"type": "LineString", "coordinates": [[27.375186, 44.563491, 21.25], [27.375054, 44.56348, 21.25], [27.374674, 44.563757, 22.0], [27.374256, 44.564044, 22.0], [27.373248, 44.564546, 22.0], [27.372722, 44.564791, 22.75], [27.372063, 44.565092, 22.5], [27.371624, 44.565304, 21.75], [27.37087, 44.564832, 20.75], [27.370537, 44.565224, 21.0], [27.370262, 44.565535, 22.75], [27.370138, 44.565668, 23.5], [27.370089, 44.565722, 23.5], [27.36968, 44.56621, 22.5], [27.36949, 44.566429, 21.75], [27.369035, 44.56695, 21.0], [27.368974, 44.567026, 21.0], [27.368921, 44.567091, 21.25], [27.36839, 44.567803, 22.0], [27.368195, 44.568047, 22.25], [27.367882, 44.568495, 23.0], [27.367777, 44.568651, 23.0], [27.367558, 44.568993, 23.0], [27.367442, 44.569201, 22.75], [27.367359, 44.569347, 22.0], [27.367167, 44.569688, 20.25], [27.366333, 44.569675, 22.5], [27.365958, 44.56968, 22.0], [27.365283, 44.569691, 22.0], [27.364937, 44.5697, 23.0], [27.364508, 44.569715, 23.75], [27.363406, 44.569751, 22.25], [27.362287, 44.569797, 22.25], [27.361592, 44.569838, 20.75], [27.361407, 44.569898, 20.25], [27.361321, 44.569878, 20.25], [27.36029, 44.569632, 22.25], [27.358819, 44.569262, 20.0], [27.358225, 44.569653, 19.0], [27.358216, 44.569674, 19.0]]}}]}