{"type": "FeatureCollection", "features": [{"type": "Feature", "properties": {"creator": "BRouter-1.7.10", "name": "brouter_trekking_0", "track-length": "1114", "filtered ascend": "1", "plain-ascend": "-3", "total-time": "174", "total-energy": "17373", "cost": "1701", "messages": [["Longitude", "Latitude", "Elevation", "Distance", "CostPerKm", "ElevCost", "TurnCost", "NodeCost", "InitialCost", "WayTags", "NodeTags", "Time", "Energy"], ["27350804", "44564933", "23", "20", "1350", "0", "0", "0", "0", "reversedirection=yes highway=service", "", "3", "380"], ["27350804", "44565008", "23", "8", "1150", "0", "58", "0", "0", "highway=residential surface=asphalt", "highway=crossing crossing=uncontrolled", "5", "530"], ["27351110", "44569619", "22", "515", "1150", "0", "0", "0", "0", "highway=residential surface=asphalt", "", "90", "9041"], ["27353103", "44569638", "21", "158", "1150", "0", "84", "0", "0", "highway=residential surface=asphalt oneway=yes", "highway=crossing", "113", "11320"], ["27358107", "44569736", "19", "398", "1150", "0", "2", "0", "0", "highway=residential surface=asphalt oneway=yes", "", "171", "17124"], ["27358225", "44569653", "19", "13", "5150", "0", "43", "0", "0", "reversedirection=yes highway=residential surface=asphalt access=yes foot=yes bicycle=yes cycleway=no oneway=yes", "highway=crossing", "173", "17340"], ["27358216", "44569674", "19", "2", "5050", "0", "168", "0", "0", "reversedirection=yes highway=footway", "", "173", "17373"]], "times": [0, 3.807, 5.305, 8.819, 13.697, 35.131, 45.899, 59.942, 65.436, 77.137, 90.398, 113.177, 114.599, 168.188, 171.172, 173.331, 173.663]}, "geometry": {"type": "LineString", "coordinates": [[27.350573, 44.56487, 23.25], [27.350804, 44.564933, 23.75], [27.350804, 44.565008, 23.75], [27.350804, 44.565257, 22.0], [27.350822, 44.565534, 22.75], [27.350898, 44.566359, 24.75], [27.350961, 44.567203, 21.5], [27.351008, 44.568017, 22.0], [27.351027, 44.568355, 21.5], [27.351062, 44.568855, 23.0], [27.35111, 44.569619, 22.0], [27.353103, 44.569638, 21.0], [27.353221, 44.569639, 21.0], [27.357887, 44.569697, 19.0], [27.358107, 44.569736, 19.0], [27.358225, 44.569653, 19.0], [27.358216, 44.569674, 19.0]]}}]}