{"type": "FeatureCollection", "features": [{"type": "Feature", "properties": {"creator": "BRouter-1.7.10", "name": "brouter_trekking_0", "track-length": "903", "filtered ascend": "2", "plain-ascend": "0", "total-time": "151", "total-energy": "15117", "cost": "2210", "messages": [["Longitude", "Latitude", "Elevation", "Distance", "CostPerKm", "ElevCost", "TurnCost", "NodeCost", "InitialCost", "WayTags", "NodeTags", "Time", "Energy"], ["27351513", "44562533", "26", "12", "5050", "0", "0", "0", "0", "reversedirection=yes highway=footway", "", "2", "201"], ["27352889", "44562400", "25", "110", "5050", "0", "132", "0", "0", "highway=footway", "", "19", "1907"], ["27352832", "44561974", "25", "48", "1150", "0", "86", "0", "0", "highway=residential surface=asphalt oneway=yes", "", "25", "2577"], ["27354938", "44561957", "25", "186", "1350", "0", "270", "0", "0", "highway=service surface=asphalt", "", "63", "6388"], ["27354971", "44562201", "25", "27", "1150", "0", "90", "0", "0", "reversedirection=yes highway=residential surface=asphalt", "highway=crossing", "67", "6729"], ["27354998", "44562336", "25", "15", "1150", "0", "0", "0", "0", "reversedirection=yes highway=residential surface=asphalt", "estimated_crossing_class=5", "69", "6939"], ["27355016", "44562420", "25", "9", "1150", "0", "0", "0", "0", "highway=residential surface=asphalt oneway=yes", "highway=crossing crossing=zebra", "70", "7075"], ["27355226", "44563373", "24", "107", "1150", "0", "0", "0", "0", "highway=residential surface=asphalt oneway=yes", "", "85", "8583"], ["27359906", "44563260", "24", "373", "1150", "0", "79", "0", "0", "highway=residential oneway=yes", "", "147", "14790"], ["27360110", "44563263", "25", "16", "1150", "0", "0", "0", "0", "reversedirection=yes highway=residential surface=asphalt oneway=no", "", "151", "15117"]], "times": [0, 2.016, 19.074, 25.772, 34.042, 53.477, 58.611, 60.929, 63.868, 67.278, 69.38, 70.744, 85.81, 103.127, 106.488, 119.868, 131.136, 131.863, 138.093, 147.874, 151.141]}, "geometry": {"type": "LineString", "coordinates": [[27.351565, 44.562432, 26.25], [27.351513, 44.562533, 26.25], [27.352889, 44.5624, 25.75], [27.352832, 44.561974, 25.0], [27.353246, 44.561937, 27.25], [27.354135, 44.561858, 28.5], [27.354605, 44.561812, 26.25], [27.354628, 44.561979, 25.5], [27.354938, 44.561957, 25.0], [27.354971, 44.562201, 25.0], [27.354998, 44.562336, 25.25], [27.355016, 44.56242, 25.5], [27.355226, 44.563373, 24.75], [27.35695, 44.563325, 23.0], [27.357186, 44.563319, 23.75], [27.357923, 44.563299, 25.0], [27.358677, 44.563274, 24.75], [27.358725, 44.563273, 24.75], [27.359242, 44.563266, 24.0], [27.359906, 44.56326, 24.75], [27.36011, 44.563263, 25.5]]}}]}