{"type": "FeatureCollection", "features": [{"type": "Feature", "properties": {"creator": "BRouter-1.7.10", "name": "brouter_trekking_0", "track-length": "918", "filtered ascend": "2", "plain-ascend": "2", "total-time": "168", "total-energy": "16768", "cost": "2494", "messages": [["Longitude", "Latitude", "Elevation", "Distance", "CostPerKm", "ElevCost", "TurnCost", "NodeCost", "InitialCost", "WayTags", "NodeTags", "Time", "Energy"], ["27355374", "44564644", "24", "98", "1450", "0", "0", "0", "0", "highway=tertiary surface=asphalt oneway=yes", "", "17", "1719"], ["27355373", "44564735", "25", "10", "1150", "0", "89", "0", "0", "highway=residential surface=asphalt oneway=yes", "", "19", "1915"], ["27353786", "44564718", "24", "126", "1450", "0", "90", "0", "0", "highway=tertiary surface=asphalt oneway=yes", "highway=crossing crossing=uncontrolled", "44", "4434"], ["27351172", "44564692", "24", "208", "1450", "0", "0", "0", "0", "highway=tertiary surface=asphalt oneway=yes", "highway=crossing", "78", "7830"], ["27350877", "44564671", "23", "24", "1450", "0", "0", "0", "0", "highway=tertiary surface=asphalt oneway=yes", "", "81", "8159"], ["27350964", "44564475", "23", "23", "1450", "0", "99", "0", "0", "reversedirection=yes highway=tertiary surface=asphalt", "highway=crossing", "84", "8471"], ["27351896", "44562911", "26", "189", "1450", "0", "0", "0", "0", "reversedirection=yes highway=tertiary surface=asphalt", "highway=crossing", "120", "12065"], ["27352102", "44562614", "27", "37", "1450", "0", "0", "0", "0", "reversedirection=yes highway=tertiary surface=asphalt", "estimated_crossing_class=5", "130", "13082"], ["27352869", "44562537", "26", "62", "3050", "0", "39", "0", "0", "highway=primary surface=asphalt smoothness=excellent oneway=no", "estimated_crossing_class=5", "142", "14228"], ["27352917", "44562532", "26", "4", "3050", "0", "0", "0", "0", "highway=primary surface=asphalt smoothness=excellent oneway=no", "estimated_crossing_class=5", "142", "14300"], ["27352889", "44562400", "25", "15", "1150", "0", "90", "0", "0", "highway=residential surface=asphalt oneway=yes", "", "145", "14552"], ["27351513", "44562533", "26", "110", "5050", "0", "88", "0", "0", "reversedirection=yes highway=footway", "", "165", "16558"], ["27351565", "44562432", "26", "12", "5050", "0", "132", "0", "0", "highway=footway", "", "167", "16768"]], "times": [0, 17.194, 19.159, 39.624, 44.341, 50.278, 78.297, 81.59, 82.927, 84.706, 86.834, 96.031, 104.859, 120.64, 130.809, 142.272, 142.991, 145.506, 165.564, 167.667]}, "geometry": {"type": "LineString", "coordinates": [[27.354137, 44.564633, 24.25], [27.355374, 44.564644, 24.5], [27.355373, 44.564735, 25.0], [27.354216, 44.564722, 26.0], [27.353786, 44.564718, 24.5], [27.353131, 44.564709, 23.0], [27.351172, 44.564692, 24.75], [27.350877, 44.564671, 23.75], [27.350898, 44.564586, 23.5], [27.350964, 44.564475, 23.5], [27.35104, 44.56434, 23.25], [27.351294, 44.563868, 24.0], [27.351568, 44.563406, 23.75], [27.351896, 44.562911, 26.0], [27.352102, 44.562614, 27.0], [27.352869, 44.562537, 26.0], [27.352917, 44.562532, 26.0], [27.352889, 44.5624, 25.75], [27.351513, 44.562533, 26.25], [27.351565, 44.562432, 26.25]]}}]}