{"type": "FeatureCollection", "features": [{"type": "Feature", "properties": {"creator": "BRouter-1.7.10", "name": "brouter_trekking_0", "track-length": "1286", "filtered ascend": "6", "plain-ascend": "-2", "total-time": "226", "total-energy": "22556", "cost": "2181", "messages": [["Longitude", "Latitude", "Elevation", "Distance", "CostPerKm", "ElevCost", "TurnCost", "NodeCost", "InitialCost", "WayTags", "NodeTags", "Time", "Energy"], ["27355483", "44564645", "24", "78", "1450", "0", "0", "0", "0", "highway=tertiary surface=asphalt oneway=yes", "highway=crossing crossing=uncontrolled", "13", "1373"], ["27357365", "44564651", "25", "149", "1450", "0", "0", "0", "0", "highway=tertiary surface=asphalt oneway=yes", "highway=crossing", "42", "4220"], ["27358286", "44564654", "30", "73", "1450", "0", "0", "0", "0", "highway=tertiary surface=asphalt oneway=yes", "highway=crossing", "61", "6106"], ["27359762", "44564654", "24", "118", "1450", "0", "0", "0", "0", "highway=tertiary surface=asphalt oneway=yes", "highway=crossing", "79", "7904"], ["27360975", "44564415", "27", "101", "1450", "0", "2", "0", "0", "highway=tertiary surface=asphalt oneway=yes", "", "99", "9955"], ["27360995", "44564727", "27", "35", "1450", "0", "101", "0", "0", "reversedirection=yes highway=tertiary surface=asphalt", "highway=crossing", "108", "10806"], ["27361090", "44565020", "26", "34", "1450", "0", "8", "0", "0", "highway=tertiary surface=asphalt oneway=yes", "highway=crossing", "114", "11464"], ["27361092", "44566062", "23", "116", "1450", "0", "0", "0", "0", "highway=tertiary surface=asphalt oneway=yes", "highway=crossing", "127", "12760"], ["27361092", "44566127", "23", "7", "1450", "0", "0", "0", "0", "highway=tertiary surface=asphalt oneway=yes", "", "128", "12854"], ["27361213", "44566162", "24", "10", "1150", "0", "56", "0", "0", "reversedirection=yes highway=residential surface=asphalt oneway=no", "highway=crossing", "129", "12998"], ["27362046", "44566412", "22", "75", "1150", "0", "17", "0", "0", "reversedirection=yes highway=residential surface=asphalt oneway=no", "", "140", "14025"], ["27364341", "44566819", "23", "195", "1150", "0", "5", "0", "0", "highway=residential surface=asphalt", "highway=crossing crossing=uncontrolled", "171", "17180"], ["27364439", "44566868", "23", "10", "1150", "0", "0", "0", "0", "highway=residential surface=asphalt", "", "173", "17364"], ["27364259", "44567120", "24", "31", "1150", "0", "81", "0", "0", "reversedirection=yes highway=residential surface=asphalt", "", "180", "18046"], ["27364876", "44567790", "23", "113", "1150", "0", "130", "0", "0", "highway=residential surface=asphalt oneway=yes", "", "199", "19922"], ["27363917", "44568393", "21", "141", "1150", "0", "89", "0", "0", "reversedirection=yes highway=residential surface=asphalt oneway=no", "", "225", "22556"]], "times": [0, 12.177, 13.739, 40.304, 42.202, 44.981, 46.102, 61.058, 63.842, 73.705, 79.03, 80.198, 81.584, 82.948, 96.247, 99.54, 101.965, 108.047, 111.032, 112.78, 114.628, 127.589, 128.526, 129.966, 135.915, 138.256, 140.236, 147.364, 148.392, 151.88, 160.46, 171.783, 173.626, 176.536, 180.437, 184.172, 185.435, 188.658, 189.162, 189.8, 199.197, 210.71, 212.262, 219.701, 224.361, 225.534]}, "geometry": {"type": "LineString", "coordinates": [[27.354506, 44.564636, 24.25], [27.355374, 44.564644, 24.5], [27.355483, 44.564645, 24.5], [27.357238, 44.564649, 25.25], [27.357365, 44.564651, 25.5], [27.357525, 44.564651, 26.0], [27.357592, 44.564651, 26.25], [27.358286, 44.564654, 30.5], [27.358421, 44.564655, 30.75], [27.359213, 44.564657, 26.0], [27.359762, 44.564654, 24.5], [27.359871, 44.564654, 24.5], [27.360002, 44.564637, 24.25], [27.360122, 44.564613, 24.5], [27.36081, 44.564436, 26.75], [27.360975, 44.564415, 27.5], [27.360981, 44.564502, 27.5], [27.360995, 44.564727, 27.75], [27.361066, 44.564847, 27.5], [27.36109, 44.564925, 27.25], [27.36109, 44.56502, 26.75], [27.361092, 44.566062, 23.75], [27.361092, 44.566127, 23.75], [27.361213, 44.566162, 24.0], [27.36165, 44.566332, 24.0], [27.361837, 44.56642, 23.25], [27.362046, 44.566412, 22.5], [27.362874, 44.566382, 21.25], [27.362972, 44.566381, 21.5], [27.36323, 44.566419, 22.5], [27.363719, 44.566533, 23.5], [27.364341, 44.566819, 23.5], [27.364439, 44.566868, 23.5], [27.364352, 44.566978, 24.0], [27.364259, 44.56712, 24.5], [27.364436, 44.567193, 24.75], [27.364502, 44.56721, 24.5], [27.364822, 44.56721, 22.5], [27.364862, 44.56723, 22.25], [27.364874, 44.567274, 22.25], [27.364876, 44.56779, 23.25], [27.364882, 44.568291, 24.25], [27.364886, 44.568365, 24.25], [27.36445, 44.56838, 24.75], [27.36403, 44.568391, 23.25], [27.363917, 44.568393, 21.5]]}}]}