{"type": "FeatureCollection", "features": [{"type": "Feature", "properties": {"creator": "BRouter-1.7.10", "name": "brouter_trekking_0", "track-length": "2024", "filtered ascend": "3", "plain-ascend": "1", "total-time": "356", "total-energy": "35592", "cost": "3354", "messages": [["Longitude", "Latitude", "Elevation", "Distance", "CostPerKm", "ElevCost", "TurnCost", "NodeCost", "InitialCost", "WayTags", "NodeTags", "Time", "Energy"], ["27364209", "44564006", "23", "5", "1050", "0", "0", "0", "0", "highway=tertiary surface=asphalt foot=yes bicycle=yes oneway=yes", "highway=crossing", "0", "89"], ["27364172", "44564007", "23", "3", "1050", "0", "0", "0", "0", "highway=tertiary surface=asphalt foot=yes bicycle=yes oneway=yes", "", "1", "143"], ["27363986", "44563903", "24", "19", "1450", "0", "21", "0", "0", "highway=tertiary surface=asphalt oneway=yes", "highway=crossing", "5", "503"], ["27363887", "44563848", "24", "10", "1450", "0", "0", "0", "0", "highway=tertiary surface=asphalt oneway=yes", "", "6", "690"], ["27363897", "44563794", "23", "6", "1450", "0", "44", "0", "0", "reversedirection=yes highway=tertiary surface=asphalt oneway=no", "highway=crossing", "7", "793"], ["27364040", "44563082", "24", "79", "1450", "0", "0", "0", "0", "reversedirection=yes highway=tertiary surface=asphalt oneway=no", "", "22", "2206"], ["27366509", "44563194", "23", "197", "1150", "0", "86", "0", "0", "highway=residential surface=asphalt oneway=yes", "highway=crossing crossing=uncontrolled", "52", "5288"], ["27368156", "44563199", "25", "130", "1150", "0", "0", "0", "0", "highway=residential surface=asphalt oneway=yes", "highway=crossing crossing=uncontrolled", "81", "8169"], ["27368764", "44563418", "24", "55", "1150", "0", "13", "0", "0", "highway=residential surface=asphalt oneway=yes", "", "91", "9102"], ["27369512", "44562865", "23", "85", "1150", "0", "68", "0", "0", "highway=residential surface=asphalt", "", "103", "10322"], ["27371338", "44564290", "20", "217", "1150", "0", "112", "0", "0", "reversedirection=yes highway=residential", "", "132", "13227"], ["27370870", "44564832", "20", "70", "1450", "0", "64", "0", "0", "reversedirection=yes highway=tertiary surface=asphalt", "", "142", "14210"], ["27375054", "44563480", "21", "421", "1150", "0", "143", "0", "0", "highway=residential surface=asphalt", "", "216", "21607"], ["27375466", "44563516", "22", "33", "1150", "0", "35", "0", "0", "reversedirection=yes highway=residential surface=asphalt", "", "221", "22193"], ["27376136", "44563593", "24", "54", "1150", "0", "0", "0", "0", "highway=residential surface=asphalt", "highway=crossing crossing=uncontrolled", "236", "23639"], ["27376475", "44563634", "24", "27", "1150", "0", "0", "0", "0", "highway=residential surface=asphalt", "highway=crossing crossing=uncontrolled", "242", "24257"], ["27377406", "44563916", "23", "82", "1150", "0", "1", "0", "0", "highway=residential surface=asphalt", "highway=crossing crossing=uncontrolled", "258", "25875"], ["27380657", "44565849", "26", "336", "1150", "0", "0", "0", "0", "highway=residential surface=asphalt", "highway=crossing crossing=uncontrolled", "327", "32788"], ["27380771", "44565919", "26", "12", "1150", "0", "0", "0", "0", "highway=residential surface=asphalt", "", "330", "33036"], ["27380874", "44565830", "26", "13", "1150", "0", "91", "0", "0", "highway=residential surface=asphalt oneway=yes", "highway=crossing crossing=uncontrolled", "333", "33317"], ["27381765", "44565117", "24", "106", "1150", "0", "0", "0", "0", "highway=residential surface=asphalt oneway=yes", "highway=crossing crossing=uncontrolled", "346", "34652"], ["27381898", "44565011", "24", "16", "1150", "0", "0", "0", "0", "highway=residential surface=asphalt oneway=yes", "estimated_crossing_class=4", "348", "34882"], ["27381778", "44564920", "23", "14", "3050", "0", "82", "0", "0", "reversedirection=yes highway=primary surface=asphalt smoothness=excellent oneway=no", "estimated_crossing_class=4", "350", "35076"], ["27381570", "44564772", "24", "23", "3050", "0", "0", "0", "0", "reversedirection=yes highway=primary surface=asphalt smoothness=excellent oneway=no", "highway=crossing estimated_crossing_class=4", "354", "35423"], ["27381486", "44564845", "24", "11", "5050", "0", "98", "0", "0", "reversedirection=yes highway=footway", "", "355", "35592"]], "times": [0, 0.898, 1.435, 5.037, 6.901, 7.939, 12.485, 16.814, 22.063, 24.701, 35.617, 46.358, 52.876, 54.764, 66.733, 81.686, 83.705, 91.015, 95.848, 103.211, 116.658, 120.059, 122.095, 123.357, 132.251, 133.261, 142.077, 156.94, 165.776, 178.325, 186.27, 202.287, 209.915, 216.042, 221.9, 236.355, 242.539, 246.828, 250.121, 252.327, 258.708, 269.754, 274.849, 288.315, 327.828, 330.312, 333.116, 346.472, 348.768, 350.706, 354.178, 355.866]}, "geometry": {"type": "LineString", "coordinates": [[27.364273, 44.564006, 23.5], [27.364209, 44.564006, 23.75], [27.364172, 44.564007, 23.75], [27.363986, 44.563903, 24.0], [27.363887, 44.563848, 24.0], [27.363897, 44.563794, 23.75], [27.363953, 44.563541, 23.5], [27.363999, 44.563291, 23.25], [27.36404, 44.563082, 24.75], [27.3642, 44.563093, 24.5], [27.36519, 44.563182, 22.75], [27.365992, 44.563194, 23.25], [27.366509, 44.563194, 23.0], [27.366652, 44.563194, 23.25], [27.367411, 44.563191, 24.0], [27.368156, 44.563199, 25.5], [27.368275, 44.5632, 25.5], [27.368764, 44.563418, 24.25], [27.36908, 44.563198, 23.5], [27.369512, 44.562865, 23.5], [27.370253, 44.563517, 23.0], [27.370431, 44.563665, 23.0], [27.370575, 44.563714, 23.0], [27.370652, 44.563754, 23.0], [27.371338, 44.56429, 20.5], [27.371283, 44.564355, 20.5], [27.37087, 44.564832, 20.75], [27.371624, 44.565304, 21.75], [27.372063, 44.565092, 22.5], [27.372722, 44.564791, 22.75], [27.373248, 44.564546, 22.0], [27.374256, 44.564044, 22.0], [27.374674, 44.563757, 22.0], [27.375054, 44.56348, 21.25], [27.375466, 44.563516, 22.0], [27.376136, 44.563593, 24.0], [27.376475, 44.563634, 24.0], [27.376719, 44.563674, 24.0], [27.376907, 44.563713, 24.0], [27.377033, 44.563749, 24.0], [27.377406, 44.563916, 23.75], [27.378092, 44.564292, 23.25], [27.378415, 44.564484, 23.0], [27.379119, 44.564902, 23.75], [27.380657, 44.565849, 26.25], [27.380771, 44.565919, 26.5], [27.380874, 44.56583, 26.75], [27.381765, 44.565117, 24.0], [27.381898, 44.565011, 24.0], [27.381778, 44.56492, 23.75], [27.38157, 44.564772, 24.0], [27.381486, 44.564845, 24.0]]}}]}