{"type": "FeatureCollection", "features": [{"type": "Feature", "properties": {"creator": "BRouter-1.7.10", "name": "brouter_trekking_0", "track-length": "2718", "filtered ascend": "9", "plain-ascend": "0", "total-time": "476", "total-energy": "47587", "cost": "5184", "messages": [["Longitude", "Latitude", "Elevation", "Distance", "CostPerKm", "ElevCost", "TurnCost", "NodeCost", "InitialCost", "WayTags", "NodeTags", "Time", "Energy"], ["27375054", "44563480", "21", "11", "1150", "0", "0", "0", "0", "highway=residential surface=asphalt", "", "1", "184"], ["27372722", "44564791", "22", "237", "1150", "0", "36", "0", "0", "reversedirection=yes highway=residential surface=asphalt", "", "46", "4653"], ["27371698", "44564065", "22", "115", "1150", "0", "71", "0", "0", "highway=residential surface=asphalt oneway=yes", "highway=crossing", "65", "6592"], ["27371605", "44563996", "22", "11", "1150", "0", "0", "0", "0", "highway=residential surface=asphalt oneway=yes", "", "67", "6778"], ["27371528", "44564077", "21", "11", "1450", "0", "108", "0", "0", "reversedirection=yes highway=tertiary surface=asphalt", "highway=crossing", "69", "6941"], ["27371283", "44564355", "20", "36", "1450", "0", "0", "0", "0", "reversedirection=yes highway=tertiary surface=asphalt", "", "73", "7373"], ["27371201", "44564348", "21", "7", "1450", "0", "53", "0", "0", "reversedirection=yes highway=tertiary surface=asphalt oneway=no", "highway=crossing", "74", "7472"], ["27370268", "44564264", "23", "75", "1450", "0", "0", "0", "0", "reversedirection=yes highway=tertiary surface=asphalt oneway=no", "", "91", "9120"], ["27364209", "44564006", "23", "481", "1050", "0", "0", "0", "0", "highway=tertiary surface=asphalt foot=yes bicycle=yes oneway=yes", "highway=crossing", "180", "18060"], ["27363843", "44564050", "24", "30", "1050", "0", "3", "0", "0", "highway=tertiary surface=asphalt foot=yes bicycle=yes oneway=yes", "highway=crossing", "185", "18590"], ["27363750", "44564052", "24", "7", "1050", "0", "0", "0", "0", "highway=tertiary surface=asphalt foot=yes bicycle=yes oneway=yes", "", "187", "18713"], ["27363606", "44564121", "23", "14", "1450", "0", "13", "0", "0", "highway=tertiary surface=asphalt oneway=yes", "highway=crossing", "189", "18944"], ["27361167", "44564483", "28", "200", "1450", "0", "0", "0", "0", "highway=tertiary surface=asphalt oneway=yes", "highway=crossing", "227", "22792"], ["27359766", "44564773", "25", "116", "1450", "0", "3", "0", "0", "highway=tertiary surface=asphalt oneway=yes", "highway=crossing", "251", "25110"], ["27358283", "44564763", "30", "118", "1450", "0", "0", "0", "0", "highway=tertiary surface=asphalt oneway=yes", "highway=crossing", "277", "27788"], ["27357360", "44564756", "25", "73", "1450", "0", "0", "0", "0", "highway=tertiary surface=asphalt oneway=yes", "highway=crossing", "288", "28836"], ["27355483", "44564736", "25", "149", "1450", "0", "0", "0", "0", "highway=tertiary surface=asphalt oneway=yes", "highway=crossing crossing=uncontrolled", "310", "31009"], ["27353786", "44564718", "24", "135", "1450", "0", "0", "0", "0", "highway=tertiary surface=asphalt oneway=yes", "highway=crossing crossing=uncontrolled", "333", "33377"], ["27351172", "44564692", "24", "208", "1450", "0", "0", "0", "0", "highway=tertiary surface=asphalt oneway=yes", "highway=crossing", "366", "36706"], ["27350877", "44564671", "23", "24", "1450", "0", "0", "0", "0", "highway=tertiary surface=asphalt oneway=yes", "", "370", "37033"], ["27350964", "44564475", "23", "23", "1450", "0", "99", "0", "0", "reversedirection=yes highway=tertiary surface=asphalt", "highway=crossing", "373", "37343"], ["27351896", "44562911", "26", "189", "1450", "0", "0", "0", "0", "reversedirection=yes highway=tertiary surface=asphalt", "highway=crossing", "409", "40931"], ["27352102", "44562614", "27", "37", "1450", "0", "0", "0", "0", "reversedirection=yes highway=tertiary surface=asphalt", "estimated_crossing_class=5", "419", "41948"], ["27350782", "44562739", "24", "105", "3050", "0", "140", "0", "0", "reversedirection=yes highway=primary surface=asphalt oneway=no", "railway=level_crossing", "433", "43368"], ["27350307", "44562790", "25", "38", "3050", "0", "0", "0", "0", "reversedirection=yes highway=primary surface=asphalt oneway=no", "", "440", "44051"], ["27349730", "44562832", "24", "46", "3050", "0", "2", "0", "0", "highway=primary surface=asphalt oneway=yes", "highway=give_way direction=forward", "447", "44769"], ["27349583", "44562801", "24", "12", "3050", "0", "1", "0", "0", "highway=primary surface=asphalt oneway=yes", "", "449", "44944"], ["27349137", "44562630", "23", "61", "10050", "0", "0", "0", "0", "highway=trunk surface=asphalt foot=no smoothness=good junction=roundabout", "", "458", "45815"], ["27349005", "44562429", "22", "25", "1350", "0", "18", "0", "0", "highway=service surface=asphalt oneway=yes", "", "461", "46122"], ["27348918", "44562180", "21", "29", "1350", "0", "5", "0", "0", "highway=service surface=asphalt", "", "464", "46455"], ["27347883", "44562320", "21", "95", "1350", "0", "181", "0", "0", "reversedirection=yes highway=service", "", "475", "47587"]], "times": [0, 1.848, 10.402, 19.009, 36.378, 46.528, 65.926, 67.778, 69.415, 72.731, 73.728, 74.721, 91.198, 116.35, 131.177, 132.598, 135.007, 153.906, 159.009, 169.261, 171.702, 178.911, 180.584, 181.086, 183.761, 185.885, 187.118, 189.422, 192.359, 194.307, 198.769, 201.502, 208.357, 211.974, 227.896, 232.968, 236.786, 247.002, 248.559, 249.813, 251.073, 260.916, 277.854, 286.558, 288.319, 310.038, 311.462, 329.268, 333.717, 339.47, 366.996, 370.271, 371.602, 373.373, 375.494, 384.664, 393.478, 409.244, 419.407, 428.883, 433.606, 434.368, 440.443, 445.558, 446.618, 447.623, 449.369, 449.81, 450.697, 451.539, 452.389, 453.103, 454.112, 455.131, 456.16, 457.138, 458.074, 460.173, 461.143, 461.967, 463.001, 464.476, 465.962, 474.351, 475.79]}, "geometry": {"type": "LineString", "coordinates": [[27.375186, 44.563491, 21.25], [27.375054, 44.56348, 21.25], [27.374674, 44.563757, 22.0], [27.374256, 44.564044, 22.0], [27.373248, 44.564546, 22.0], [27.372722, 44.564791, 22.75], [27.371698, 44.564065, 22.25], [27.371605, 44.563996, 22.25], [27.371528, 44.564077, 21.75], [27.371338, 44.56429, 20.5], [27.371283, 44.564355, 20.5], [27.371201, 44.564348, 21.0], [27.370268, 44.564264, 23.0], [27.368982, 44.564151, 24.5], [27.367874, 44.564071, 23.75], [27.367757, 44.564065, 23.5], [27.367542, 44.564058, 23.0], [27.366338, 44.56403, 24.5], [27.365986, 44.564023, 24.5], [27.365175, 44.564009, 24.0], [27.36498, 44.564008, 24.0], [27.364338, 44.564006, 23.25], [27.364209, 44.564006, 23.75], [27.364172, 44.564007, 23.75], [27.36399, 44.564039, 24.0], [27.363843, 44.56405, 24.0], [27.36375, 44.564052, 24.0], [27.363606, 44.564121, 23.75], [27.363381, 44.564211, 23.25], [27.36323, 44.56426, 23.25], [27.362917, 44.564341, 23.75], [27.36274, 44.564377, 24.0], [27.362372, 44.56442, 25.0], [27.36221, 44.564431, 26.0], [27.361167, 44.564483, 28.0], [27.360981, 44.564502, 27.5], [27.360822, 44.564529, 27.25], [27.360095, 44.56474, 25.25], [27.359974, 44.564762, 25.0], [27.359869, 44.564774, 25.0], [27.359766, 44.564773, 25.0], [27.359215, 44.564768, 26.5], [27.358283, 44.564763, 30.25], [27.357526, 44.564758, 25.75], [27.35736, 44.564756, 25.25], [27.355483, 44.564736, 25.0], [27.355373, 44.564735, 25.0], [27.354216, 44.564722, 26.0], [27.353786, 44.564718, 24.5], [27.353131, 44.564709, 23.0], [27.351172, 44.564692, 24.75], [27.350877, 44.564671, 23.75], [27.350898, 44.564586, 23.5], [27.350964, 44.564475, 23.5], [27.35104, 44.56434, 23.25], [27.351294, 44.563868, 24.0], [27.351568, 44.563406, 23.75], [27.351896, 44.562911, 26.0], [27.352102, 44.562614, 27.0], [27.35121, 44.562695, 24.25], [27.350782, 44.562739, 24.0], [27.350715, 44.562748, 24.25], [27.350307, 44.56279, 25.0], [27.349906, 44.56284, 24.5], [27.349812, 44.56284, 24.25], [27.34973, 44.562832, 24.0], [27.349583, 44.562801, 24.0], [27.34956, 44.562821, 24.0], [27.349503, 44.562853, 24.0], [27.349435, 44.562873, 23.75], [27.349362, 44.562878, 23.75], [27.349301, 44.56287, 23.75], [27.349226, 44.562844, 23.75], [27.349167, 44.562802, 23.75], [27.34913, 44.562748, 23.75], [27.34912, 44.562688, 23.5], [27.349137, 44.56263, 23.25], [27.349045, 44.562492, 22.75], [27.349005, 44.562429, 22.5], [27.348958, 44.562374, 22.25], [27.348929, 44.562295, 22.0], [27.348918, 44.56218, 21.75], [27.348773, 44.562186, 22.0], [27.347873, 44.562222, 21.0], [27.347883, 44.56232, 21.0]]}}]}