{"type": "FeatureCollection", "features": [{"type": "Feature", "properties": {"creator": "BRouter-1.7.10", "name": "brouter_trekking_0", "track-length": "1647", "filtered ascend": "5", "plain-ascend": "-2", "total-time": "289", "total-energy": "28871", "cost": "2064", "messages": [["Longitude", "Latitude", "Elevation", "Distance", "CostPerKm", "ElevCost", "TurnCost", "NodeCost", "InitialCost", "WayTags", "NodeTags", "Time", "Energy"], ["27358225", "44569653", "19", "2", "5050", "0", "0", "0", "0", "highway=footway", "highway=crossing", "0", "33"], ["27358819", "44569262", "20", "64", "1150", "0", "13", "0", "0", "highway=residential surface=asphalt access=yes foot=yes bicycle=yes cycleway=no oneway=no", "", "13", "1354"], ["27361321", "44569878", "20", "210", "1050", "0", "47", "0", "0", "highway=tertiary surface=asphalt access=yes foot=yes bicycle=yes cycleway=no oneway=no", "highway=crossing", "57", "5778"], ["27371271", "44572196", "21", "831", "1050", "0", "3", "0", "0", "highway=tertiary surface=asphalt access=yes foot=yes bicycle=yes cycleway=no oneway=no", "", "204", "20501"], ["27371024", "44573357", "21", "130", "1550", "0", "77", "0", "0", "reversedirection=yes highway=residential surface=unpaved", "", "231", "23181"], ["27372571", "44573741", "19", "130", "1150", "0", "74", "0", "0", "highway=residential", "highway=crossing crossing=uncontrolled", "248", "24860"], ["27374148", "44574110", "18", "132", "1150", "0", "0", "0", "0", "highway=residential", "highway=crossing crossing=uncontrolled", "264", "26454"], ["27375575", "44574457", "18", "119", "1150", "0", "0", "0", "0", "highway=residential", "highway=crossing crossing=uncontrolled", "283", "28404"], ["27375919", "44574538", "16", "29", "1150", "0", "0", "0", "0", "highway=residential", "", "288", "28871"]], "times": [0, 0.336, 13.541, 45.98, 57.772, 58.807, 76.026, 86.552, 119.052, 123.464, 144.502, 158.393, 187.138, 203.465, 204.983, 205.925, 207.978, 226.781, 231.775, 247.323, 248.566, 264.496, 266.583, 276.115, 284, 287.028, 288.663]}, "geometry": {"type": "LineString", "coordinates": [[27.358216, 44.569674, 19.0], [27.358225, 44.569653, 19.0], [27.358819, 44.569262, 20.0], [27.36029, 44.569632, 22.25], [27.361321, 44.569878, 20.25], [27.361407, 44.569898, 20.25], [27.36222, 44.570093, 22.75], [27.362848, 44.570243, 22.5], [27.364355, 44.570589, 24.75], [27.364765, 44.570686, 22.75], [27.366404, 44.57107, 20.0], [27.367757, 44.571394, 18.0], [27.369983, 44.571916, 21.0], [27.371165, 44.572192, 21.0], [27.371271, 44.572196, 21.5], [27.371277, 44.572238, 21.5], [27.371267, 44.572339, 21.5], [27.371099, 44.573033, 23.0], [27.371024, 44.573357, 21.25], [27.372461, 44.573715, 20.0], [27.372571, 44.573741, 19.75], [27.374148, 44.57411, 18.0], [27.374354, 44.574162, 17.25], [27.375062, 44.574333, 18.25], [27.375575, 44.574457, 18.75], [27.375788, 44.574508, 18.5], [27.375919, 44.574538, 16.5]]}}]}