{"type": "FeatureCollection", "features": [{"type": "Feature", "properties": {"creator": "BRouter-1.7.10", "name": "brouter_trekking_0", "track-length": "1894", "filtered ascend": "4", "plain-ascend": "-5", "total-time": "314", "total-energy": "31415", "cost": "3591", "messages": [["Longitude", "Latitude", "Elevation", "Distance", "CostPerKm", "ElevCost", "TurnCost", "NodeCost", "InitialCost", "WayTags", "NodeTags", "Time", "Energy"], ["27370599", "44561480", "23", "70", "5050", "0", "83", "0", "0", "highway=footway", "", "9", "948"], ["27368560", "44561248", "24", "184", "1150", "0", "227", "0", "0", "reversedirection=yes highway=residential surface=asphalt oneway=no", "", "39", "3955"], ["27368370", "44561194", "24", "17", "1150", "0", "67", "0", "0", "reversedirection=yes highway=residential oneway=no", "", "42", "4274"], ["27366485", "44561168", "25", "150", "1150", "0", "0", "0", "0", "reversedirection=yes highway=residential surface=asphalt oneway=no", "", "73", "7352"], ["27366251", "44561413", "24", "33", "1150", "0", "70", "0", "0", "reversedirection=yes highway=residential surface=asphalt", "", "79", "7934"], ["27364049", "44561195", "24", "183", "1150", "0", "37", "0", "0", "highway=residential surface=asphalt oneway=yes", "", "111", "11154"], ["27364129", "44562004", "27", "90", "1150", "0", "90", "0", "0", "reversedirection=yes highway=residential surface=asphalt", "highway=crossing", "125", "12569"], ["27364130", "44562122", "28", "13", "1150", "0", "0", "0", "0", "reversedirection=yes highway=residential surface=asphalt", "estimated_crossing_class=5", "128", "12831"], ["27364128", "44562198", "28", "8", "1450", "0", "0", "0", "0", "highway=tertiary surface=asphalt oneway=no", "highway=crossing", "129", "13000"], ["27363897", "44563794", "23", "177", "1450", "0", "0", "0", "0", "highway=tertiary surface=asphalt oneway=no", "highway=crossing", "159", "15925"], ["27363887", "44563848", "24", "6", "1450", "0", "0", "0", "0", "highway=tertiary surface=asphalt oneway=no", "", "160", "16019"], ["27363606", "44564121", "23", "40", "1450", "0", "9", "0", "0", "highway=tertiary surface=asphalt oneway=yes", "highway=crossing", "166", "16643"], ["27361167", "44564483", "28", "200", "1450", "0", "0", "0", "0", "highway=tertiary surface=asphalt oneway=yes", "highway=crossing", "203", "20362"], ["27360981", "44564502", "27", "15", "1450", "0", "0", "0", "0", "highway=tertiary surface=asphalt oneway=yes", "", "208", "20865"], ["27360995", "44564727", "27", "25", "1450", "0", "81", "0", "0", "reversedirection=yes highway=tertiary surface=asphalt", "highway=crossing", "216", "21656"], ["27361090", "44565020", "26", "34", "1450", "0", "8", "0", "0", "highway=tertiary surface=asphalt oneway=yes", "highway=crossing", "224", "22468"], ["27361092", "44566062", "23", "116", "1450", "0", "0", "0", "0", "highway=tertiary surface=asphalt oneway=yes", "highway=crossing", "238", "23862"], ["27361092", "44566127", "23", "7", "1450", "0", "0", "0", "0", "highway=tertiary surface=asphalt oneway=yes", "", "239", "23960"], ["27360964", "44566130", "23", "10", "1150", "0", "87", "0", "0", "highway=residential surface=asphalt oneway=no", "", "240", "24094"], ["27360860", "44566163", "23", "9", "1150", "0", "6", "0", "0", "highway=residential surface=asphalt oneway=yes", "highway=crossing", "242", "24211"], ["27359949", "44566456", "24", "79", "1150", "0", "0", "0", "0", "highway=residential surface=asphalt oneway=yes", "", "254", "25416"], ["27359740", "44566460", "24", "17", "1150", "0", "7", "0", "0", "reversedirection=yes highway=residential surface=asphalt", "highway=crossing", "257", "25770"], ["27359669", "44566461", "25", "6", "1150", "0", "0", "0", "0", "reversedirection=yes highway=residential surface=asphalt", "", "258", "25901"], ["27358922", "44567988", "22", "180", "1050", "0", "58", "0", "0", "reversedirection=yes highway=tertiary surface=asphalt foot=yes bicycle=yes cycleway=no oneway=no", "highway=crossing crossing=uncontrolled", "288", "28825"], ["27358461", "44568964", "20", "115", "1050", "0", "0", "0", "0", "reversedirection=yes highway=tertiary surface=asphalt foot=yes bicycle=yes cycleway=no oneway=no", "", "300", "30093"], ["27358498", "44568995", "20", "5", "1050", "0", "44", "0", "0", "highway=tertiary surface=asphalt access=yes foot=yes bicycle=yes cycleway=no oneway=no", "highway=crossing", "301", "30154"], ["27358819", "44569262", "20", "39", "1050", "0", "0", "0", "0", "highway=tertiary surface=asphalt access=yes foot=yes bicycle=yes cycleway=no oneway=no", "", "306", "30636"], ["27358225", "44569653", "19", "64", "1150", "0", "87", "0", "0", "reversedirection=yes highway=residential surface=asphalt access=yes foot=yes bicycle=yes cycleway=no oneway=no", "highway=crossing", "313", "31389"], ["27358216", "44569674", "19", "2", "5050", "0", "13", "0", "0", "reversedirection=yes highway=footway", "", "314", "31415"]], "times": [0, 2.52, 9.485, 11.541, 12.239, 13.368, 15.172, 16.148, 17.047, 19.615, 20.981, 23.385, 29.527, 39.548, 40.303, 41.243, 42.735, 53.852, 54.882, 69.286, 73.518, 75.693, 77.491, 79.333, 80.275, 81.853, 84.052, 86.521, 89.146, 92.355, 96.139, 98.319, 102.884, 111.534, 112.773, 114.739, 116.604, 119.243, 125.679, 128.292, 129.982, 136.115, 143.99, 148.951, 151.578, 155.19, 159.228, 160.171, 161.433, 162.701, 164.294, 166.406, 169.15, 170.986, 175.218, 177.833, 184.446, 187.966, 203.598, 208.623, 216.528, 220.277, 222.426, 224.648, 238.585, 239.564, 240.905, 242.07, 246.863, 254.126, 257.664, 258.969, 275.57, 285.149, 288.211, 289.307, 289.756, 294.181, 300.889, 301.5, 306.316, 313.849, 314.107]}, "geometry": {"type": "LineString", "coordinates": [[27.370839, 44.560989, 24.5], [27.370645, 44.56099, 24.5], [27.370599, 44.56148, 23.0], [27.370581, 44.561345, 23.0], [27.370542, 44.561307, 23.0], [27.370455, 44.561277, 23.0], [27.370294, 44.561238, 22.5], [27.370224, 44.561201, 22.75], [27.370156, 44.561177, 23.0], [27.369973, 44.56117, 23.5], [27.369882, 44.561192, 23.5], [27.369711, 44.561246, 23.25], [27.369207, 44.561244, 23.0], [27.36856, 44.561248, 24.0], [27.368535, 44.561218, 24.0], [27.368471, 44.5612, 24.0], [27.36837, 44.561194, 24.0], [27.36768, 44.561176, 24.5], [27.367613, 44.561176, 24.75], [27.366773, 44.56117, 25.25], [27.366485, 44.561168, 25.0], [27.366436, 44.561273, 25.0], [27.366365, 44.56135, 25.0], [27.366251, 44.561413, 24.75], [27.366174, 44.56143, 24.5], [27.366047, 44.561447, 24.5], [27.365881, 44.561444, 24.75], [27.36573, 44.561434, 25.5], [27.365609, 44.561405, 26.5], [27.365486, 44.56135, 26.75], [27.365321, 44.56126, 26.5], [27.365225, 44.561192, 26.0], [27.364848, 44.561193, 25.0], [27.364049, 44.561195, 24.25], [27.36405, 44.561276, 24.0], [27.364062, 44.561402, 24.0], [27.364086, 44.561519, 24.0], [27.364116, 44.56168, 24.0], [27.364129, 44.562004, 27.75], [27.36413, 44.562122, 28.25], [27.364128, 44.562198, 28.5], [27.364118, 44.5624, 26.75], [27.364082, 44.562787, 25.5], [27.36404, 44.563082, 24.75], [27.363999, 44.563291, 23.25], [27.363953, 44.563541, 23.5], [27.363897, 44.563794, 23.75], [27.363887, 44.563848, 24.0], [27.363864, 44.563915, 24.0], [27.363827, 44.563979, 24.0], [27.36375, 44.564052, 24.0], [27.363606, 44.564121, 23.75], [27.363381, 44.564211, 23.25], [27.36323, 44.56426, 23.25], [27.362917, 44.564341, 23.75], [27.36274, 44.564377, 24.0], [27.362372, 44.56442, 25.0], [27.36221, 44.564431, 26.0], [27.361167, 44.564483, 28.0], [27.360981, 44.564502, 27.5], [27.360995, 44.564727, 27.75], [27.361066, 44.564847, 27.5], [27.36109, 44.564925, 27.25], [27.36109, 44.56502, 26.75], [27.361092, 44.566062, 23.75], [27.361092, 44.566127, 23.75], [27.360964, 44.56613, 23.5], [27.36086, 44.566163, 23.25], [27.360434, 44.5663, 23.0], [27.359949, 44.566456, 24.0], [27.35974, 44.56646, 24.75], [27.359669, 44.566461, 25.0], [27.359285, 44.567243, 24.5], [27.359035, 44.567759, 24.0], [27.358922, 44.567988, 22.25], [27.35888, 44.568073, 21.75], [27.358868, 44.568105, 21.75], [27.358714, 44.568446, 21.25], [27.358461, 44.568964, 20.25], [27.358498, 44.568995, 20.25], [27.358819, 44.569262, 20.0], [27.358225, 44.569653, 19.0], [27.358216, 44.569674, 19.0]]}}]}