{"type": "FeatureCollection", "features": [{"type": "Feature", "properties": {"creator": "BRouter-1.7.10", "name": "brouter_trekking_0", "track-length": "1575", "filtered ascend": "5", "plain-ascend": "1", "total-time": "281", "total-energy": "28117", "cost": "5082", "messages": [["Longitude", "Latitude", "Elevation", "Distance", "CostPerKm", "ElevCost", "TurnCost", "NodeCost", "InitialCost", "WayTags", "NodeTags", "Time", "Energy"], ["27384571", "44567749", "23", "14", "5050", "0", "28", "0", "0", "highway=footway", "estimated_crossing_class=4", "3", "393"], ["27384698", "44567870", "22", "17", "3050", "0", "96", "0", "0", "highway=primary surface=asphalt oneway=no", "", "7", "740"], ["27385030", "44568057", "22", "34", "3050", "0", "2", "0", "0", "highway=primary surface=asphalt oneway=yes", "highway=give_way direction=forward", "13", "1330"], ["27385139", "44568091", "22", "9", "3050", "0", "0", "0", "0", "highway=primary surface=asphalt oneway=yes", "", "14", "1485"], ["27385343", "44568024", "21", "18", "10050", "0", "0", "0", "0", "highway=trunk surface=asphalt foot=no smoothness=excellent oneway=yes junction=roundabout", "", "17", "1759"], ["27385519", "44567479", "22", "62", "10050", "0", "34", "0", "0", "highway=trunk surface=asphalt foot=no smoothness=good oneway=yes", "highway=crossing", "27", "2728"], ["27385488", "44567239", "23", "26", "10050", "0", "1", "0", "0", "highway=trunk surface=asphalt foot=no smoothness=good oneway=yes", "highway=give_way direction=forward", "33", "3327"], ["27385468", "44567130", "23", "12", "10050", "0", "0", "0", "0", "highway=trunk surface=asphalt foot=no smoothness=good oneway=yes", "", "36", "3633"], ["27385350", "44566989", "23", "20", "10050", "0", "0", "0", "0", "highway=trunk surface=asphalt smoothness=good oneway=yes junction=roundabout", "", "41", "4137"], ["27385013", "44566613", "24", "49", "3050", "0", "12", "0", "0", "highway=primary surface=asphalt smoothness=good oneway=yes", "", "53", "5352"], ["27383694", "44562356", "25", "508", "3050", "0", "4", "0", "0", "highway=primary surface=asphalt smoothness=good oneway=no", "estimated_crossing_class=4", "147", "14730"], ["27383485", "44562119", "26", "31", "3050", "0", "0", "0", "0", "highway=primary surface=asphalt smoothness=good oneway=no", "estimated_crossing_class=4", "156", "15619"], ["27383799", "44562085", "27", "25", "1650", "0", "126", "0", "0", "reversedirection=yes highway=secondary surface=asphalt smoothness=excellent oneway=no", "estimated_crossing_class=3", "163", "16372"], ["27384561", "44562004", "27", "61", "1650", "0", "0", "0", "0", "reversedirection=yes highway=secondary surface=asphalt smoothness=excellent oneway=no", "estimated_crossing_class=3", "180", "18048"], ["27385474", "44561910", "24", "73", "1650", "0", "0", "0", "0", "reversedirection=yes highway=secondary surface=asphalt smoothness=excellent oneway=no", "estimated_crossing_class=3", "188", "18868"], ["27386085", "44561804", "25", "50", "1650", "0", "0", "0", "0", "reversedirection=yes highway=secondary surface=asphalt smoothness=excellent oneway=no", "estimated_crossing_class=3", "197", "19720"], ["27387577", "44561443", "24", "126", "1650", "0", "0", "0", "0", "reversedirection=yes highway=secondary surface=asphalt smoothness=excellent oneway=no", "estimated_crossing_class=3", "216", "21629"], ["27388129", "44561087", "23", "59", "1650", "0", "5", "0", "0", "reversedirection=yes highway=secondary surface=asphalt smoothness=excellent oneway=no", "estimated_crossing_class=3", "224", "22454"], ["27389797", "44560007", "22", "179", "1650", "0", "0", "0", "0", "reversedirection=yes highway=secondary surface=asphalt smoothness=excellent oneway=no", "estimated_crossing_class=3", "247", "24768"], ["27389939", "44559910", "22", "16", "1650", "0", "0", "0", "0", "reversedirection=yes highway=secondary surface=asphalt smoothness=excellent oneway=no", "estimated_crossing_class=3", "250", "25013"], ["27391336", "44559042", "22", "147", "1650", "0", "0", "0", "0", "reversedirection=yes highway=secondary surface=asphalt smoothness=excellent oneway=no", "estimated_crossing_class=3", "273", "27332"], ["27391640", "44558901", "22", "29", "1650", "0", "1", "0", "0", "reversedirection=yes highway=secondary surface=asphalt smoothness=excellent oneway=no", "estimated_crossing_class=3", "279", "27919"], ["27391617", "44558814", "23", "10", "1350", "0", "58", "0", "0", "highway=service", "", "281", "28117"]], "times": [0.238, 3.93, 7.399, 10.531, 12.09, 13.3, 14.852, 16.305, 17.595, 20.223, 21.658, 23.515, 27.281, 27.839, 33.27, 36.325, 37.312, 38.352, 39.374, 40.38, 41.371, 47.146, 53.511, 61.101, 70.051, 72.122, 74.077, 75.662, 77.87, 83.631, 95.957, 102.191, 107.578, 110.607, 114.308, 115.87, 119.515, 123.082, 126.283, 147.286, 156.173, 163.693, 180.453, 188.653, 197.168, 212.562, 216.26, 224.508, 247.65, 250.1, 266.173, 273.287, 274.658, 279.153, 281.137]}, "geometry": {"type": "LineString", "coordinates": [[27.38444, 44.567831, 22.75], [27.384571, 44.567749, 23.25], [27.384698, 44.56787, 22.5], [27.384869, 44.567979, 22.0], [27.384956, 44.568028, 22.0], [27.38503, 44.568057, 22.0], [27.385139, 44.568091, 22.0], [27.385236, 44.568048, 21.75], [27.385343, 44.568024, 21.25], [27.385437, 44.567853, 20.75], [27.385468, 44.567767, 21.0], [27.385501, 44.567659, 21.25], [27.385519, 44.567479, 22.0], [27.385522, 44.567448, 22.0], [27.385488, 44.567239, 23.0], [27.385468, 44.56713, 23.5], [27.385428, 44.567111, 23.5], [27.385394, 44.567086, 23.75], [27.385369, 44.567057, 23.75], [27.385354, 44.567024, 23.75], [27.38535, 44.566989, 23.75], [27.385181, 44.566817, 24.0], [27.385013, 44.566613, 24.25], [27.384712, 44.566314, 26.5], [27.384504, 44.566073, 25.5], [27.384469, 44.565996, 25.0], [27.384445, 44.565904, 24.5], [27.384445, 44.565812, 23.75], [27.384458, 44.565696, 23.5], [27.384508, 44.565392, 23.25], [27.384637, 44.564741, 23.0], [27.384693, 44.56441, 22.75], [27.384724, 44.564125, 22.5], [27.384726, 44.563965, 22.25], [27.384703, 44.563767, 22.25], [27.384675, 44.563654, 22.25], [27.384563, 44.563394, 22.25], [27.384434, 44.563177, 22.5], [27.384305, 44.563022, 23.0], [27.383694, 44.562356, 25.0], [27.383485, 44.562119, 26.5], [27.383799, 44.562085, 27.25], [27.384561, 44.562004, 27.75], [27.385474, 44.56191, 24.0], [27.386085, 44.561804, 25.25], [27.387268, 44.561535, 24.75], [27.387577, 44.561443, 24.0], [27.388129, 44.561087, 23.75], [27.389797, 44.560007, 22.0], [27.389939, 44.55991, 22.0], [27.390964, 44.559257, 21.5], [27.391336, 44.559042, 22.25], [27.391405, 44.559002, 22.5], [27.39164, 44.558901, 22.75], [27.391617, 44.558814, 23.75]]}}]}