{"type": "FeatureCollection", "features": [{"type": "Feature", "properties": {"creator": "BRouter-1.7.10", "name": "brouter_trekking_0", "track-length": "1854", "filtered ascend": "5", "plain-ascend": "-3", "total-time": "318", "total-energy": "31790", "cost": "2910", "messages": [["Longitude", "Latitude", "Elevation", "Distance", "CostPerKm", "ElevCost", "TurnCost", "NodeCost", "InitialCost", "WayTags", "NodeTags", "Time", "Energy"], ["27354878", "44558202", "27", "158", "1150", "0", "0", "0", "0", "reversedirection=yes highway=residential", "", "31", "3165"], ["27355058", "44558240", "27", "15", "1150", "0", "94", "0", "0", "highway=residential oneway=yes", "", "34", "3496"], ["27354627", "44559299", "26", "123", "1150", "0", "86", "0", "0", "highway=residential surface=asphalt oneway=yes", "", "64", "6458"], ["27354971", "44562201", "25", "326", "1150", "0", "11", "0", "0", "reversedirection=yes highway=residential surface=asphalt", "highway=crossing", "126", "12684"], ["27354998", "44562336", "25", "15", "1150", "0", "0", "0", "0", "reversedirection=yes highway=residential surface=asphalt", "estimated_crossing_class=5", "128", "12886"], ["27355016", "44562420", "25", "9", "1150", "0", "0", "0", "0", "highway=residential surface=asphalt oneway=yes", "highway=crossing crossing=zebra", "130", "13017"], ["27355374", "44564644", "24", "249", "1150", "0", "0", "0", "0", "highway=residential surface=asphalt oneway=yes", "", "165", "16508"], ["27355483", "44564645", "24", "9", "1450", "0", "91", "0", "0", "highway=tertiary surface=asphalt oneway=yes", "highway=crossing crossing=uncontrolled", "166", "16672"], ["27357365", "44564651", "25", "149", "1450", "0", "0", "0", "0", "highway=tertiary surface=asphalt oneway=yes", "highway=crossing", "195", "19584"], ["27357525", "44564651", "26", "13", "1450", "0", "0", "0", "0", "highway=tertiary surface=asphalt oneway=yes", "", "198", "19865"], ["27357529", "44564831", "25", "20", "1150", "0", "89", "0", "0", "highway=residential surface=asphalt oneway=yes", "highway=crossing", "202", "20235"], ["27357488", "44565632", "23", "90", "1150", "0", "1", "0", "0", "highway=residential surface=asphalt oneway=yes", "", "213", "21381"], ["27357468", "44565722", "22", "10", "1150", "0", "0", "0", "0", "highway=residential surface=asphalt oneway=no", "highway=crossing crossing=uncontrolled", "214", "21502"], ["27357001", "44567244", "22", "173", "1150", "0", "0", "0", "0", "highway=residential surface=asphalt oneway=no", "", "238", "23860"], ["27359131", "44567243", "25", "170", "1150", "0", "108", "0", "0", "highway=residential surface=asphalt", "highway=crossing crossing=uncontrolled", "276", "27635"], ["27359285", "44567243", "24", "12", "1150", "0", "0", "0", "0", "highway=residential surface=asphalt", "", "278", "27862"], ["27358922", "44567988", "22", "88", "1050", "0", "119", "0", "0", "reversedirection=yes highway=tertiary surface=asphalt foot=yes bicycle=yes cycleway=no oneway=no", "highway=crossing crossing=uncontrolled", "291", "29181"], ["27358461", "44568964", "20", "115", "1050", "0", "0", "0", "0", "reversedirection=yes highway=tertiary surface=asphalt foot=yes bicycle=yes cycleway=no oneway=no", "", "304", "30463"], ["27358498", "44568995", "20", "5", "1050", "0", "44", "0", "0", "highway=tertiary surface=asphalt access=yes foot=yes bicycle=yes cycleway=no oneway=no", "highway=crossing", "305", "30524"], ["27358819", "44569262", "20", "39", "1050", "0", "0", "0", "0", "highway=tertiary surface=asphalt access=yes foot=yes bicycle=yes cycleway=no oneway=no", "", "310", "31009"], ["27358225", "44569653", "19", "64", "1150", "0", "87", "0", "0", "reversedirection=yes highway=residential surface=asphalt access=yes foot=yes bicycle=yes cycleway=no oneway=no", "highway=crossing", "317", "31764"], ["27358216", "44569674", "19", "2", "5050", "0", "13", "0", "0", "reversedirection=yes highway=footway", "", "317", "31790"]], "times": [0, 20.433, 31.647, 34.956, 40.204, 64.571, 65.831, 73.964, 77.672, 79.962, 89.097, 96.287, 100.715, 113.724, 118.393, 120.691, 123.575, 126.827, 128.84, 130.15, 144.88, 159.131, 161.383, 165.06, 166.694, 193.898, 195.816, 198.621, 200.973, 202.325, 209.587, 213.779, 214.984, 218.095, 223.672, 238.567, 257.708, 261.399, 266.986, 276.314, 278.582, 288.633, 291.765, 292.88, 293.336, 297.822, 304.584, 305.2, 310.042, 317.597, 317.856]}, "geometry": {"type": "LineString", "coordinates": [[27.35554, 44.556862, 22.5], [27.355068, 44.557811, 26.0], [27.354878, 44.558202, 27.5], [27.355058, 44.55824, 27.5], [27.354983, 44.558458, 27.5], [27.354627, 44.559299, 26.0], [27.354614, 44.55935, 26.0], [27.354693, 44.559729, 25.75], [27.354733, 44.5599, 26.0], [27.35476, 44.560009, 26.0], [27.354838, 44.560354, 27.0], [27.354891, 44.560622, 27.5], [27.354919, 44.560798, 27.5], [27.354978, 44.561345, 27.75], [27.355007, 44.561589, 27.25], [27.355009, 44.561732, 26.5], [27.354938, 44.561957, 25.0], [27.354971, 44.562201, 25.0], [27.354998, 44.562336, 25.25], [27.355016, 44.56242, 25.5], [27.355226, 44.563373, 24.75], [27.355371, 44.564318, 23.75], [27.35538, 44.564461, 23.5], [27.355374, 44.564644, 24.5], [27.355483, 44.564645, 24.5], [27.357238, 44.564649, 25.25], [27.357365, 44.564651, 25.5], [27.357525, 44.564651, 26.0], [27.357526, 44.564758, 25.75], [27.357529, 44.564831, 25.25], [27.35754, 44.56534, 23.75], [27.357488, 44.565632, 23.25], [27.357468, 44.565722, 22.75], [27.357395, 44.565969, 22.0], [27.357239, 44.566428, 21.0], [27.357001, 44.567244, 22.25], [27.358108, 44.567248, 23.75], [27.358345, 44.567242, 23.75], [27.35863, 44.567243, 24.75], [27.359131, 44.567243, 25.0], [27.359285, 44.567243, 24.5], [27.359035, 44.567759, 24.0], [27.358922, 44.567988, 22.25], [27.35888, 44.568073, 21.75], [27.358868, 44.568105, 21.75], [27.358714, 44.568446, 21.25], [27.358461, 44.568964, 20.25], [27.358498, 44.568995, 20.25], [27.358819, 44.569262, 20.0], [27.358225, 44.569653, 19.0], [27.358216, 44.569674, 19.0]]}}]}