{"type": "FeatureCollection", "features": [{"type": "Feature", "properties": {"creator": "BRouter-1.7.10", "name": "brouter_trekking_0", "track-length": "404", "filtered ascend": "6", "plain-ascend": "5", "total-time": "89", "total-energy": "8913", "cost": "1049", "messages": [["Longitude", "Latitude", "Elevation", "Distance", "CostPerKm", "ElevCost", "TurnCost", "NodeCost", "InitialCost", "WayTags", "NodeTags", "Time", "Energy"], ["27364352", "44558955", "21", "85", "1150", "0", "0", "0", "0", "reversedirection=yes highway=residential surface=asphalt", "highway=crossing", "14", "1428"], ["27362884", "44558594", "21", "123", "1150", "0", "0", "0", "0", "reversedirection=yes highway=residential surface=asphalt", "highway=crossing", "35", "3522"], ["27362097", "44558403", "24", "66", "1150", "0", "0", "0", "0", "reversedirection=yes highway=residential surface=asphalt", "highway=crossing", "55", "5587"], ["27361945", "44558363", "25", "13", "1150", "0", "0", "0", "0", "reversedirection=yes highway=residential surface=asphalt", "", "58", "5816"], ["27361587", "44558927", "25", "69", "1450", "0", "83", "0", "0", "reversedirection=yes highway=tertiary surface=asphalt", "", "77", "7788"], ["27361518", "44558659", "26", "48", "5050", "0", "292", "0", "0", "reversedirection=yes highway=footway", "", "89", "8913"]], "times": [0, 12.6, 14.28, 20.664, 32.929, 35.225, 45.851, 55.864, 58.156, 77.874, 85.228, 89.122]}, "geometry": {"type": "LineString", "coordinates": [[27.365368, 44.559196, 21.0], [27.364477, 44.558983, 21.0], [27.364352, 44.558955, 21.0], [27.363894, 44.558843, 21.0], [27.36303, 44.558622, 21.0], [27.362884, 44.558594, 21.5], [27.362458, 44.558495, 23.5], [27.362097, 44.558403, 24.75], [27.361945, 44.558363, 25.75], [27.361587, 44.558927, 25.25], [27.361373, 44.558639, 27.75], [27.361518, 44.558659, 26.0]]}}]}