{"type": "FeatureCollection", "features": [{"type": "Feature", "properties": {"creator": "BRouter-1.7.10", "name": "brouter_trekking_0", "track-length": "914", "filtered ascend": "1", "plain-ascend": "-3", "total-time": "152", "total-energy": "15232", "cost": "1394", "messages": [["Longitude", "Latitude", "Elevation", "Distance", "CostPerKm", "ElevCost", "TurnCost", "NodeCost", "InitialCost", "WayTags", "NodeTags", "Time", "Energy"], ["27360931", "44563248", "26", "66", "1150", "0", "0", "0", "0", "reversedirection=yes highway=residential surface=asphalt oneway=no", "", "15", "1503"], ["27360893", "44562252", "25", "110", "1450", "0", "91", "0", "0", "highway=tertiary surface=asphalt", "highway=crossing crossing=zebra", "31", "3196"], ["27360890", "44562148", "26", "12", "1450", "0", "0", "0", "0", "highway=tertiary surface=asphalt", "estimated_crossing_class=5", "34", "3436"], ["27360887", "44562026", "27", "14", "1450", "0", "0", "0", "0", "highway=tertiary surface=asphalt", "highway=crossing crossing=uncontrolled", "37", "3769"], ["27360917", "44560179", "24", "206", "1450", "0", "0", "0", "0", "highway=tertiary surface=asphalt", "highway=crossing crossing=uncontrolled", "70", "7064"], ["27361945", "44558363", "25", "219", "1450", "0", "0", "0", "0", "highway=tertiary surface=asphalt", "", "108", "10870"], ["27362097", "44558403", "24", "13", "1150", "0", "83", "0", "0", "highway=residential surface=asphalt", "highway=crossing", "110", "11062"], ["27362884", "44558594", "21", "66", "1150", "0", "0", "0", "0", "highway=residential surface=asphalt", "highway=crossing", "119", "11989"], ["27364352", "44558955", "21", "123", "1150", "0", "0", "0", "0", "highway=residential surface=asphalt", "highway=crossing", "138", "13855"], ["27365368", "44559196", "21", "85", "1150", "0", "0", "0", "0", "highway=residential surface=asphalt", "", "152", "15232"]], "times": [0, 0.18, 15.035, 17.423, 24.871, 26.083, 30.318, 31.955, 34.35, 37.68, 57.599, 61.727, 63.807, 70.625, 72.616, 75.371, 76.864, 84.45, 94.596, 108.674, 110.6, 114.156, 119.862, 121.571, 132.533, 138.52, 140.117, 152.297]}, "geometry": {"type": "LineString", "coordinates": [[27.36011, 44.563263, 25.25], [27.360115, 44.563264, 25.5], [27.360931, 44.563248, 26.75], [27.360924, 44.563112, 25.75], [27.360912, 44.562653, 25.25], [27.360907, 44.56258, 25.25], [27.360899, 44.562345, 25.5], [27.360893, 44.562252, 25.5], [27.36089, 44.562148, 26.25], [27.360887, 44.562026, 27.0], [27.360845, 44.561073, 26.5], [27.36084, 44.560756, 24.5], [27.36085, 44.560598, 24.0], [27.360917, 44.560179, 24.75], [27.360954, 44.560056, 24.5], [27.361022, 44.559877, 24.0], [27.361067, 44.55978, 24.0], [27.361332, 44.559345, 24.0], [27.361587, 44.558927, 25.25], [27.361945, 44.558363, 25.75], [27.362097, 44.558403, 24.75], [27.362458, 44.558495, 23.5], [27.362884, 44.558594, 21.5], [27.36303, 44.558622, 21.0], [27.363894, 44.558843, 21.0], [27.364352, 44.558955, 21.0], [27.364477, 44.558983, 21.0], [27.365368, 44.559196, 21.0]]}}]}