{"type": "FeatureCollection", "features": [{"type": "Feature", "properties": {"creator": "BRouter-1.7.10", "name": "brouter_trekking_0", "track-length": "1123", "filtered ascend": "2", "plain-ascend": "0", "total-time": "196", "total-energy": "19568", "cost": "2694", "messages": [["Longitude", "Latitude", "Elevation", "Distance", "CostPerKm", "ElevCost", "TurnCost", "NodeCost", "InitialCost", "WayTags", "NodeTags", "Time", "Energy"], ["27351583", "44562398", "26", "2", "5050", "0", "0", "0", "0", "highway=footway", "", "0", "33"], ["27351513", "44562533", "26", "16", "5050", "0", "72", "0", "0", "reversedirection=yes highway=footway", "", "3", "302"], ["27352889", "44562400", "25", "110", "5050", "0", "132", "0", "0", "highway=footway", "", "20", "2008"], ["27352832", "44561974", "25", "48", "1150", "0", "86", "0", "0", "highway=residential surface=asphalt oneway=yes", "", "26", "2678"], ["27354938", "44561957", "25", "186", "1350", "0", "270", "0", "0", "highway=service surface=asphalt", "", "64", "6488"], ["27354971", "44562201", "25", "27", "1150", "0", "90", "0", "0", "reversedirection=yes highway=residential surface=asphalt", "highway=crossing", "68", "6830"], ["27354998", "44562336", "25", "15", "1150", "0", "0", "0", "0", "reversedirection=yes highway=residential surface=asphalt", "estimated_crossing_class=5", "70", "7040"], ["27355016", "44562420", "25", "9", "1150", "0", "0", "0", "0", "highway=residential surface=asphalt oneway=yes", "highway=crossing crossing=zebra", "71", "7176"], ["27355226", "44563373", "24", "107", "1150", "0", "0", "0", "0", "highway=residential surface=asphalt oneway=yes", "", "86", "8683"], ["27359906", "44563260", "24", "373", "1150", "0", "79", "0", "0", "highway=residential oneway=yes", "", "148", "14891"], ["27360931", "44563248", "26", "82", "1150", "0", "0", "0", "0", "reversedirection=yes highway=residential surface=asphalt oneway=no", "", "169", "16941"], ["27360893", "44562252", "25", "110", "1450", "0", "91", "0", "0", "highway=tertiary surface=asphalt", "highway=crossing crossing=zebra", "187", "18719"], ["27360890", "44562148", "26", "12", "1450", "0", "0", "0", "0", "highway=tertiary surface=asphalt", "estimated_crossing_class=5", "189", "18965"], ["27360887", "44562026", "27", "14", "1450", "0", "0", "0", "0", "highway=tertiary surface=asphalt", "highway=crossing crossing=uncontrolled", "193", "19306"], ["27360882", "44561922", "26", "12", "1450", "0", "0", "0", "0", "highway=tertiary surface=asphalt", "", "195", "19568"]], "times": [0, 0.336, 3.024, 20.082, 26.78, 35.05, 54.485, 59.619, 61.937, 64.876, 68.286, 70.388, 71.752, 86.818, 104.135, 107.496, 120.876, 132.144, 132.871, 139.102, 148.882, 152.583, 169.376, 171.958, 179.82, 181.081, 185.469, 187.156, 189.618, 193.03, 195.646]}, "geometry": {"type": "LineString", "coordinates": [[27.351611, 44.562401, 26.25], [27.351583, 44.562398, 26.25], [27.351513, 44.562533, 26.25], [27.352889, 44.5624, 25.75], [27.352832, 44.561974, 25.0], [27.353246, 44.561937, 27.25], [27.354135, 44.561858, 28.5], [27.354605, 44.561812, 26.25], [27.354628, 44.561979, 25.5], [27.354938, 44.561957, 25.0], [27.354971, 44.562201, 25.0], [27.354998, 44.562336, 25.25], [27.355016, 44.56242, 25.5], [27.355226, 44.563373, 24.75], [27.35695, 44.563325, 23.0], [27.357186, 44.563319, 23.75], [27.357923, 44.563299, 25.0], [27.358677, 44.563274, 24.75], [27.358725, 44.563273, 24.75], [27.359242, 44.563266, 24.0], [27.359906, 44.56326, 24.75], [27.360115, 44.563264, 25.5], [27.360931, 44.563248, 26.75], [27.360924, 44.563112, 25.75], [27.360912, 44.562653, 25.25], [27.360907, 44.56258, 25.25], [27.360899, 44.562345, 25.5], [27.360893, 44.562252, 25.5], [27.36089, 44.562148, 26.25], [27.360887, 44.562026, 27.0], [27.360882, 44.561922, 26.5]]}}]}