{"type": "FeatureCollection", "features": [{"type": "Feature", "properties": {"creator": "BRouter-1.7.10", "name": "brouter_trekking_0", "track-length": "2167", "filtered ascend": "4", "plain-ascend": "-7", "total-time": "349", "total-energy": "34883", "cost": "3815", "messages": [["Longitude", "Latitude", "Elevation", "Distance", "CostPerKm", "ElevCost", "TurnCost", "NodeCost", "InitialCost", "WayTags", "NodeTags", "Time", "Energy"], ["27363916", "44562005", "26", "75", "5050", "0", "90", "0", "0", "highway=footway", "", "16", "1625"], ["27364129", "44562004", "27", "17", "5050", "0", "0", "0", "0", "reversedirection=yes highway=footway", "highway=crossing", "19", "1919"], ["27364130", "44562122", "28", "13", "1150", "0", "90", "0", "0", "reversedirection=yes highway=residential surface=asphalt", "estimated_crossing_class=5", "21", "2174"], ["27364128", "44562198", "28", "8", "1450", "0", "0", "0", "0", "highway=tertiary surface=asphalt oneway=no", "highway=crossing", "23", "2340"], ["27364040", "44563082", "24", "98", "1450", "0", "0", "0", "0", "highway=tertiary surface=asphalt oneway=no", "", "42", "4212"], ["27365190", "44563182", "22", "92", "1150", "0", "90", "0", "0", "highway=residential surface=asphalt oneway=yes", "", "53", "5313"], ["27365177", "44563955", "24", "86", "1150", "0", "80", "0", "0", "reversedirection=yes highway=residential surface=asphalt oneway=no", "highway=crossing crossing=uncontrolled", "69", "6958"], ["27365175", "44564009", "24", "6", "1150", "0", "0", "0", "0", "reversedirection=yes highway=residential surface=asphalt oneway=no", "", "70", "7054"], ["27364980", "44564008", "24", "15", "1050", "0", "88", "0", "0", "highway=tertiary surface=asphalt foot=yes bicycle=yes oneway=yes", "", "72", "7294"], ["27366390", "44565479", "21", "219", "1150", "0", "114", "0", "0", "reversedirection=yes highway=residential surface=asphalt access=yes foot=yes bicycle=yes cycleway=no", "", "105", "10588"], ["27368897", "44566998", "21", "268", "1150", "0", "1", "0", "0", "highway=residential surface=asphalt", "highway=crossing", "146", "14636"], ["27368974", "44567026", "21", "7", "1150", "0", "0", "0", "0", "highway=residential surface=asphalt", "", "147", "14737"], ["27369042", "44567050", "21", "6", "1150", "0", "0", "0", "0", "reversedirection=yes highway=residential surface=asphalt", "highway=crossing", "148", "14824"], ["27373080", "44569271", "21", "406", "1150", "0", "2", "0", "0", "reversedirection=yes highway=residential surface=asphalt", "", "216", "21629"], ["27371917", "44570971", "22", "211", "1450", "0", "73", "0", "0", "reversedirection=yes highway=tertiary surface=asphalt", "highway=crossing crossing=uncontrolled", "253", "25401"], ["27371880", "44571048", "22", "9", "1450", "0", "0", "0", "0", "reversedirection=yes highway=tertiary surface=asphalt", "", "255", "25555"], ["27376552", "44572817", "15", "423", "1150", "0", "64", "0", "0", "highway=residential", "", "316", "31694"], ["27375788", "44574508", "18", "197", "1150", "0", "84", "0", "0", "reversedirection=yes highway=residential surface=asphalt", "", "347", "34724"], ["27375919", "44574538", "16", "11", "1150", "0", "90", "0", "0", "highway=residential", "", "348", "34883"]], "times": [0, 1.848, 4.368, 10.16, 16.256, 19.196, 21.746, 23.4, 29.426, 37.196, 42.116, 43.988, 53.123, 69.577, 70.534, 72.937, 83.346, 84.223, 84.749, 91.925, 97.215, 99.704, 101.751, 105.87, 108.085, 111.089, 114.296, 125.327, 127.497, 129.828, 131.709, 133.393, 146.35, 147.359, 148.233, 164.394, 169.82, 179.856, 216.276, 236.922, 240.394, 244.271, 253.992, 255.54, 277.172, 279.563, 282.554, 288.718, 294.165, 306.556, 316.922, 326.182, 347.214, 348.806]}, "geometry": {"type": "LineString", "coordinates": [[27.363097, 44.561909, 24.0], [27.3631, 44.562007, 24.0], [27.363294, 44.562004, 24.0], [27.363639, 44.562005, 25.0], [27.363916, 44.562005, 26.25], [27.364129, 44.562004, 27.75], [27.36413, 44.562122, 28.25], [27.364128, 44.562198, 28.5], [27.364118, 44.5624, 26.75], [27.364082, 44.562787, 25.5], [27.36404, 44.563082, 24.75], [27.3642, 44.563093, 24.5], [27.36519, 44.563182, 22.75], [27.365177, 44.563955, 24.5], [27.365175, 44.564009, 24.0], [27.36498, 44.564008, 24.0], [27.364979, 44.564588, 24.0], [27.364994, 44.564628, 24.25], [27.365024, 44.56465, 24.25], [27.365473, 44.564799, 24.5], [27.365846, 44.564965, 23.75], [27.366012, 44.565069, 23.25], [27.366151, 44.565173, 22.75], [27.36639, 44.565479, 21.25], [27.366506, 44.565632, 21.25], [27.366655, 44.565797, 21.75], [27.366795, 44.565933, 22.5], [27.367264, 44.566344, 23.0], [27.367369, 44.566427, 23.0], [27.367494, 44.566509, 23.0], [27.367616, 44.566569, 22.5], [27.367754, 44.566622, 22.0], [27.368897, 44.566998, 21.0], [27.368974, 44.567026, 21.0], [27.369042, 44.56705, 21.0], [27.370192, 44.56751, 21.0], [27.370478, 44.567689, 21.5], [27.371106, 44.568081, 20.75], [27.37308, 44.569271, 21.5], [27.37239, 44.570155, 22.0], [27.372272, 44.57032, 21.75], [27.372159, 44.570502, 22.0], [27.371917, 44.570971, 22.0], [27.37188, 44.571048, 22.0], [27.373376, 44.57181, 21.0], [27.373538, 44.571887, 21.0], [27.373777, 44.57199, 20.25], [27.374312, 44.572175, 19.75], [27.374795, 44.572318, 19.25], [27.375584, 44.572547, 20.5], [27.376552, 44.572817, 15.5], [27.376309, 44.573367, 15.5], [27.375788, 44.574508, 18.5], [27.375919, 44.574538, 16.5]]}}]}