{"type": "FeatureCollection", "features": [{"type": "Feature", "properties": {"creator": "BRouter-1.7.10", "name": "brouter_trekking_0", "track-length": "2332", "filtered ascend": "0", "plain-ascend": "-11", "total-time": "367", "total-energy": "36723", "cost": "3148", "messages": [["Longitude", "Latitude", "Elevation", "Distance", "CostPerKm", "ElevCost", "TurnCost", "NodeCost", "InitialCost", "WayTags", "NodeTags", "Time", "Energy"], ["27357526", "44564758", "25", "41", "1450", "0", "0", "0", "0", "highway=tertiary surface=asphalt oneway=yes", "", "4", "407"], ["27357529", "44564831", "25", "8", "1150", "0", "93", "0", "0", "highway=residential surface=asphalt oneway=yes", "highway=crossing", "4", "487"], ["27357488", "44565632", "23", "90", "1150", "0", "1", "0", "0", "highway=residential surface=asphalt oneway=yes", "", "17", "1757"], ["27357468", "44565722", "22", "10", "1150", "0", "0", "0", "0", "highway=residential surface=asphalt oneway=no", "highway=crossing crossing=uncontrolled", "18", "1885"], ["27357001", "44567244", "22", "173", "1150", "0", "0", "0", "0", "highway=residential surface=asphalt oneway=no", "", "43", "4300"], ["27359131", "44567243", "25", "170", "1150", "0", "108", "0", "0", "highway=residential surface=asphalt", "highway=crossing crossing=uncontrolled", "69", "6924"], ["27359285", "44567243", "24", "12", "1150", "0", "0", "0", "0", "highway=residential surface=asphalt", "", "71", "7121"], ["27358922", "44567988", "22", "88", "1050", "0", "119", "0", "0", "reversedirection=yes highway=tertiary surface=asphalt foot=yes bicycle=yes cycleway=no oneway=no", "highway=crossing crossing=uncontrolled", "83", "8337"], ["27358461", "44568964", "20", "115", "1050", "0", "0", "0", "0", "reversedirection=yes highway=tertiary surface=asphalt foot=yes bicycle=yes cycleway=no oneway=no", "", "95", "9591"], ["27358498", "44568995", "20", "5", "1050", "0", "44", "0", "0", "highway=tertiary surface=asphalt access=yes foot=yes bicycle=yes cycleway=no oneway=no", "highway=crossing", "96", "9652"], ["27361321", "44569878", "20", "249", "1050", "0", "12", "0", "0", "highway=tertiary surface=asphalt access=yes foot=yes bicycle=yes cycleway=no oneway=no", "highway=crossing", "137", "13750"], ["27371271", "44572196", "21", "831", "1050", "0", "3", "0", "0", "highway=tertiary surface=asphalt access=yes foot=yes bicycle=yes cycleway=no oneway=no", "", "283", "28354"], ["27371024", "44573357", "21", "130", "1550", "0", "77", "0", "0", "reversedirection=yes highway=residential surface=unpaved", "", "310", "31034"], ["27372571", "44573741", "19", "130", "1150", "0", "74", "0", "0", "highway=residential", "highway=crossing crossing=uncontrolled", "327", "32713"], ["27374148", "44574110", "18", "132", "1150", "0", "0", "0", "0", "highway=residential", "highway=crossing crossing=uncontrolled", "343", "34306"], ["27375575", "44574457", "18", "119", "1150", "0", "0", "0", "0", "highway=residential", "highway=crossing crossing=uncontrolled", "362", "36257"], ["27375919", "44574538", "16", "29", "1150", "0", "0", "0", "0", "highway=residential", "", "367", "36723"]], "times": [0, 4.07, 4.873, 13.056, 17.572, 18.846, 22.088, 27.815, 43.002, 54.429, 57.169, 61.5, 69.236, 71.209, 80.365, 83.364, 84.441, 84.883, 89.252, 95.908, 96.515, 101.307, 126.487, 137.484, 138.472, 155.081, 165.398, 197.628, 202.027, 223.033, 236.919, 265.661, 281.988, 283.506, 284.447, 286.5, 305.303, 310.297, 325.846, 327.088, 343.019, 345.105, 354.637, 362.522, 365.55, 367.185]}, "geometry": {"type": "LineString", "coordinates": [[27.358047, 44.564761, 28.75], [27.357526, 44.564758, 25.75], [27.357529, 44.564831, 25.25], [27.35754, 44.56534, 23.75], [27.357488, 44.565632, 23.25], [27.357468, 44.565722, 22.75], [27.357395, 44.565969, 22.0], [27.357239, 44.566428, 21.0], [27.357001, 44.567244, 22.25], [27.358108, 44.567248, 23.75], [27.358345, 44.567242, 23.75], [27.35863, 44.567243, 24.75], [27.359131, 44.567243, 25.0], [27.359285, 44.567243, 24.5], [27.359035, 44.567759, 24.0], [27.358922, 44.567988, 22.25], [27.35888, 44.568073, 21.75], [27.358868, 44.568105, 21.75], [27.358714, 44.568446, 21.25], [27.358461, 44.568964, 20.25], [27.358498, 44.568995, 20.25], [27.358819, 44.569262, 20.0], [27.36029, 44.569632, 22.25], [27.361321, 44.569878, 20.25], [27.361407, 44.569898, 20.25], [27.36222, 44.570093, 22.75], [27.362848, 44.570243, 22.5], [27.364355, 44.570589, 24.75], [27.364765, 44.570686, 22.75], [27.366404, 44.57107, 20.0], [27.367757, 44.571394, 18.0], [27.369983, 44.571916, 21.0], [27.371165, 44.572192, 21.0], [27.371271, 44.572196, 21.5], [27.371277, 44.572238, 21.5], [27.371267, 44.572339, 21.5], [27.371099, 44.573033, 23.0], [27.371024, 44.573357, 21.25], [27.372461, 44.573715, 20.0], [27.372571, 44.573741, 19.75], [27.374148, 44.57411, 18.0], [27.374354, 44.574162, 17.25], [27.375062, 44.574333, 18.25], [27.375575, 44.574457, 18.75], [27.375788, 44.574508, 18.5], [27.375919, 44.574538, 16.5]]}}]}