{"type": "FeatureCollection", "features": [{"type": "Feature", "properties": {"creator": "BRouter-1.7.10", "name": "brouter_trekking_0", "track-length": "356", "filtered ascend": "1", "plain-ascend": "1", "total-time": "64", "total-energy": "6385", "cost": "2002", "messages": [["Longitude", "Latitude", "Elevation", "Distance", "CostPerKm", "ElevCost", "TurnCost", "NodeCost", "InitialCost", "WayTags", "NodeTags", "Time", "Energy"], ["27354971", "44562201", "25", "61", "5050", "0", "0", "0", "0", "reversedirection=yes highway=footway", "highway=crossing", "9", "976"], ["27351513", "44562533", "26", "277", "5050", "0", "0", "0", "0", "reversedirection=yes highway=footway", "", "60", "6067"], ["27351583", "44562398", "26", "16", "5050", "0", "132", "0", "0", "highway=footway", "", "63", "6350"], ["27351611", "44562401", "26", "2", "5050", "0", "72", "0", "0", "reversedirection=yes highway=footway", "", "63", "6385"]], "times": [0, 0.336, 7.502, 9.762, 11.709, 39.084, 40.13, 60.669, 63.504, 63.857]}, "geometry": {"type": "LineString", "coordinates": [[27.355727, 44.562143, 25.25], [27.355708, 44.562144, 25.25], [27.355141, 44.562188, 25.0], [27.354971, 44.562201, 25.0], [27.354827, 44.562216, 25.0], [27.352966, 44.562393, 25.75], [27.352889, 44.5624, 25.75], [27.351513, 44.562533, 26.25], [27.351583, 44.562398, 26.25], [27.351611, 44.562401, 26.5]]}}]}