{"type": "FeatureCollection", "features": [{"type": "Feature", "properties": {"creator": "BRouter-1.7.10", "name": "brouter_trekking_0", "track-length": "358", "filtered ascend": "4", "plain-ascend": "2", "total-time": "76", "total-energy": "7573", "cost": "697", "messages": [["Longitude", "Latitude", "Elevation", "Distance", "CostPerKm", "ElevCost", "TurnCost", "NodeCost", "InitialCost", "WayTags", "NodeTags", "Time", "Energy"], ["27364209", "44564006", "23", "5", "1050", "0", "0", "0", "0", "highway=tertiary surface=asphalt foot=yes bicycle=yes oneway=yes", "highway=crossing", "0", "89"], ["27363843", "44564050", "24", "30", "1050", "0", "3", "0", "0", "highway=tertiary surface=asphalt foot=yes bicycle=yes oneway=yes", "highway=crossing", "6", "653"], ["27363750", "44564052", "24", "7", "1050", "0", "0", "0", "0", "highway=tertiary surface=asphalt foot=yes bicycle=yes oneway=yes", "", "7", "782"], ["27363606", "44564121", "23", "14", "1450", "0", "13", "0", "0", "highway=tertiary surface=asphalt oneway=yes", "highway=crossing", "10", "1023"], ["27361167", "44564483", "28", "200", "1450", "0", "0", "0", "0", "highway=tertiary surface=asphalt oneway=yes", "highway=crossing", "49", "4936"], ["27360981", "44564502", "27", "15", "1450", "0", "0", "0", "0", "highway=tertiary surface=asphalt oneway=yes", "", "54", "5446"], ["27360995", "44564727", "27", "25", "1450", "0", "81", "0", "0", "reversedirection=yes highway=tertiary surface=asphalt", "highway=crossing", "62", "6246"], ["27361090", "44564925", "27", "23", "1450", "0", "6", "0", "0", "highway=tertiary surface=asphalt oneway=yes", "", "68", "6842"], ["27360604", "44564922", "25", "39", "1150", "0", "104", "0", "0", "reversedirection=yes highway=residential", "", "75", "7573"]], "times": [0, 0.898, 1.435, 4.285, 6.53, 7.826, 10.234, 13.274, 15.28, 19.861, 22.654, 29.631, 33.296, 49.362, 54.456, 62.454, 66.242, 68.411, 71.237, 75.725]}, "geometry": {"type": "LineString", "coordinates": [[27.364273, 44.564006, 23.5], [27.364209, 44.564006, 23.75], [27.364172, 44.564007, 23.75], [27.36399, 44.564039, 24.0], [27.363843, 44.56405, 24.0], [27.36375, 44.564052, 24.0], [27.363606, 44.564121, 23.75], [27.363381, 44.564211, 23.25], [27.36323, 44.56426, 23.25], [27.362917, 44.564341, 23.75], [27.36274, 44.564377, 24.0], [27.362372, 44.56442, 25.0], [27.36221, 44.564431, 26.0], [27.361167, 44.564483, 28.0], [27.360981, 44.564502, 27.5], [27.360995, 44.564727, 27.75], [27.361066, 44.564847, 27.5], [27.36109, 44.564925, 27.25], [27.36093, 44.564932, 27.0], [27.360604, 44.564922, 25.5]]}}]}