{"type": "FeatureCollection", "features": [{"type": "Feature", "properties": {"creator": "BRouter-1.7.10", "name": "brouter_trekking_0", "track-length": "2941", "filtered ascend": "5", "plain-ascend": "-3", "total-time": "504", "total-energy": "50465", "cost": "4571", "messages": [["Longitude", "Latitude", "Elevation", "Distance", "CostPerKm", "ElevCost", "TurnCost", "NodeCost", "InitialCost", "WayTags", "NodeTags", "Time", "Energy"], ["27384571", "44567749", "23", "14", "5050", "0", "28", "0", "0", "highway=footway", "estimated_crossing_class=4", "3", "393"], ["27384372", "44567555", "25", "27", "3050", "0", "82", "0", "0", "reversedirection=yes highway=primary surface=asphalt oneway=no", "highway=crossing estimated_crossing_class=4", "8", "875"], ["27384220", "44567400", "25", "21", "3050", "0", "0", "0", "0", "reversedirection=yes highway=primary surface=asphalt oneway=no", "estimated_crossing_class=4", "13", "1323"], ["27383498", "44566664", "25", "100", "3050", "0", "0", "0", "0", "reversedirection=yes highway=primary surface=asphalt oneway=no", "highway=crossing estimated_crossing_class=4", "30", "3009"], ["27382104", "44565186", "24", "198", "3050", "0", "0", "0", "0", "reversedirection=yes highway=primary surface=asphalt oneway=no", "estimated_crossing_class=4", "72", "7255"], ["27381962", "44565258", "24", "14", "1150", "0", "89", "0", "0", "highway=residential surface=asphalt oneway=yes", "highway=crossing crossing=uncontrolled", "75", "7563"], ["27380897", "44565847", "26", "107", "1150", "0", "0", "0", "0", "highway=residential surface=asphalt oneway=yes", "highway=crossing crossing=uncontrolled", "103", "10387"], ["27380771", "44565919", "26", "13", "1150", "0", "0", "0", "0", "highway=residential surface=asphalt oneway=yes", "", "106", "10664"], ["27380694", "44565970", "26", "8", "1150", "0", "0", "0", "0", "highway=residential", "highway=crossing crossing=uncontrolled", "108", "10819"], ["27379777", "44566570", "23", "99", "1150", "0", "0", "0", "0", "highway=residential", "", "120", "12048"], ["27376877", "44564860", "23", "299", "1150", "0", "77", "0", "0", "reversedirection=yes highway=residential", "", "166", "16647"], ["27374726", "44567222", "21", "315", "1150", "0", "77", "0", "0", "reversedirection=yes highway=residential surface=asphalt", "highway=crossing crossing=uncontrolled", "212", "21203"], ["27373376", "44568913", "22", "216", "1150", "0", "0", "0", "0", "reversedirection=yes highway=residential surface=asphalt", "", "250", "25053"], ["27371917", "44570971", "22", "257", "1450", "0", "0", "0", "0", "reversedirection=yes highway=tertiary surface=asphalt", "highway=crossing crossing=uncontrolled", "295", "29579"], ["27371271", "44572196", "21", "146", "1450", "0", "5", "0", "0", "reversedirection=yes highway=tertiary surface=asphalt", "", "319", "31915"], ["27361321", "44569878", "20", "831", "1050", "0", "31", "0", "0", "reversedirection=yes highway=tertiary surface=asphalt access=yes foot=yes bicycle=yes cycleway=no oneway=no", "highway=crossing", "463", "46334"], ["27358819", "44569262", "20", "210", "1050", "0", "0", "0", "0", "reversedirection=yes highway=tertiary surface=asphalt access=yes foot=yes bicycle=yes cycleway=no oneway=no", "", "496", "49624"], ["27358225", "44569653", "19", "64", "1150", "0", "47", "0", "0", "reversedirection=yes highway=residential surface=asphalt access=yes foot=yes bicycle=yes cycleway=no oneway=no", "highway=crossing", "504", "50438"], ["27358216", "44569674", "19", "2", "5050", "0", "13", "0", "0", "reversedirection=yes highway=footway", "", "504", "50465"]], "times": [0.238, 3.93, 8.758, 13.237, 30.092, 61.091, 72.546, 75.621, 103.853, 106.622, 108.176, 112.53, 115.985, 120.467, 130.729, 141.568, 146.32, 166.452, 173.88, 176.064, 179.947, 198.771, 205.145, 212.007, 214.433, 231.142, 250.5, 258.26, 278.734, 282.191, 286.056, 295.756, 297.301, 300.039, 316.859, 317.827, 319.12, 320.267, 335.343, 365.771, 381.954, 415.189, 425.647, 445.607, 454.776, 462.405, 463.286, 480.23, 496.187, 504.313, 504.586]}, "geometry": {"type": "LineString", "coordinates": [[27.38444, 44.567831, 22.75], [27.384571, 44.567749, 23.25], [27.384372, 44.567555, 25.0], [27.38422, 44.5674, 25.75], [27.383498, 44.566664, 25.0], [27.38252, 44.565597, 23.75], [27.382104, 44.565186, 24.25], [27.381962, 44.565258, 24.75], [27.380897, 44.565847, 26.5], [27.380771, 44.565919, 26.5], [27.380694, 44.56597, 26.25], [27.380425, 44.566146, 25.25], [27.380149, 44.566327, 23.75], [27.379777, 44.56657, 23.0], [27.378915, 44.56606, 22.0], [27.378204, 44.565634, 22.25], [27.377928, 44.565457, 22.5], [27.376877, 44.56486, 23.25], [27.376386, 44.565195, 22.0], [27.376265, 44.5653, 22.0], [27.37609, 44.565498, 22.0], [27.375246, 44.566564, 21.0], [27.374989, 44.566888, 21.0], [27.374726, 44.567222, 21.0], [27.374631, 44.567335, 21.0], [27.37393, 44.568193, 20.5], [27.373376, 44.568913, 22.0], [27.37308, 44.569271, 21.5], [27.37239, 44.570155, 22.0], [27.372272, 44.57032, 21.75], [27.372159, 44.570502, 22.0], [27.371917, 44.570971, 22.0], [27.37188, 44.571048, 22.0], [27.37182, 44.571172, 22.25], [27.371383, 44.572096, 21.5], [27.371347, 44.572144, 21.5], [27.371271, 44.572196, 21.5], [27.371165, 44.572192, 21.0], [27.369983, 44.571916, 21.0], [27.367757, 44.571394, 18.0], [27.366404, 44.57107, 20.0], [27.364765, 44.570686, 22.75], [27.364355, 44.570589, 24.75], [27.362848, 44.570243, 22.5], [27.36222, 44.570093, 22.75], [27.361407, 44.569898, 20.25], [27.361321, 44.569878, 20.25], [27.36029, 44.569632, 22.25], [27.358819, 44.569262, 20.0], [27.358225, 44.569653, 19.0], [27.358216, 44.569674, 19.0]]}}]}