{"type": "FeatureCollection", "features": [{"type": "Feature", "properties": {"creator": "BRouter-1.7.10", "name": "brouter_trekking_0", "track-length": "817", "filtered ascend": "3", "plain-ascend": "-3", "total-time": "145", "total-energy": "14507", "cost": "1794", "messages": [["Longitude", "Latitude", "Elevation", "Distance", "CostPerKm", "ElevCost", "TurnCost", "NodeCost", "InitialCost", "WayTags", "NodeTags", "Time", "Energy"], ["27354971", "44562201", "25", "61", "5050", "0", "0", "0", "0", "reversedirection=yes highway=footway", "highway=crossing", "9", "976"], ["27354627", "44559299", "26", "326", "1150", "0", "102", "0", "0", "highway=residential surface=asphalt", "", "72", "7204"], ["27353770", "44558887", "28", "107", "1350", "0", "279", "0", "0", "highway=service", "", "97", "9720"], ["27354262", "44557637", "24", "144", "1150", "0", "99", "0", "0", "highway=residential surface=asphalt", "", "115", "11537"], ["27355068", "44557811", "26", "67", "1150", "0", "28", "0", "0", "reversedirection=yes highway=residential surface=asphalt", "", "127", "12723"], ["27355540", "44556862", "21", "112", "1150", "0", "87", "0", "0", "highway=residential", "", "145", "14507"]], "times": [0, 0.336, 7.502, 9.762, 14.154, 20.309, 24.603, 32.072, 45.574, 49.598, 54.741, 60.123, 61.851, 64.495, 71.096, 72.036, 76.665, 82.514, 97.189, 107.27, 109.752, 115.1, 115.35, 115.748, 127.212, 145.053]}, "geometry": {"type": "LineString", "coordinates": [[27.355727, 44.562143, 25.25], [27.355708, 44.562144, 25.25], [27.355141, 44.562188, 25.0], [27.354971, 44.562201, 25.0], [27.354938, 44.561957, 25.0], [27.355009, 44.561732, 26.5], [27.355007, 44.561589, 27.25], [27.354978, 44.561345, 27.75], [27.354919, 44.560798, 27.5], [27.354891, 44.560622, 27.5], [27.354838, 44.560354, 27.0], [27.35476, 44.560009, 26.0], [27.354733, 44.5599, 26.0], [27.354693, 44.559729, 25.75], [27.354614, 44.55935, 26.0], [27.354627, 44.559299, 26.0], [27.354315, 44.559241, 26.5], [27.354431, 44.559021, 27.5], [27.35377, 44.558887, 28.75], [27.354002, 44.558257, 26.5], [27.354084, 44.558053, 24.5], [27.35424, 44.557653, 24.5], [27.354262, 44.557637, 24.5], [27.354305, 44.557634, 24.75], [27.355068, 44.557811, 26.0], [27.35554, 44.556862, 21.0]]}}]}