{"type": "FeatureCollection", "features": [{"type": "Feature", "properties": {"creator": "BRouter-1.7.10", "name": "brouter_trekking_0", "track-length": "538", "filtered ascend": "0", "plain-ascend": "0", "total-time": "90", "total-energy": "8985", "cost": "1313", "messages": [["Longitude", "Latitude", "Elevation", "Distance", "CostPerKm", "ElevCost", "TurnCost", "NodeCost", "InitialCost", "WayTags", "NodeTags", "Time", "Energy"], ["27354971", "44562201", "25", "61", "5050", "0", "0", "0", "0", "reversedirection=yes highway=footway", "highway=crossing", "9", "976"], ["27354998", "44562336", "25", "15", "1150", "0", "93", "0", "0", "reversedirection=yes highway=residential surface=asphalt", "estimated_crossing_class=5", "12", "1235"], ["27355016", "44562420", "25", "9", "1150", "0", "0", "0", "0", "highway=residential surface=asphalt oneway=yes", "highway=crossing crossing=zebra", "14", "1401"], ["27355373", "44564735", "25", "259", "1150", "0", "0", "0", "0", "highway=residential surface=asphalt oneway=yes", "", "53", "5380"], ["27353786", "44564718", "24", "126", "1450", "0", "90", "0", "0", "highway=tertiary surface=asphalt oneway=yes", "highway=crossing crossing=uncontrolled", "80", "8003"], ["27353782", "44564631", "24", "10", "5050", "0", "86", "0", "0", "highway=footway", "highway=crossing crossing=uncontrolled", "81", "8141"], ["27354506", "44564636", "24", "58", "1450", "0", "94", "0", "0", "highway=tertiary surface=asphalt oneway=yes", "", "89", "8985"]], "times": [0, 0.336, 7.502, 9.762, 12.354, 14.01, 30.762, 45.622, 47.925, 51.682, 53.796, 75.21, 80.022, 81.402, 89.835]}, "geometry": {"type": "LineString", "coordinates": [[27.355727, 44.562143, 25.25], [27.355708, 44.562144, 25.25], [27.355141, 44.562188, 25.0], [27.354971, 44.562201, 25.0], [27.354998, 44.562336, 25.25], [27.355016, 44.56242, 25.5], [27.355226, 44.563373, 24.75], [27.355371, 44.564318, 23.75], [27.35538, 44.564461, 23.5], [27.355374, 44.564644, 24.5], [27.355373, 44.564735, 25.0], [27.354216, 44.564722, 26.0], [27.353786, 44.564718, 24.5], [27.353782, 44.564631, 24.25], [27.354506, 44.564636, 24.5]]}}]}