{"type": "FeatureCollection", "features": [{"type": "Feature", "properties": {"creator": "BRouter-1.7.10", "name": "brouter_trekking_0", "track-length": "433", "filtered ascend": "3", "plain-ascend": "1", "total-time": "85", "total-energy": "8539", "cost": "1584", "messages": [["Longitude", "Latitude", "Elevation", "Distance", "CostPerKm", "ElevCost", "TurnCost", "NodeCost", "InitialCost", "WayTags", "NodeTags", "Time", "Energy"], ["27384571", "44567749", "23", "14", "5050", "0", "28", "0", "0", "highway=footway", "estimated_crossing_class=4", "3", "393"], ["27384372", "44567555", "25", "27", "3050", "0", "82", "0", "0", "reversedirection=yes highway=primary surface=asphalt oneway=no", "highway=crossing estimated_crossing_class=4", "8", "875"], ["27384220", "44567400", "25", "21", "3050", "0", "0", "0", "0", "reversedirection=yes highway=primary surface=asphalt oneway=no", "estimated_crossing_class=4", "13", "1323"], ["27383498", "44566664", "25", "100", "3050", "0", "0", "0", "0", "reversedirection=yes highway=primary surface=asphalt oneway=no", "highway=crossing estimated_crossing_class=4", "30", "3009"], ["27382104", "44565186", "24", "198", "3050", "0", "0", "0", "0", "reversedirection=yes highway=primary surface=asphalt oneway=no", "estimated_crossing_class=4", "72", "7255"], ["27381898", "44565011", "24", "25", "3050", "0", "0", "0", "0", "reversedirection=yes highway=primary surface=asphalt smoothness=excellent oneway=no", "estimated_crossing_class=4", "77", "7704"], ["27381778", "44564920", "23", "14", "3050", "0", "0", "0", "0", "reversedirection=yes highway=primary surface=asphalt smoothness=excellent oneway=no", "estimated_crossing_class=4", "79", "7938"], ["27381570", "44564772", "24", "23", "3050", "0", "0", "0", "0", "reversedirection=yes highway=primary surface=asphalt smoothness=excellent oneway=no", "highway=crossing estimated_crossing_class=4", "83", "8345"], ["27381486", "44564845", "24", "11", "5050", "0", "98", "0", "0", "reversedirection=yes highway=footway", "", "85", "8539"]], "times": [0.238, 3.93, 8.758, 13.237, 30.092, 61.091, 72.546, 77.039, 79.371, 83.449, 85.383]}, "geometry": {"type": "LineString", "coordinates": [[27.38444, 44.567831, 22.75], [27.384571, 44.567749, 23.25], [27.384372, 44.567555, 25.0], [27.38422, 44.5674, 25.75], [27.383498, 44.566664, 25.0], [27.38252, 44.565597, 23.75], [27.382104, 44.565186, 24.25], [27.381898, 44.565011, 24.0], [27.381778, 44.56492, 23.75], [27.38157, 44.564772, 24.0], [27.381486, 44.564845, 24.0]]}}]}