{"type": "FeatureCollection", "features": [{"type": "Feature", "properties": {"creator": "BRouter-1.7.10", "name": "brouter_trekking_0", "track-length": "1063", "filtered ascend": "1", "plain-ascend": "-4", "total-time": "173", "total-energy": "17321", "cost": "1616", "messages": [["Longitude", "Latitude", "Elevation", "Distance", "CostPerKm", "ElevCost", "TurnCost", "NodeCost", "InitialCost", "WayTags", "NodeTags", "Time", "Energy"], ["27360930", "44564932", "27", "26", "1150", "0", "0", "0", "0", "highway=residential", "", "5", "524"], ["27360995", "44564727", "27", "24", "1450", "0", "82", "0", "0", "highway=tertiary surface=asphalt oneway=yes", "highway=crossing", "10", "1072"], ["27360974", "44564329", "27", "45", "1450", "0", "5", "0", "0", "highway=tertiary surface=asphalt", "highway=crossing", "19", "1980"], ["27360893", "44562252", "25", "230", "1450", "0", "0", "0", "0", "highway=tertiary surface=asphalt", "highway=crossing crossing=zebra", "54", "5420"], ["27360890", "44562148", "26", "12", "1450", "0", "0", "0", "0", "highway=tertiary surface=asphalt", "estimated_crossing_class=5", "56", "5642"], ["27360887", "44562026", "27", "14", "1450", "0", "0", "0", "0", "highway=tertiary surface=asphalt", "highway=crossing crossing=uncontrolled", "59", "5954"], ["27360917", "44560179", "24", "206", "1450", "0", "0", "0", "0", "highway=tertiary surface=asphalt", "highway=crossing crossing=uncontrolled", "91", "9163"], ["27361945", "44558363", "25", "219", "1450", "0", "0", "0", "0", "highway=tertiary surface=asphalt", "", "129", "12959"], ["27362097", "44558403", "24", "13", "1150", "0", "83", "0", "0", "highway=residential surface=asphalt", "highway=crossing", "131", "13152"], ["27362884", "44558594", "21", "66", "1150", "0", "0", "0", "0", "highway=residential surface=asphalt", "highway=crossing", "140", "14077"], ["27364352", "44558955", "21", "123", "1150", "0", "0", "0", "0", "highway=residential surface=asphalt", "highway=crossing", "159", "15943"], ["27365368", "44559196", "21", "85", "1150", "0", "0", "0", "0", "highway=residential surface=asphalt", "", "173", "17321"]], "times": [0, 5.247, 7.485, 10.723, 15.856, 17.843, 19.798, 39.249, 41.218, 47.736, 48.828, 52.69, 54.205, 56.426, 59.545, 78.73, 82.807, 84.867, 91.627, 93.606, 96.347, 97.833, 105.394, 115.517, 129.577, 131.502, 135.056, 140.76, 142.468, 153.428, 159.414, 161.011, 173.19]}, "geometry": {"type": "LineString", "coordinates": [[27.360604, 44.564922, 26.25], [27.36093, 44.564932, 27.0], [27.360946, 44.564846, 27.5], [27.360995, 44.564727, 27.75], [27.360981, 44.564502, 27.5], [27.360975, 44.564415, 27.5], [27.360974, 44.564329, 27.5], [27.360931, 44.563248, 26.75], [27.360924, 44.563112, 25.75], [27.360912, 44.562653, 25.25], [27.360907, 44.56258, 25.25], [27.360899, 44.562345, 25.5], [27.360893, 44.562252, 25.5], [27.36089, 44.562148, 26.25], [27.360887, 44.562026, 27.0], [27.360845, 44.561073, 26.5], [27.36084, 44.560756, 24.5], [27.36085, 44.560598, 24.0], [27.360917, 44.560179, 24.75], [27.360954, 44.560056, 24.5], [27.361022, 44.559877, 24.0], [27.361067, 44.55978, 24.0], [27.361332, 44.559345, 24.0], [27.361587, 44.558927, 25.25], [27.361945, 44.558363, 25.75], [27.362097, 44.558403, 24.75], [27.362458, 44.558495, 23.5], [27.362884, 44.558594, 21.5], [27.36303, 44.558622, 21.0], [27.363894, 44.558843, 21.0], [27.364352, 44.558955, 21.0], [27.364477, 44.558983, 21.0], [27.365368, 44.559196, 21.0]]}}]}