{"type": "FeatureCollection", "features": [{"type": "Feature", "properties": {"creator": "BRouter-1.7.10", "name": "brouter_trekking_0", "track-length": "1955", "filtered ascend": "3", "plain-ascend": "-3", "total-time": "328", "total-energy": "32854", "cost": "3563", "messages": [["Longitude", "Latitude", "Elevation", "Distance", "CostPerKm", "ElevCost", "TurnCost", "NodeCost", "InitialCost", "WayTags", "NodeTags", "Time", "Energy"], ["27370599", "44561480", "23", "70", "5050", "0", "83", "0", "0", "highway=footway", "", "9", "948"], ["27369207", "44561244", "23", "133", "1150", "0", "227", "0", "0", "reversedirection=yes highway=residential surface=asphalt oneway=no", "", "29", "2953"], ["27368883", "44560542", "23", "100", "1350", "0", "129", "0", "0", "reversedirection=yes highway=service", "", "45", "4551"], ["27368486", "44560547", "23", "32", "1150", "0", "0", "0", "0", "reversedirection=yes highway=residential", "", "51", "5109"], ["27368381", "44560550", "23", "8", "1150", "0", "0", "0", "0", "highway=residential", "", "52", "5268"], ["27364219", "44560216", "22", "335", "1150", "0", "5", "0", "0", "highway=residential oneway=yes", "", "111", "11199"], ["27364020", "44560210", "21", "16", "1150", "0", "9", "0", "0", "reversedirection=yes highway=residential", "", "113", "11383"], ["27361092", "44560079", "24", "236", "1150", "0", "8", "0", "0", "highway=residential surface=asphalt", "highway=crossing crossing=uncontrolled", "160", "16072"], ["27360954", "44560056", "24", "11", "1150", "0", "1", "0", "0", "highway=residential surface=asphalt", "", "162", "16261"], ["27360917", "44560179", "24", "14", "1450", "0", "91", "0", "0", "reversedirection=yes highway=tertiary surface=asphalt", "highway=crossing crossing=uncontrolled", "165", "16517"], ["27360845", "44561073", "26", "100", "1450", "0", "0", "0", "0", "reversedirection=yes highway=tertiary surface=asphalt", "", "185", "18529"], ["27359132", "44561114", "25", "136", "1150", "0", "88", "0", "0", "highway=residential surface=asphalt oneway=no", "", "211", "21144"], ["27359097", "44560339", "25", "87", "1150", "0", "90", "0", "0", "highway=residential surface=asphalt", "highway=crossing crossing=uncontrolled", "226", "22605"], ["27355068", "44557811", "26", "565", "1150", "0", "164", "0", "0", "highway=residential surface=asphalt", "", "311", "31107"], ["27355540", "44556862", "21", "112", "1150", "0", "92", "0", "0", "highway=residential", "", "328", "32854"]], "times": [0, 2.52, 9.485, 11.541, 12.239, 13.368, 15.172, 16.148, 17.047, 19.615, 20.981, 23.385, 29.527, 41.002, 41.915, 42.894, 45.513, 51.092, 52.675, 65.425, 67.736, 77.366, 83.273, 86.831, 95.899, 104.59, 106.529, 111.985, 113.826, 117.421, 121.095, 122.939, 136.031, 142.782, 147.003, 152.282, 156.609, 160.709, 162.598, 165.156, 172.32, 175.506, 185.275, 202.306, 204.976, 211.417, 216.862, 226.024, 251.542, 260.078, 261.498, 262.687, 264.256, 287.024, 291.051, 311.033, 328.499]}, "geometry": {"type": "LineString", "coordinates": [[27.370839, 44.560989, 24.5], [27.370645, 44.56099, 24.5], [27.370599, 44.56148, 23.0], [27.370581, 44.561345, 23.0], [27.370542, 44.561307, 23.0], [27.370455, 44.561277, 23.0], [27.370294, 44.561238, 22.5], [27.370224, 44.561201, 22.75], [27.370156, 44.561177, 23.0], [27.369973, 44.56117, 23.5], [27.369882, 44.561192, 23.5], [27.369711, 44.561246, 23.25], [27.369207, 44.561244, 23.0], [27.369203, 44.5606, 23.0], [27.369161, 44.560553, 22.75], [27.369085, 44.560536, 23.0], [27.368883, 44.560542, 23.0], [27.368486, 44.560547, 23.25], [27.368381, 44.56055, 23.75], [27.367739, 44.560519, 25.0], [27.367621, 44.560511, 25.5], [27.366973, 44.560467, 24.5], [27.366503, 44.560454, 24.0], [27.366222, 44.560443, 24.0], [27.365455, 44.560425, 23.5], [27.364824, 44.560419, 24.0], [27.364677, 44.56039, 23.75], [27.364219, 44.560216, 22.75], [27.36402, 44.56021, 21.75], [27.363712, 44.560205, 19.75], [27.363366, 44.560169, 19.0], [27.363224, 44.560148, 19.5], [27.362389, 44.560018, 23.5], [27.362029, 44.560001, 24.5], [27.361832, 44.560044, 25.25], [27.361598, 44.560072, 25.75], [27.36137, 44.560088, 25.5], [27.361092, 44.560079, 24.75], [27.360954, 44.560056, 24.5], [27.360917, 44.560179, 24.75], [27.36085, 44.560598, 24.0], [27.36084, 44.560756, 24.5], [27.360845, 44.561073, 26.5], [27.3599, 44.561097, 26.5], [27.359698, 44.561102, 25.75], [27.359132, 44.561114, 25.0], [27.359117, 44.560776, 24.75], [27.359097, 44.560339, 25.75], [27.359029, 44.5588, 24.5], [27.359017, 44.558277, 24.0], [27.358897, 44.558234, 23.25], [27.358832, 44.558164, 23.25], [27.358822, 44.558065, 23.5], [27.356804, 44.558137, 22.75], [27.356461, 44.558143, 22.5], [27.355068, 44.557811, 26.0], [27.35554, 44.556862, 21.0]]}}]}