{"type": "FeatureCollection", "features": [{"type": "Feature", "properties": {"creator": "BRouter-1.7.10", "name": "brouter_trekking_0", "track-length": "834", "filtered ascend": "4", "plain-ascend": "0", "total-time": "147", "total-energy": "14730", "cost": "2374", "messages": [["Longitude", "Latitude", "Elevation", "Distance", "CostPerKm", "ElevCost", "TurnCost", "NodeCost", "InitialCost", "WayTags", "NodeTags", "Time", "Energy"], ["27351513", "44562533", "26", "12", "5050", "0", "0", "0", "0", "reversedirection=yes highway=footway", "", "2", "201"], ["27352889", "44562400", "25", "110", "5050", "0", "132", "0", "0", "highway=footway", "", "19", "1907"], ["27352917", "44562532", "26", "15", "5150", "0", "88", "0", "0", "reversedirection=yes highway=residential surface=asphalt oneway=yes", "estimated_crossing_class=5", "21", "2164"], ["27352869", "44562537", "26", "4", "3050", "0", "90", "0", "0", "reversedirection=yes highway=primary surface=asphalt smoothness=excellent oneway=no", "estimated_crossing_class=5", "22", "2233"], ["27353114", "44564294", "23", "216", "1150", "0", "120", "0", "0", "highway=residential surface=asphalt oneway=yes", "", "51", "5176"], ["27353128", "44564622", "23", "36", "1150", "0", "0", "0", "0", "highway=residential surface=asphalt", "", "56", "5663"], ["27353782", "44564631", "24", "52", "1450", "0", "85", "0", "0", "highway=tertiary surface=asphalt oneway=yes", "highway=crossing crossing=uncontrolled", "66", "6643"], ["27355483", "44564645", "24", "136", "1450", "0", "0", "0", "0", "highway=tertiary surface=asphalt oneway=yes", "highway=crossing crossing=uncontrolled", "91", "9131"], ["27357365", "44564651", "25", "149", "1450", "0", "0", "0", "0", "highway=tertiary surface=asphalt oneway=yes", "highway=crossing", "119", "11991"], ["27358286", "44564654", "30", "73", "1450", "0", "0", "0", "0", "highway=tertiary surface=asphalt oneway=yes", "highway=crossing", "138", "13879"], ["27358283", "44564763", "30", "12", "5050", "0", "91", "0", "0", "reversedirection=yes highway=footway", "highway=crossing", "141", "14145"], ["27358047", "44564761", "25", "19", "1450", "0", "89", "0", "0", "highway=tertiary surface=asphalt oneway=yes", "", "147", "14730"]], "times": [0, 2.016, 19.074, 21.648, 22.333, 23.701, 27.805, 29.179, 29.705, 35.938, 36.558, 37.18, 37.62, 42.062, 44.437, 51.756, 56.626, 66.427, 89.732, 91.309, 118, 119.902, 122.686, 123.809, 138.783, 141.444, 147.293]}, "geometry": {"type": "LineString", "coordinates": [[27.351565, 44.562432, 26.25], [27.351513, 44.562533, 26.25], [27.352889, 44.5624, 25.75], [27.352917, 44.562532, 26.0], [27.352869, 44.562537, 26.0], [27.352874, 44.562605, 26.0], [27.352855, 44.562846, 25.5], [27.352873, 44.562936, 25.0], [27.352898, 44.562968, 24.75], [27.353299, 44.563204, 25.25], [27.353329, 44.563229, 25.25], [27.353341, 44.563261, 25.25], [27.353334, 44.563292, 25.0], [27.353157, 44.563586, 24.0], [27.353082, 44.563742, 24.0], [27.353114, 44.564294, 23.0], [27.353128, 44.564622, 23.0], [27.353782, 44.564631, 24.25], [27.355374, 44.564644, 24.5], [27.355483, 44.564645, 24.5], [27.357238, 44.564649, 25.25], [27.357365, 44.564651, 25.5], [27.357525, 44.564651, 26.0], [27.357592, 44.564651, 26.25], [27.358286, 44.564654, 30.5], [27.358283, 44.564763, 30.25], [27.358047, 44.564761, 25.75]]}}]}