{"type": "FeatureCollection", "features": [{"type": "Feature", "properties": {"creator": "BRouter-1.7.10", "name": "brouter_trekking_0", "track-length": "1068", "filtered ascend": "0", "plain-ascend": "-2", "total-time": "182", "total-energy": "18160", "cost": "1698", "messages": [["Longitude", "Latitude", "Elevation", "Distance", "CostPerKm", "ElevCost", "TurnCost", "NodeCost", "InitialCost", "WayTags", "NodeTags", "Time", "Energy"], ["27369488", "44562139", "24", "3", "3050", "0", "0", "0", "0", "highway=primary surface=asphalt smoothness=excellent oneway=no", "estimated_crossing_class=4", "0", "53"], ["27369579", "44562222", "25", "12", "1150", "0", "34", "0", "0", "reversedirection=yes highway=residential surface=asphalt", "highway=crossing", "2", "298"], ["27369896", "44562528", "24", "42", "1150", "0", "0", "0", "0", "reversedirection=yes highway=residential surface=asphalt", "highway=crossing", "10", "1029"], ["27369831", "44562680", "24", "24", "1150", "0", "86", "0", "0", "reversedirection=yes highway=residential surface=asphalt", "highway=crossing", "14", "1405"], ["27367874", "44564071", "23", "219", "1150", "0", "1", "0", "0", "reversedirection=yes highway=residential surface=asphalt", "", "48", "4803"], ["27366338", "44564030", "24", "122", "1050", "0", "32", "0", "0", "highway=tertiary surface=asphalt foot=yes bicycle=yes oneway=yes", "", "70", "7036"], ["27366337", "44564076", "24", "5", "1150", "0", "91", "0", "0", "reversedirection=yes highway=residential surface=asphalt", "highway=crossing crossing=uncontrolled", "71", "7127"], ["27366151", "44565173", "22", "123", "1150", "0", "2", "0", "0", "reversedirection=yes highway=residential surface=asphalt", "", "89", "8952"], ["27364439", "44566868", "23", "233", "1150", "0", "9", "0", "0", "highway=residential surface=asphalt", "", "127", "12786"], ["27364259", "44567120", "24", "31", "1150", "0", "0", "0", "0", "reversedirection=yes highway=residential surface=asphalt", "", "135", "13530"], ["27364876", "44567790", "23", "113", "1150", "0", "130", "0", "0", "highway=residential surface=asphalt oneway=yes", "", "154", "15490"], ["27363917", "44568393", "21", "141", "1150", "0", "89", "0", "0", "reversedirection=yes highway=residential surface=asphalt oneway=no", "", "181", "18160"]], "times": [0, 0.539, 2.988, 10.297, 11.916, 14.057, 18.459, 25.632, 31.902, 48.028, 49.408, 51.761, 70.353, 71.265, 81.43, 87.086, 89.52, 101.42, 105.532, 106.751, 108.257, 127.849, 131.055, 135.287, 139.289, 140.634, 143.999, 144.522, 145.183, 154.882, 166.613, 168.186, 175.707, 180.398, 181.577]}, "geometry": {"type": "LineString", "coordinates": [[27.369455, 44.562138, 24.5], [27.369488, 44.562139, 24.75], [27.369579, 44.562222, 25.25], [27.369896, 44.562528, 24.75], [27.36997, 44.562598, 24.5], [27.369831, 44.56268, 24.25], [27.369512, 44.562865, 23.5], [27.36908, 44.563198, 23.5], [27.368764, 44.563418, 24.25], [27.367874, 44.564071, 23.75], [27.367757, 44.564065, 23.5], [27.367542, 44.564058, 23.0], [27.366338, 44.56403, 24.5], [27.366337, 44.564076, 24.5], [27.366321, 44.564618, 24.25], [27.366235, 44.565019, 22.75], [27.366151, 44.565173, 22.75], [27.36543, 44.565809, 22.0], [27.365166, 44.566055, 21.0], [27.365123, 44.566138, 20.75], [27.365053, 44.566232, 20.75], [27.364439, 44.566868, 23.5], [27.364352, 44.566978, 24.0], [27.364259, 44.56712, 24.5], [27.364436, 44.567193, 24.75], [27.364502, 44.56721, 24.5], [27.364822, 44.56721, 22.5], [27.364862, 44.56723, 22.25], [27.364874, 44.567274, 22.25], [27.364876, 44.56779, 23.25], [27.364882, 44.568291, 24.25], [27.364886, 44.568365, 24.25], [27.36445, 44.56838, 24.75], [27.36403, 44.568391, 23.25], [27.363917, 44.568393, 21.5]]}}]}