{"type": "FeatureCollection", "features": [{"type": "Feature", "properties": {"creator": "BRouter-1.7.10", "name": "brouter_trekking_0", "track-length": "1351", "filtered ascend": "5", "plain-ascend": "1", "total-time": "240", "total-energy": "24001", "cost": "3121", "messages": [["Longitude", "Latitude", "Elevation", "Distance", "CostPerKm", "ElevCost", "TurnCost", "NodeCost", "InitialCost", "WayTags", "NodeTags", "Time", "Energy"], ["27359906", "44563260", "24", "16", "1150", "0", "0", "0", "0", "highway=residential surface=asphalt oneway=no", "", "2", "238"], ["27359873", "44564537", "23", "142", "1450", "0", "90", "0", "0", "reversedirection=yes highway=tertiary surface=asphalt", "highway=crossing", "21", "2144"], ["27359869", "44564774", "25", "26", "1450", "0", "0", "0", "0", "reversedirection=yes highway=tertiary surface=asphalt", "", "26", "2684"], ["27359766", "44564773", "25", "8", "1450", "0", "90", "0", "0", "highway=tertiary surface=asphalt oneway=yes", "highway=crossing", "28", "2855"], ["27358283", "44564763", "30", "118", "1450", "0", "0", "0", "0", "highway=tertiary surface=asphalt oneway=yes", "highway=crossing", "60", "6035"], ["27357360", "44564756", "25", "73", "1450", "0", "0", "0", "0", "highway=tertiary surface=asphalt oneway=yes", "highway=crossing", "71", "7144"], ["27355483", "44564736", "25", "149", "1450", "0", "0", "0", "0", "highway=tertiary surface=asphalt oneway=yes", "highway=crossing crossing=uncontrolled", "93", "9361"], ["27353786", "44564718", "24", "135", "1450", "0", "0", "0", "0", "highway=tertiary surface=asphalt oneway=yes", "highway=crossing crossing=uncontrolled", "117", "11743"], ["27351172", "44564692", "24", "208", "1450", "0", "0", "0", "0", "highway=tertiary surface=asphalt oneway=yes", "highway=crossing", "150", "15073"], ["27350877", "44564671", "23", "24", "1450", "0", "0", "0", "0", "highway=tertiary surface=asphalt oneway=yes", "", "153", "15401"], ["27350964", "44564475", "23", "23", "1450", "0", "99", "0", "0", "reversedirection=yes highway=tertiary surface=asphalt", "highway=crossing", "157", "15711"], ["27351896", "44562911", "26", "189", "1450", "0", "0", "0", "0", "reversedirection=yes highway=tertiary surface=asphalt", "highway=crossing", "192", "19299"], ["27352102", "44562614", "27", "37", "1450", "0", "0", "0", "0", "reversedirection=yes highway=tertiary surface=asphalt", "estimated_crossing_class=5", "203", "20316"], ["27352869", "44562537", "26", "62", "3050", "0", "39", "0", "0", "highway=primary surface=asphalt smoothness=excellent oneway=no", "estimated_crossing_class=5", "214", "21462"], ["27352917", "44562532", "26", "4", "3050", "0", "0", "0", "0", "highway=primary surface=asphalt smoothness=excellent oneway=no", "estimated_crossing_class=5", "215", "21534"], ["27352889", "44562400", "25", "15", "1150", "0", "90", "0", "0", "highway=residential surface=asphalt oneway=yes", "", "217", "21785"], ["27351513", "44562533", "26", "110", "5050", "0", "88", "0", "0", "reversedirection=yes highway=footway", "", "237", "23791"], ["27351565", "44562432", "26", "12", "5050", "0", "132", "0", "0", "highway=footway", "", "239", "24001"]], "times": [0, 2.383, 21.439, 23.988, 26.842, 28.552, 40.99, 60.339, 69.602, 71.433, 93.607, 95.043, 112.956, 117.416, 123.176, 150.723, 153.999, 155.33, 157.102, 159.223, 168.394, 177.208, 192.975, 203.139, 214.598, 215.317, 217.831, 237.887, 239.99]}, "geometry": {"type": "LineString", "coordinates": [[27.36011, 44.563263, 25.25], [27.359906, 44.56326, 24.75], [27.359873, 44.564537, 23.5], [27.359871, 44.564654, 24.5], [27.359869, 44.564774, 25.0], [27.359766, 44.564773, 25.0], [27.359215, 44.564768, 26.5], [27.358283, 44.564763, 30.25], [27.357526, 44.564758, 25.75], [27.35736, 44.564756, 25.25], [27.355483, 44.564736, 25.0], [27.355373, 44.564735, 25.0], [27.354216, 44.564722, 26.0], [27.353786, 44.564718, 24.5], [27.353131, 44.564709, 23.0], [27.351172, 44.564692, 24.75], [27.350877, 44.564671, 23.75], [27.350898, 44.564586, 23.5], [27.350964, 44.564475, 23.5], [27.35104, 44.56434, 23.25], [27.351294, 44.563868, 24.0], [27.351568, 44.563406, 23.75], [27.351896, 44.562911, 26.0], [27.352102, 44.562614, 27.0], [27.352869, 44.562537, 26.0], [27.352917, 44.562532, 26.0], [27.352889, 44.5624, 25.75], [27.351513, 44.562533, 26.25], [27.351565, 44.562432, 26.25]]}}]}