{"type": "FeatureCollection", "features": [{"type": "Feature", "properties": {"creator": "BRouter-1.7.10", "name": "brouter_trekking_0", "track-length": "803", "filtered ascend": "1", "plain-ascend": "-3", "total-time": "125", "total-energy": "12539", "cost": "1490", "messages": [["Longitude", "Latitude", "Elevation", "Distance", "CostPerKm", "ElevCost", "TurnCost", "NodeCost", "InitialCost", "WayTags", "NodeTags", "Time", "Energy"], ["27369319", "44562138", "24", "11", "3050", "0", "0", "0", "0", "reversedirection=yes highway=primary surface=asphalt smoothness=excellent oneway=no", "highway=crossing estimated_crossing_class=4", "1", "184"], ["27368615", "44562135", "23", "56", "3050", "0", "0", "0", "0", "reversedirection=yes highway=primary surface=asphalt smoothness=excellent oneway=no", "estimated_crossing_class=5", "9", "925"], ["27368612", "44561991", "22", "16", "1150", "0", "88", "0", "0", "reversedirection=yes highway=residential oneway=no", "highway=crossing", "11", "1130"], ["27368370", "44561194", "24", "100", "1150", "0", "30", "0", "0", "reversedirection=yes highway=residential oneway=no", "", "28", "2875"], ["27368381", "44560550", "23", "72", "1150", "0", "83", "0", "0", "reversedirection=yes highway=residential", "", "40", "4047"], ["27364219", "44560216", "22", "335", "1150", "0", "90", "0", "0", "highway=residential oneway=yes", "", "96", "9640"], ["27364477", "44558983", "21", "138", "1150", "0", "53", "0", "0", "reversedirection=yes highway=residential", "", "115", "11547"], ["27365368", "44559196", "21", "75", "1150", "0", "95", "0", "0", "highway=residential surface=asphalt", "", "125", "12539"]], "times": [0, 1.848, 4.814, 9.254, 11.298, 22.193, 25.826, 26.515, 27.376, 28.751, 40.465, 51.525, 53.61, 62.529, 68.17, 71.608, 80.476, 89.049, 90.97, 96.391, 107.979, 110.795, 113.221, 114.265, 115.459, 125.374]}, "geometry": {"type": "LineString", "coordinates": [[27.369455, 44.562138, 24.5], [27.369319, 44.562138, 24.5], [27.369051, 44.562137, 23.75], [27.368615, 44.562135, 23.0], [27.368612, 44.561991, 22.75], [27.368596, 44.561434, 24.0], [27.36856, 44.561248, 24.0], [27.368535, 44.561218, 24.0], [27.368471, 44.5612, 24.0], [27.36837, 44.561194, 24.0], [27.368381, 44.56055, 23.75], [27.367739, 44.560519, 25.0], [27.367621, 44.560511, 25.5], [27.366973, 44.560467, 24.5], [27.366503, 44.560454, 24.0], [27.366222, 44.560443, 24.0], [27.365455, 44.560425, 23.5], [27.364824, 44.560419, 24.0], [27.364677, 44.56039, 23.75], [27.364219, 44.560216, 22.75], [27.364278, 44.559531, 23.0], [27.364336, 44.559344, 22.25], [27.364412, 44.559154, 21.0], [27.364442, 44.559074, 21.0], [27.364477, 44.558983, 21.0], [27.365368, 44.559196, 21.0]]}}]}