{"type": "FeatureCollection", "features": [{"type": "Feature", "properties": {"creator": "BRouter-1.7.10", "name": "brouter_trekking_0", "track-length": "2122", "filtered ascend": "5", "plain-ascend": "2", "total-time": "374", "total-energy": "37366", "cost": "4115", "messages": [["Longitude", "Latitude", "Elevation", "Distance", "CostPerKm", "ElevCost", "TurnCost", "NodeCost", "InitialCost", "WayTags", "NodeTags", "Time", "Energy"], ["27369488", "44562139", "24", "3", "3050", "0", "0", "0", "0", "highway=primary surface=asphalt smoothness=excellent oneway=no", "estimated_crossing_class=4", "0", "53"], ["27369579", "44562222", "25", "12", "1150", "0", "34", "0", "0", "reversedirection=yes highway=residential surface=asphalt", "highway=crossing", "2", "298"], ["27369896", "44562528", "24", "42", "1150", "0", "0", "0", "0", "reversedirection=yes highway=residential surface=asphalt", "highway=crossing", "10", "1029"], ["27369831", "44562680", "24", "24", "1150", "0", "86", "0", "0", "reversedirection=yes highway=residential surface=asphalt", "highway=crossing", "14", "1405"], ["27367874", "44564071", "23", "219", "1150", "0", "1", "0", "0", "reversedirection=yes highway=residential surface=asphalt", "", "48", "4803"], ["27364209", "44564006", "23", "290", "1050", "0", "32", "0", "0", "highway=tertiary surface=asphalt foot=yes bicycle=yes oneway=yes", "highway=crossing", "96", "9692"], ["27363843", "44564050", "24", "30", "1050", "0", "3", "0", "0", "highway=tertiary surface=asphalt foot=yes bicycle=yes oneway=yes", "highway=crossing", "102", "10221"], ["27363750", "44564052", "24", "7", "1050", "0", "0", "0", "0", "highway=tertiary surface=asphalt foot=yes bicycle=yes oneway=yes", "", "103", "10344"], ["27363606", "44564121", "23", "14", "1450", "0", "13", "0", "0", "highway=tertiary surface=asphalt oneway=yes", "highway=crossing", "105", "10574"], ["27361167", "44564483", "28", "200", "1450", "0", "0", "0", "0", "highway=tertiary surface=asphalt oneway=yes", "highway=crossing", "144", "14420"], ["27359766", "44564773", "25", "116", "1450", "0", "3", "0", "0", "highway=tertiary surface=asphalt oneway=yes", "highway=crossing", "167", "16738"], ["27358283", "44564763", "30", "118", "1450", "0", "0", "0", "0", "highway=tertiary surface=asphalt oneway=yes", "highway=crossing", "194", "19417"], ["27357360", "44564756", "25", "73", "1450", "0", "0", "0", "0", "highway=tertiary surface=asphalt oneway=yes", "highway=crossing", "204", "20464"], ["27355483", "44564736", "25", "149", "1450", "0", "0", "0", "0", "highway=tertiary surface=asphalt oneway=yes", "highway=crossing crossing=uncontrolled", "226", "22638"], ["27353786", "44564718", "24", "135", "1450", "0", "0", "0", "0", "highway=tertiary surface=asphalt oneway=yes", "highway=crossing crossing=uncontrolled", "250", "25006"], ["27351172", "44564692", "24", "208", "1450", "0", "0", "0", "0", "highway=tertiary surface=asphalt oneway=yes", "highway=crossing", "283", "28334"], ["27350877", "44564671", "23", "24", "1450", "0", "0", "0", "0", "highway=tertiary surface=asphalt oneway=yes", "", "286", "28661"], ["27350964", "44564475", "23", "23", "1450", "0", "99", "0", "0", "reversedirection=yes highway=tertiary surface=asphalt", "highway=crossing", "289", "28972"], ["27351896", "44562911", "26", "189", "1450", "0", "0", "0", "0", "reversedirection=yes highway=tertiary surface=asphalt", "highway=crossing", "325", "32559"], ["27352102", "44562614", "27", "37", "1450", "0", "0", "0", "0", "reversedirection=yes highway=tertiary surface=asphalt", "estimated_crossing_class=5", "335", "33576"], ["27352869", "44562537", "26", "62", "3050", "0", "39", "0", "0", "highway=primary surface=asphalt smoothness=excellent oneway=no", "estimated_crossing_class=5", "347", "34722"], ["27352917", "44562532", "26", "4", "3050", "0", "0", "0", "0", "highway=primary surface=asphalt smoothness=excellent oneway=no", "estimated_crossing_class=5", "347", "34794"], ["27352889", "44562400", "25", "15", "1150", "0", "90", "0", "0", "highway=residential surface=asphalt oneway=yes", "", "350", "35045"], ["27351513", "44562533", "26", "110", "5050", "0", "88", "0", "0", "reversedirection=yes highway=footway", "", "370", "37051"], ["27351583", "44562398", "26", "16", "5050", "0", "132", "0", "0", "highway=footway", "", "373", "37331"], ["27351611", "44562401", "26", "2", "5050", "0", "72", "0", "0", "reversedirection=yes highway=footway", "", "373", "37366"]], "times": [0, 0.539, 2.988, 10.297, 11.916, 14.057, 18.459, 25.632, 31.902, 48.028, 49.408, 51.761, 70.353, 75.414, 85.614, 88.047, 95.24, 96.91, 97.411, 100.082, 102.203, 103.434, 105.736, 108.67, 110.616, 115.075, 117.807, 124.659, 128.275, 144.193, 149.265, 153.082, 163.297, 164.854, 166.108, 167.368, 177.211, 194.148, 202.853, 204.613, 226.332, 227.756, 245.563, 250.011, 255.764, 283.29, 286.565, 287.896, 289.667, 291.788, 300.958, 309.772, 325.538, 335.701, 347.16, 347.879, 350.394, 370.449, 373.25, 373.599]}, "geometry": {"type": "LineString", "coordinates": [[27.369455, 44.562138, 24.5], [27.369488, 44.562139, 24.75], [27.369579, 44.562222, 25.25], [27.369896, 44.562528, 24.75], [27.36997, 44.562598, 24.5], [27.369831, 44.56268, 24.25], [27.369512, 44.562865, 23.5], [27.36908, 44.563198, 23.5], [27.368764, 44.563418, 24.25], [27.367874, 44.564071, 23.75], [27.367757, 44.564065, 23.5], [27.367542, 44.564058, 23.0], [27.366338, 44.56403, 24.5], [27.365986, 44.564023, 24.5], [27.365175, 44.564009, 24.0], [27.36498, 44.564008, 24.0], [27.364338, 44.564006, 23.25], [27.364209, 44.564006, 23.75], [27.364172, 44.564007, 23.75], [27.36399, 44.564039, 24.0], [27.363843, 44.56405, 24.0], [27.36375, 44.564052, 24.0], [27.363606, 44.564121, 23.75], [27.363381, 44.564211, 23.25], [27.36323, 44.56426, 23.25], [27.362917, 44.564341, 23.75], [27.36274, 44.564377, 24.0], [27.362372, 44.56442, 25.0], [27.36221, 44.564431, 26.0], [27.361167, 44.564483, 28.0], [27.360981, 44.564502, 27.5], [27.360822, 44.564529, 27.25], [27.360095, 44.56474, 25.25], [27.359974, 44.564762, 25.0], [27.359869, 44.564774, 25.0], [27.359766, 44.564773, 25.0], [27.359215, 44.564768, 26.5], [27.358283, 44.564763, 30.25], [27.357526, 44.564758, 25.75], [27.35736, 44.564756, 25.25], [27.355483, 44.564736, 25.0], [27.355373, 44.564735, 25.0], [27.354216, 44.564722, 26.0], [27.353786, 44.564718, 24.5], [27.353131, 44.564709, 23.0], [27.351172, 44.564692, 24.75], [27.350877, 44.564671, 23.75], [27.350898, 44.564586, 23.5], [27.350964, 44.564475, 23.5], [27.35104, 44.56434, 23.25], [27.351294, 44.563868, 24.0], [27.351568, 44.563406, 23.75], [27.351896, 44.562911, 26.0], [27.352102, 44.562614, 27.0], [27.352869, 44.562537, 26.0], [27.352917, 44.562532, 26.0], [27.352889, 44.5624, 25.75], [27.351513, 44.562533, 26.25], [27.351583, 44.562398, 26.25], [27.351611, 44.562401, 26.5]]}}]}