{"type": "FeatureCollection", "features": [{"type": "Feature", "properties": {"creator": "BRouter-1.7.10", "name": "brouter_trekking_0", "track-length": "700", "filtered ascend": "0", "plain-ascend": "-5", "total-time": "109", "total-energy": "10882", "cost": "1012", "messages": [["Longitude", "Latitude", "Elevation", "Distance", "CostPerKm", "ElevCost", "TurnCost", "NodeCost", "InitialCost", "WayTags", "NodeTags", "Time", "Energy"], ["27360917", "44560179", "24", "194", "1450", "0", "0", "0", "0", "highway=tertiary surface=asphalt", "highway=crossing crossing=uncontrolled", "27", "2761"], ["27361945", "44558363", "25", "219", "1450", "0", "0", "0", "0", "highway=tertiary surface=asphalt", "", "65", "6524"], ["27362097", "44558403", "24", "13", "1150", "0", "83", "0", "0", "highway=residential surface=asphalt", "highway=crossing", "67", "6716"], ["27362884", "44558594", "21", "66", "1150", "0", "0", "0", "0", "highway=residential surface=asphalt", "highway=crossing", "76", "7641"], ["27364352", "44558955", "21", "123", "1150", "0", "0", "0", "0", "highway=residential surface=asphalt", "highway=crossing", "95", "9505"], ["27365368", "44559196", "21", "85", "1150", "0", "0", "0", "0", "highway=residential surface=asphalt", "", "108", "10882"]], "times": [0, 15.124, 19.039, 21.037, 27.608, 29.547, 32.245, 33.71, 41.189, 51.236, 65.237, 67.157, 70.706, 76.401, 78.108, 89.06, 95.043, 96.639, 108.815]}, "geometry": {"type": "LineString", "coordinates": [[27.360882, 44.561922, 26.75], [27.360845, 44.561073, 26.5], [27.36084, 44.560756, 24.5], [27.36085, 44.560598, 24.0], [27.360917, 44.560179, 24.75], [27.360954, 44.560056, 24.5], [27.361022, 44.559877, 24.0], [27.361067, 44.55978, 24.0], [27.361332, 44.559345, 24.0], [27.361587, 44.558927, 25.25], [27.361945, 44.558363, 25.75], [27.362097, 44.558403, 24.75], [27.362458, 44.558495, 23.5], [27.362884, 44.558594, 21.5], [27.36303, 44.558622, 21.0], [27.363894, 44.558843, 21.0], [27.364352, 44.558955, 21.0], [27.364477, 44.558983, 21.0], [27.365368, 44.559196, 21.0]]}}]}