{"type": "FeatureCollection", "features": [{"type": "Feature", "properties": {"creator": "BRouter-1.7.10", "name": "brouter_trekking_0", "track-length": "1022", "filtered ascend": "0", "plain-ascend": "-2", "total-time": "169", "total-energy": "16865", "cost": "2468", "messages": [["Longitude", "Latitude", "Elevation", "Distance", "CostPerKm", "ElevCost", "TurnCost", "NodeCost", "InitialCost", "WayTags", "NodeTags", "Time", "Energy"], ["27357360", "44564756", "25", "54", "1450", "0", "0", "0", "0", "highway=tertiary surface=asphalt oneway=yes", "highway=crossing", "5", "538"], ["27355483", "44564736", "25", "149", "1450", "0", "0", "0", "0", "highway=tertiary surface=asphalt oneway=yes", "highway=crossing crossing=uncontrolled", "23", "2381"], ["27353786", "44564718", "24", "135", "1450", "0", "0", "0", "0", "highway=tertiary surface=asphalt oneway=yes", "highway=crossing crossing=uncontrolled", "46", "4638"], ["27351172", "44564692", "24", "208", "1450", "0", "0", "0", "0", "highway=tertiary surface=asphalt oneway=yes", "highway=crossing", "79", "7941"], ["27350877", "44564671", "23", "24", "1450", "0", "0", "0", "0", "highway=tertiary surface=asphalt oneway=yes", "", "82", "8268"], ["27350964", "44564475", "23", "23", "1450", "0", "99", "0", "0", "reversedirection=yes highway=tertiary surface=asphalt", "highway=crossing", "85", "8578"], ["27351896", "44562911", "26", "189", "1450", "0", "0", "0", "0", "reversedirection=yes highway=tertiary surface=asphalt", "highway=crossing", "121", "12163"], ["27352102", "44562614", "27", "37", "1450", "0", "0", "0", "0", "reversedirection=yes highway=tertiary surface=asphalt", "estimated_crossing_class=5", "131", "13180"], ["27352869", "44562537", "26", "62", "3050", "0", "39", "0", "0", "highway=primary surface=asphalt smoothness=excellent oneway=no", "estimated_crossing_class=5", "143", "14325"], ["27352917", "44562532", "26", "4", "3050", "0", "0", "0", "0", "highway=primary surface=asphalt smoothness=excellent oneway=no", "estimated_crossing_class=5", "143", "14397"], ["27352889", "44562400", "25", "15", "1150", "0", "90", "0", "0", "highway=residential surface=asphalt oneway=yes", "", "146", "14649"], ["27351513", "44562533", "26", "110", "5050", "0", "88", "0", "0", "reversedirection=yes highway=footway", "", "166", "16654"], ["27351565", "44562432", "26", "12", "5050", "0", "132", "0", "0", "highway=footway", "", "168", "16865"]], "times": [0, 4.07, 5.387, 23.806, 25.125, 42.026, 46.38, 52.067, 79.409, 82.677, 84.006, 85.774, 87.892, 97.052, 105.861, 121.621, 131.782, 143.24, 143.959, 146.473, 166.528, 168.63]}, "geometry": {"type": "LineString", "coordinates": [[27.358047, 44.564761, 28.75], [27.357526, 44.564758, 25.75], [27.35736, 44.564756, 25.25], [27.355483, 44.564736, 25.0], [27.355373, 44.564735, 25.0], [27.354216, 44.564722, 26.0], [27.353786, 44.564718, 24.5], [27.353131, 44.564709, 23.0], [27.351172, 44.564692, 24.75], [27.350877, 44.564671, 23.75], [27.350898, 44.564586, 23.5], [27.350964, 44.564475, 23.5], [27.35104, 44.56434, 23.25], [27.351294, 44.563868, 24.0], [27.351568, 44.563406, 23.75], [27.351896, 44.562911, 26.0], [27.352102, 44.562614, 27.0], [27.352869, 44.562537, 26.0], [27.352917, 44.562532, 26.0], [27.352889, 44.5624, 25.75], [27.351513, 44.562533, 26.25], [27.351565, 44.562432, 26.25]]}}]}