{"type": "FeatureCollection", "features": [{"type": "Feature", "properties": {"creator": "BRouter-1.7.10", "name": "brouter_trekking_0", "track-length": "1094", "filtered ascend": "5", "plain-ascend": "1", "total-time": "200", "total-energy": "19977", "cost": "1545", "messages": [["Longitude", "Latitude", "Elevation", "Distance", "CostPerKm", "ElevCost", "TurnCost", "NodeCost", "InitialCost", "WayTags", "NodeTags", "Time", "Energy"], ["27369488", "44562139", "24", "3", "3050", "0", "0", "0", "0", "highway=primary surface=asphalt smoothness=excellent oneway=no", "estimated_crossing_class=4", "0", "53"], ["27369579", "44562222", "25", "12", "1150", "0", "34", "0", "0", "reversedirection=yes highway=residential surface=asphalt", "highway=crossing", "2", "298"], ["27369896", "44562528", "24", "42", "1150", "0", "0", "0", "0", "reversedirection=yes highway=residential surface=asphalt", "highway=crossing", "10", "1029"], ["27369831", "44562680", "24", "24", "1150", "0", "86", "0", "0", "reversedirection=yes highway=residential surface=asphalt", "highway=crossing", "14", "1405"], ["27367874", "44564071", "23", "219", "1150", "0", "1", "0", "0", "reversedirection=yes highway=residential surface=asphalt", "", "48", "4803"], ["27364209", "44564006", "23", "290", "1050", "0", "32", "0", "0", "highway=tertiary surface=asphalt foot=yes bicycle=yes oneway=yes", "highway=crossing", "96", "9692"], ["27363843", "44564050", "24", "30", "1050", "0", "3", "0", "0", "highway=tertiary surface=asphalt foot=yes bicycle=yes oneway=yes", "highway=crossing", "102", "10221"], ["27363750", "44564052", "24", "7", "1050", "0", "0", "0", "0", "highway=tertiary surface=asphalt foot=yes bicycle=yes oneway=yes", "", "103", "10344"], ["27363606", "44564121", "23", "14", "1450", "0", "13", "0", "0", "highway=tertiary surface=asphalt oneway=yes", "highway=crossing", "105", "10574"], ["27361167", "44564483", "28", "200", "1450", "0", "0", "0", "0", "highway=tertiary surface=asphalt oneway=yes", "highway=crossing", "144", "14420"], ["27359766", "44564773", "25", "116", "1450", "0", "3", "0", "0", "highway=tertiary surface=asphalt oneway=yes", "highway=crossing", "167", "16738"], ["27358283", "44564763", "30", "118", "1450", "0", "0", "0", "0", "highway=tertiary surface=asphalt oneway=yes", "highway=crossing", "194", "19417"], ["27358047", "44564761", "25", "19", "1450", "0", "0", "0", "0", "highway=tertiary surface=asphalt oneway=yes", "", "199", "19977"]], "times": [0, 0.539, 2.988, 10.297, 11.916, 14.057, 18.459, 25.632, 31.902, 48.028, 49.408, 51.761, 70.353, 75.414, 85.614, 88.047, 95.24, 96.91, 97.411, 100.082, 102.203, 103.434, 105.736, 108.67, 110.616, 115.075, 117.807, 124.659, 128.275, 144.193, 149.265, 153.082, 163.297, 164.854, 166.108, 167.368, 177.211, 194.148, 199.749]}, "geometry": {"type": "LineString", "coordinates": [[27.369455, 44.562138, 24.5], [27.369488, 44.562139, 24.75], [27.369579, 44.562222, 25.25], [27.369896, 44.562528, 24.75], [27.36997, 44.562598, 24.5], [27.369831, 44.56268, 24.25], [27.369512, 44.562865, 23.5], [27.36908, 44.563198, 23.5], [27.368764, 44.563418, 24.25], [27.367874, 44.564071, 23.75], [27.367757, 44.564065, 23.5], [27.367542, 44.564058, 23.0], [27.366338, 44.56403, 24.5], [27.365986, 44.564023, 24.5], [27.365175, 44.564009, 24.0], [27.36498, 44.564008, 24.0], [27.364338, 44.564006, 23.25], [27.364209, 44.564006, 23.75], [27.364172, 44.564007, 23.75], [27.36399, 44.564039, 24.0], [27.363843, 44.56405, 24.0], [27.36375, 44.564052, 24.0], [27.363606, 44.564121, 23.75], [27.363381, 44.564211, 23.25], [27.36323, 44.56426, 23.25], [27.362917, 44.564341, 23.75], [27.36274, 44.564377, 24.0], [27.362372, 44.56442, 25.0], [27.36221, 44.564431, 26.0], [27.361167, 44.564483, 28.0], [27.360981, 44.564502, 27.5], [27.360822, 44.564529, 27.25], [27.360095, 44.56474, 25.25], [27.359974, 44.564762, 25.0], [27.359869, 44.564774, 25.0], [27.359766, 44.564773, 25.0], [27.359215, 44.564768, 26.5], [27.358283, 44.564763, 30.25], [27.358047, 44.564761, 25.75]]}}]}