{"type": "FeatureCollection", "features": [{"type": "Feature", "properties": {"creator": "BRouter-1.7.10", "name": "brouter_trekking_0", "track-length": "3130", "filtered ascend": "9", "plain-ascend": "3", "total-time": "550", "total-energy": "55036", "cost": "7242", "messages": [["Longitude", "Latitude", "Elevation", "Distance", "CostPerKm", "ElevCost", "TurnCost", "NodeCost", "InitialCost", "WayTags", "NodeTags", "Time", "Energy"], ["27365506", "44559229", "21", "12", "1150", "0", "0", "0", "0", "highway=residential surface=asphalt", "highway=crossing crossing=uncontrolled", "2", "201"], ["27365659", "44559266", "21", "13", "1150", "0", "0", "0", "0", "highway=residential surface=asphalt", "", "4", "450"], ["27366981", "44559492", "22", "108", "1150", "0", "0", "0", "0", "highway=residential", "", "25", "2595"], ["27368885", "44559930", "23", "176", "1150", "0", "124", "0", "0", "highway=residential surface=asphalt smoothness=excellent oneway=yes", "", "61", "6199"], ["27368883", "44560542", "23", "68", "1150", "0", "5", "0", "0", "reversedirection=yes highway=residential", "", "73", "7358"], ["27369207", "44561244", "23", "100", "1350", "0", "133", "0", "0", "highway=service", "", "90", "9045"], ["27375801", "44561746", "25", "568", "1150", "0", "331", "0", "0", "highway=residential surface=asphalt oneway=no", "", "198", "19850"], ["27375962", "44562392", "26", "81", "5150", "0", "19", "0", "0", "reversedirection=yes highway=residential surface=asphalt oneway=yes", "estimated_crossing_class=4", "213", "21392"], ["27375941", "44562480", "26", "10", "1150", "0", "0", "0", "0", "reversedirection=yes highway=residential surface=asphalt", "highway=crossing crossing=uncontrolled", "215", "21593"], ["27375548", "44563086", "23", "75", "1150", "0", "2", "0", "0", "reversedirection=yes highway=residential surface=asphalt", "", "226", "22613"], ["27375492", "44563379", "22", "33", "1150", "0", "8", "0", "0", "highway=residential surface=asphalt", "highway=crossing crossing=uncontrolled", "229", "22959"], ["27376136", "44563593", "24", "69", "1150", "0", "87", "0", "0", "highway=residential surface=asphalt", "highway=crossing crossing=uncontrolled", "240", "24030"], ["27376475", "44563634", "24", "27", "1150", "0", "0", "0", "0", "highway=residential surface=asphalt", "highway=crossing crossing=uncontrolled", "244", "24486"], ["27377406", "44563916", "23", "82", "1150", "0", "1", "0", "0", "highway=residential surface=asphalt", "highway=crossing crossing=uncontrolled", "258", "25835"], ["27380657", "44565849", "26", "336", "1150", "0", "0", "0", "0", "highway=residential surface=asphalt", "highway=crossing crossing=uncontrolled", "325", "32564"], ["27380771", "44565919", "26", "12", "1150", "0", "0", "0", "0", "highway=residential surface=asphalt", "", "328", "32812"], ["27380874", "44565830", "26", "13", "1150", "0", "91", "0", "0", "highway=residential surface=asphalt oneway=yes", "highway=crossing crossing=uncontrolled", "330", "33091"], ["27381765", "44565117", "24", "106", "1150", "0", "0", "0", "0", "highway=residential surface=asphalt oneway=yes", "highway=crossing crossing=uncontrolled", "344", "34425"], ["27381898", "44565011", "24", "16", "1150", "0", "0", "0", "0", "highway=residential surface=asphalt oneway=yes", "estimated_crossing_class=4", "346", "34655"], ["27381778", "44564920", "23", "14", "3050", "0", "82", "0", "0", "reversedirection=yes highway=primary surface=asphalt smoothness=excellent oneway=no", "estimated_crossing_class=4", "348", "34848"], ["27381811", "44564816", "23", "12", "1350", "0", "40", "0", "0", "highway=unclassified surface=asphalt", "highway=crossing", "350", "35009"], ["27381764", "44563818", "19", "111", "1350", "0", "3", "0", "0", "highway=unclassified surface=asphalt", "", "364", "36426"], ["27381691", "44563779", "19", "7", "10050", "0", "33", "0", "0", "highway=trunk surface=asphalt smoothness=good oneway=no", "highway=crossing crossing=zebra", "365", "36521"], ["27381734", "44563726", "19", "7", "5050", "0", "79", "0", "0", "reversedirection=yes highway=footway", "", "366", "36624"], ["27382047", "44563910", "20", "32", "5050", "0", "104", "0", "0", "highway=footway", "", "369", "36946"], ["27382235", "44564010", "21", "19", "40000", "0", "0", "0", "0", "highway=steps foot=yes", "", "371", "37200"], ["27383036", "44563116", "21", "118", "1050", "0", "96", "0", "0", "highway=footway surface=asphalt foot=yes bicycle=yes", "", "390", "39011"], ["27383694", "44562356", "25", "99", "5050", "0", "2", "0", "0", "highway=footway", "estimated_crossing_class=4", "417", "41752"], ["27383485", "44562119", "26", "31", "3050", "0", "48", "0", "0", "highway=primary surface=asphalt smoothness=good oneway=no", "estimated_crossing_class=4", "422", "42281"], ["27383799", "44562085", "27", "25", "1650", "0", "126", "0", "0", "reversedirection=yes highway=secondary surface=asphalt smoothness=excellent oneway=no", "estimated_crossing_class=3", "427", "42792"], ["27384561", "44562004", "27", "61", "1650", "0", "0", "0", "0", "reversedirection=yes highway=secondary surface=asphalt smoothness=excellent oneway=no", "estimated_crossing_class=3", "440", "44086"], ["27385474", "44561910", "24", "73", "1650", "0", "0", "0", "0", "reversedirection=yes highway=secondary surface=asphalt smoothness=excellent oneway=no", "estimated_crossing_class=3", "452", "45280"], ["27386085", "44561804", "25", "50", "1650", "0", "0", "0", "0", "reversedirection=yes highway=secondary surface=asphalt smoothness=excellent oneway=no", "estimated_crossing_class=3", "463", "46369"], ["27387577", "44561443", "24", "126", "1650", "0", "0", "0", "0", "reversedirection=yes highway=secondary surface=asphalt smoothness=excellent oneway=no", "estimated_crossing_class=3", "484", "48486"], ["27388129", "44561087", "23", "59", "1650", "0", "5", "0", "0", "reversedirection=yes highway=secondary surface=asphalt smoothness=excellent oneway=no", "estimated_crossing_class=3", "493", "49341"], ["27389797", "44560007", "22", "179", "1650", "0", "0", "0", "0", "reversedirection=yes highway=secondary surface=asphalt smoothness=excellent oneway=no", "estimated_crossing_class=3", "516", "51681"], ["27389939", "44559910", "22", "16", "1650", "0", "0", "0", "0", "reversedirection=yes highway=secondary surface=asphalt smoothness=excellent oneway=no", "estimated_crossing_class=3", "519", "51927"], ["27391336", "44559042", "22", "147", "1650", "0", "0", "0", "0", "reversedirection=yes highway=secondary surface=asphalt smoothness=excellent oneway=no", "estimated_crossing_class=3", "542", "54250"], ["27391640", "44558901", "22", "29", "1650", "0", "1", "0", "0", "reversedirection=yes highway=secondary surface=asphalt smoothness=excellent oneway=no", "estimated_crossing_class=3", "548", "54837"], ["27391617", "44558814", "23", "10", "1350", "0", "58", "0", "0", "highway=service", "", "550", "55036"]], "times": [0, 2.016, 4.502, 23.198, 25.956, 29.039, 31.871, 35.577, 51.915, 57.645, 58.781, 59.722, 60.284, 61.99, 72.217, 73.575, 76.287, 77.24, 78.26, 90.452, 97.593, 100.406, 101.889, 104.312, 105.226, 106.235, 108.545, 109.868, 110.695, 113.181, 118.665, 120.331, 122.331, 148.82, 150.748, 182.523, 193.314, 193.959, 194.444, 196.472, 197.387, 198.48, 202.088, 203.616, 204.941, 213.901, 215.907, 220.05, 224.273, 226.102, 229.571, 231.145, 240.279, 244.835, 248.207, 250.903, 252.756, 258.326, 268.546, 273.416, 286.487, 325.607, 328.081, 330.876, 344.212, 346.506, 348.443, 350.05, 364.217, 365.171, 366.195, 369.42, 371.957, 390.072, 393.799, 397.929, 417.475, 422.758, 427.865, 440.809, 452.747, 463.637, 480.903, 484.8, 493.342, 516.741, 519.202, 535.311, 542.434, 543.806, 548.305, 550.29]}, "geometry": {"type": "LineString", "coordinates": [[27.365368, 44.559196, 21.0], [27.365506, 44.559229, 21.0], [27.365659, 44.559266, 21.5], [27.366804, 44.559476, 22.0], [27.366981, 44.559492, 22.25], [27.367177, 44.559491, 22.25], [27.367367, 44.5595, 22.25], [27.367618, 44.559539, 22.25], [27.368492, 44.559673, 23.5], [27.36889, 44.559739, 23.0], [27.368878, 44.559791, 23.25], [27.36891, 44.559831, 23.25], [27.368921, 44.55986, 23.25], [27.368885, 44.55993, 23.75], [27.368883, 44.560471, 23.0], [27.368883, 44.560542, 23.0], [27.369085, 44.560536, 23.0], [27.369161, 44.560553, 22.75], [27.369203, 44.5606, 23.0], [27.369207, 44.561244, 23.0], [27.369711, 44.561246, 23.25], [27.369882, 44.561192, 23.5], [27.369973, 44.56117, 23.5], [27.370156, 44.561177, 23.0], [27.370224, 44.561201, 22.75], [27.370294, 44.561238, 22.5], [27.370455, 44.561277, 23.0], [27.370542, 44.561307, 23.0], [27.370581, 44.561345, 23.0], [27.370599, 44.56148, 23.0], [27.371009, 44.561491, 23.0], [27.371137, 44.561495, 23.0], [27.371229, 44.561585, 23.0], [27.372721, 44.561588, 24.75], [27.372849, 44.561588, 24.75], [27.374702, 44.561552, 26.0], [27.375642, 44.561541, 24.75], [27.375688, 44.561547, 25.0], [27.375714, 44.561568, 25.0], [27.375726, 44.561671, 25.5], [27.375754, 44.561708, 25.5], [27.375801, 44.561746, 25.5], [27.375996, 44.561865, 25.5], [27.376041, 44.561927, 25.75], [27.376069, 44.561988, 25.75], [27.375962, 44.562392, 26.0], [27.375941, 44.56248, 26.25], [27.375854, 44.562713, 25.25], [27.375648, 44.562976, 24.25], [27.375548, 44.563086, 23.75], [27.375492, 44.563379, 22.5], [27.375466, 44.563516, 22.0], [27.376136, 44.563593, 24.0], [27.376475, 44.563634, 24.0], [27.376719, 44.563674, 24.0], [27.376907, 44.563713, 24.0], [27.377033, 44.563749, 24.0], [27.377406, 44.563916, 23.75], [27.378092, 44.564292, 23.25], [27.378415, 44.564484, 23.0], [27.379119, 44.564902, 23.75], [27.380657, 44.565849, 26.25], [27.380771, 44.565919, 26.5], [27.380874, 44.56583, 26.75], [27.381765, 44.565117, 24.0], [27.381898, 44.565011, 24.0], [27.381778, 44.56492, 23.75], [27.381811, 44.564816, 23.5], [27.381764, 44.563818, 19.5], [27.381691, 44.563779, 19.25], [27.381734, 44.563726, 19.5], [27.382047, 44.56391, 20.25], [27.382235, 44.56401, 21.25], [27.383036, 44.563116, 21.5], [27.383153, 44.562976, 22.5], [27.383291, 44.562858, 23.25], [27.383694, 44.562356, 25.0], [27.383485, 44.562119, 26.5], [27.383799, 44.562085, 27.25], [27.384561, 44.562004, 27.75], [27.385474, 44.56191, 24.0], [27.386085, 44.561804, 25.25], [27.387268, 44.561535, 24.75], [27.387577, 44.561443, 24.0], [27.388129, 44.561087, 23.75], [27.389797, 44.560007, 22.0], [27.389939, 44.55991, 22.0], [27.390964, 44.559257, 21.5], [27.391336, 44.559042, 22.25], [27.391405, 44.559002, 22.5], [27.39164, 44.558901, 22.75], [27.391617, 44.558814, 23.75]]}}]}