{"type": "FeatureCollection", "features": [{"type": "Feature", "properties": {"creator": "BRouter-1.7.10", "name": "brouter_trekking_0", "track-length": "958", "filtered ascend": "4", "plain-ascend": "-2", "total-time": "167", "total-energy": "16672", "cost": "2376", "messages": [["Longitude", "Latitude", "Elevation", "Distance", "CostPerKm", "ElevCost", "TurnCost", "NodeCost", "InitialCost", "WayTags", "NodeTags", "Time", "Energy"], ["27363916", "44562005", "26", "75", "5050", "0", "90", "0", "0", "highway=footway", "", "16", "1625"], ["27364129", "44562004", "27", "17", "5050", "0", "0", "0", "0", "reversedirection=yes highway=footway", "highway=crossing", "19", "1919"], ["27364130", "44562122", "28", "13", "1150", "0", "90", "0", "0", "reversedirection=yes highway=residential surface=asphalt", "estimated_crossing_class=5", "21", "2174"], ["27364128", "44562198", "28", "8", "1450", "0", "0", "0", "0", "highway=tertiary surface=asphalt oneway=no", "highway=crossing", "23", "2340"], ["27363897", "44563794", "23", "177", "1450", "0", "0", "0", "0", "highway=tertiary surface=asphalt oneway=no", "highway=crossing", "52", "5236"], ["27363887", "44563848", "24", "6", "1450", "0", "0", "0", "0", "highway=tertiary surface=asphalt oneway=no", "", "53", "5329"], ["27363606", "44564121", "23", "40", "1450", "0", "9", "0", "0", "highway=tertiary surface=asphalt oneway=yes", "highway=crossing", "59", "5951"], ["27363656", "44564689", "25", "64", "5050", "0", "70", "0", "0", "highway=footway", "", "71", "7142"], ["27363628", "44565504", "21", "90", "1150", "0", "0", "0", "0", "reversedirection=yes highway=residential surface=asphalt oneway=no", "", "81", "8126"], ["27363719", "44566533", "23", "114", "1150", "0", "0", "0", "0", "highway=residential surface=asphalt oneway=yes", "", "102", "10291"], ["27364341", "44566819", "23", "59", "1150", "0", "36", "0", "0", "highway=residential surface=asphalt", "highway=crossing crossing=uncontrolled", "113", "11364"], ["27364439", "44566868", "23", "10", "1150", "0", "0", "0", "0", "highway=residential surface=asphalt", "", "115", "11541"], ["27364259", "44567120", "24", "31", "1150", "0", "81", "0", "0", "reversedirection=yes highway=residential surface=asphalt", "", "122", "12202"], ["27364876", "44567790", "23", "113", "1150", "0", "130", "0", "0", "highway=residential surface=asphalt oneway=yes", "", "140", "14050"], ["27363917", "44568393", "21", "141", "1150", "0", "89", "0", "0", "reversedirection=yes highway=residential surface=asphalt oneway=no", "", "166", "16672"]], "times": [0, 1.848, 4.368, 10.16, 16.256, 19.196, 21.746, 23.4, 29.426, 37.196, 42.116, 44.73, 48.327, 52.351, 53.291, 54.549, 55.814, 57.403, 59.51, 60.807, 64.553, 71.411, 78.729, 81.259, 84.287, 102.9, 113.628, 115.403, 118.217, 122.007, 125.652, 126.888, 130.063, 130.561, 131.191, 140.486, 151.923, 153.468, 160.879, 165.528, 166.699]}, "geometry": {"type": "LineString", "coordinates": [[27.363097, 44.561909, 24.0], [27.3631, 44.562007, 24.0], [27.363294, 44.562004, 24.0], [27.363639, 44.562005, 25.0], [27.363916, 44.562005, 26.25], [27.364129, 44.562004, 27.75], [27.36413, 44.562122, 28.25], [27.364128, 44.562198, 28.5], [27.364118, 44.5624, 26.75], [27.364082, 44.562787, 25.5], [27.36404, 44.563082, 24.75], [27.363999, 44.563291, 23.25], [27.363953, 44.563541, 23.5], [27.363897, 44.563794, 23.75], [27.363887, 44.563848, 24.0], [27.363864, 44.563915, 24.0], [27.363827, 44.563979, 24.0], [27.36375, 44.564052, 24.0], [27.363606, 44.564121, 23.75], [27.36364, 44.56419, 24.0], [27.36367, 44.564393, 24.0], [27.363656, 44.564689, 25.0], [27.363622, 44.565295, 21.75], [27.363628, 44.565504, 21.0], [27.363641, 44.565697, 22.0], [27.363719, 44.566533, 23.5], [27.364341, 44.566819, 23.5], [27.364439, 44.566868, 23.5], [27.364352, 44.566978, 24.0], [27.364259, 44.56712, 24.5], [27.364436, 44.567193, 24.75], [27.364502, 44.56721, 24.5], [27.364822, 44.56721, 22.5], [27.364862, 44.56723, 22.25], [27.364874, 44.567274, 22.25], [27.364876, 44.56779, 23.25], [27.364882, 44.568291, 24.25], [27.364886, 44.568365, 24.25], [27.36445, 44.56838, 24.75], [27.36403, 44.568391, 23.25], [27.363917, 44.568393, 21.5]]}}]}