{"type": "FeatureCollection", "features": [{"type": "Feature", "properties": {"creator": "BRouter-1.7.10", "name": "brouter_trekking_0", "track-length": "581", "filtered ascend": "0", "plain-ascend": "0", "total-time": "97", "total-energy": "9690", "cost": "1078", "messages": [["Longitude", "Latitude", "Elevation", "Distance", "CostPerKm", "ElevCost", "TurnCost", "NodeCost", "InitialCost", "WayTags", "NodeTags", "Time", "Energy"], ["27354971", "44562201", "25", "61", "5050", "0", "0", "0", "0", "reversedirection=yes highway=footway", "highway=crossing", "9", "976"], ["27354998", "44562336", "25", "15", "1150", "0", "93", "0", "0", "reversedirection=yes highway=residential surface=asphalt", "estimated_crossing_class=5", "12", "1235"], ["27355016", "44562420", "25", "9", "1150", "0", "0", "0", "0", "highway=residential surface=asphalt oneway=yes", "highway=crossing crossing=zebra", "14", "1401"], ["27355226", "44563373", "24", "107", "1150", "0", "0", "0", "0", "highway=residential surface=asphalt oneway=yes", "", "30", "3076"], ["27359906", "44563260", "24", "373", "1150", "0", "79", "0", "0", "highway=residential oneway=yes", "", "93", "9363"], ["27360110", "44563263", "25", "16", "1150", "0", "0", "0", "0", "reversedirection=yes highway=residential surface=asphalt oneway=no", "", "96", "9690"]], "times": [0, 0.336, 7.502, 9.762, 12.354, 14.01, 30.762, 48.579, 51.991, 65.513, 76.846, 77.577, 83.826, 93.627, 96.899]}, "geometry": {"type": "LineString", "coordinates": [[27.355727, 44.562143, 25.25], [27.355708, 44.562144, 25.25], [27.355141, 44.562188, 25.0], [27.354971, 44.562201, 25.0], [27.354998, 44.562336, 25.25], [27.355016, 44.56242, 25.5], [27.355226, 44.563373, 24.75], [27.35695, 44.563325, 23.0], [27.357186, 44.563319, 23.75], [27.357923, 44.563299, 25.0], [27.358677, 44.563274, 24.75], [27.358725, 44.563273, 24.75], [27.359242, 44.563266, 24.0], [27.359906, 44.56326, 24.75], [27.36011, 44.563263, 25.5]]}}]}