{"type": "FeatureCollection", "features": [{"type": "Feature", "properties": {"creator": "BRouter-1.7.10", "name": "brouter_trekking_0", "track-length": "0", "filtered ascend": "0", "plain-ascend": "0", "total-time": "0", "total-energy": "0", "cost": "5", "messages": [["Longitude", "Latitude", "Elevation", "Distance", "CostPerKm", "ElevCost", "TurnCost", "NodeCost", "InitialCost", "WayTags", "NodeTags", "Time", "Energy"]]}, "geometry": {"type": "LineString", "coordinates": [[27.351611, 44.562401, 26.25]]}}]}