{"type": "FeatureCollection", "features": [{"type": "Feature", "properties": {"creator": "BRouter-1.7.10", "name": "brouter_trekking_0", "track-length": "1609", "filtered ascend": "4", "plain-ascend": "-2", "total-time": "270", "total-energy": "26953", "cost": "3466", "messages": [["Longitude", "Latitude", "Elevation", "Distance", "CostPerKm", "ElevCost", "TurnCost", "NodeCost", "InitialCost", "WayTags", "NodeTags", "Time", "Energy"], ["27351513", "44562533", "26", "12", "5050", "0", "0", "0", "0", "reversedirection=yes highway=footway", "", "2", "201"], ["27352889", "44562400", "25", "110", "5050", "0", "132", "0", "0", "highway=footway", "", "19", "1907"], ["27352917", "44562532", "26", "15", "5150", "0", "88", "0", "0", "reversedirection=yes highway=residential surface=asphalt oneway=yes", "estimated_crossing_class=5", "21", "2164"], ["27352869", "44562537", "26", "4", "3050", "0", "90", "0", "0", "reversedirection=yes highway=primary surface=asphalt smoothness=excellent oneway=no", "estimated_crossing_class=5", "22", "2233"], ["27353114", "44564294", "23", "216", "1150", "0", "120", "0", "0", "highway=residential surface=asphalt oneway=yes", "", "51", "5176"], ["27353128", "44564622", "23", "36", "1150", "0", "0", "0", "0", "highway=residential surface=asphalt", "", "56", "5663"], ["27353782", "44564631", "24", "52", "1450", "0", "85", "0", "0", "highway=tertiary surface=asphalt oneway=yes", "highway=crossing crossing=uncontrolled", "66", "6643"], ["27355483", "44564645", "24", "136", "1450", "0", "0", "0", "0", "highway=tertiary surface=asphalt oneway=yes", "highway=crossing crossing=uncontrolled", "91", "9131"], ["27357365", "44564651", "25", "149", "1450", "0", "0", "0", "0", "highway=tertiary surface=asphalt oneway=yes", "highway=crossing", "119", "11991"], ["27358286", "44564654", "30", "73", "1450", "0", "0", "0", "0", "highway=tertiary surface=asphalt oneway=yes", "highway=crossing", "138", "13879"], ["27359762", "44564654", "24", "118", "1450", "0", "0", "0", "0", "highway=tertiary surface=asphalt oneway=yes", "highway=crossing", "156", "15678"], ["27361170", "44564399", "28", "117", "1450", "0", "2", "0", "0", "highway=tertiary surface=asphalt oneway=yes", "highway=crossing", "181", "18165"], ["27363536", "44564052", "23", "194", "1450", "0", "0", "0", "0", "highway=tertiary surface=asphalt oneway=yes", "highway=crossing", "208", "20808"], ["27363887", "44563848", "24", "37", "1450", "0", "0", "0", "0", "highway=tertiary surface=asphalt oneway=yes", "", "213", "21367"], ["27363897", "44563794", "23", "6", "1450", "0", "20", "0", "0", "reversedirection=yes highway=tertiary surface=asphalt oneway=no", "highway=crossing", "214", "21454"], ["27364040", "44563082", "24", "79", "1450", "0", "0", "0", "0", "reversedirection=yes highway=tertiary surface=asphalt oneway=no", "", "227", "22715"], ["27365190", "44563182", "22", "92", "1150", "0", "86", "0", "0", "highway=residential surface=asphalt oneway=yes", "", "240", "24006"], ["27365177", "44563955", "24", "86", "1150", "0", "80", "0", "0", "reversedirection=yes highway=residential surface=asphalt oneway=no", "highway=crossing crossing=uncontrolled", "257", "25789"], ["27365175", "44564009", "24", "6", "1150", "0", "0", "0", "0", "reversedirection=yes highway=residential surface=asphalt oneway=no", "", "258", "25889"], ["27364273", "44564006", "23", "71", "1050", "0", "88", "0", "0", "highway=tertiary surface=asphalt foot=yes bicycle=yes oneway=yes", "", "269", "26953"]], "times": [0, 2.016, 19.074, 21.648, 22.333, 23.701, 27.805, 29.179, 29.705, 35.938, 36.558, 37.18, 37.62, 42.062, 44.437, 51.756, 56.626, 66.427, 89.732, 91.309, 118, 119.902, 122.686, 123.809, 138.783, 141.569, 151.438, 156.765, 157.933, 159.319, 160.683, 173.984, 177.278, 181.63, 195.039, 196.697, 200.076, 201.471, 204.107, 205.457, 208.058, 209.848, 211.358, 213.65, 214.52, 218.455, 222.346, 227.124, 229.563, 240.033, 257.863, 258.865, 261.371, 268.706, 269.501]}, "geometry": {"type": "LineString", "coordinates": [[27.351565, 44.562432, 26.25], [27.351513, 44.562533, 26.25], [27.352889, 44.5624, 25.75], [27.352917, 44.562532, 26.0], [27.352869, 44.562537, 26.0], [27.352874, 44.562605, 26.0], [27.352855, 44.562846, 25.5], [27.352873, 44.562936, 25.0], [27.352898, 44.562968, 24.75], [27.353299, 44.563204, 25.25], [27.353329, 44.563229, 25.25], [27.353341, 44.563261, 25.25], [27.353334, 44.563292, 25.0], [27.353157, 44.563586, 24.0], [27.353082, 44.563742, 24.0], [27.353114, 44.564294, 23.0], [27.353128, 44.564622, 23.0], [27.353782, 44.564631, 24.25], [27.355374, 44.564644, 24.5], [27.355483, 44.564645, 24.5], [27.357238, 44.564649, 25.25], [27.357365, 44.564651, 25.5], [27.357525, 44.564651, 26.0], [27.357592, 44.564651, 26.25], [27.358286, 44.564654, 30.5], [27.358421, 44.564655, 30.75], [27.359213, 44.564657, 26.0], [27.359762, 44.564654, 24.5], [27.359871, 44.564654, 24.5], [27.360002, 44.564637, 24.25], [27.360122, 44.564613, 24.5], [27.36081, 44.564436, 26.75], [27.360975, 44.564415, 27.5], [27.36117, 44.564399, 28.0], [27.362201, 44.564337, 26.25], [27.362346, 44.564327, 25.5], [27.362732, 44.564283, 24.0], [27.362891, 44.564252, 23.5], [27.363187, 44.564178, 23.0], [27.363323, 44.564135, 23.0], [27.363536, 44.564052, 23.75], [27.363657, 44.563993, 24.0], [27.36375, 44.563939, 24.0], [27.363887, 44.563848, 24.0], [27.363897, 44.563794, 23.75], [27.363953, 44.563541, 23.5], [27.363999, 44.563291, 23.25], [27.36404, 44.563082, 24.75], [27.3642, 44.563093, 24.5], [27.36519, 44.563182, 22.75], [27.365177, 44.563955, 24.5], [27.365175, 44.564009, 24.0], [27.36498, 44.564008, 24.0], [27.364338, 44.564006, 23.25], [27.364273, 44.564006, 23.75]]}}]}