{"type": "FeatureCollection", "features": [{"type": "Feature", "properties": {"creator": "BRouter-1.7.10", "name": "brouter_trekking_0", "track-length": "1144", "filtered ascend": "11", "plain-ascend": "6", "total-time": "228", "total-energy": "22847", "cost": "1958", "messages": [["Longitude", "Latitude", "Elevation", "Distance", "CostPerKm", "ElevCost", "TurnCost", "NodeCost", "InitialCost", "WayTags", "NodeTags", "Time", "Energy"], ["27358225", "44569653", "19", "2", "5050", "0", "0", "0", "0", "highway=footway", "highway=crossing", "0", "33"], ["27358819", "44569262", "20", "64", "1150", "0", "13", "0", "0", "highway=residential surface=asphalt access=yes foot=yes bicycle=yes cycleway=no oneway=no", "", "13", "1354"], ["27358498", "44568995", "20", "39", "1050", "0", "87", "0", "0", "reversedirection=yes highway=tertiary surface=asphalt access=yes foot=yes bicycle=yes cycleway=no oneway=no", "highway=crossing", "21", "2137"], ["27358461", "44568964", "20", "5", "1050", "0", "0", "0", "0", "reversedirection=yes highway=tertiary surface=asphalt access=yes foot=yes bicycle=yes cycleway=no oneway=no", "", "22", "2234"], ["27358922", "44567988", "22", "115", "1050", "0", "44", "0", "0", "highway=tertiary surface=asphalt foot=yes bicycle=yes cycleway=no oneway=no", "highway=crossing crossing=uncontrolled", "48", "4873"], ["27359669", "44566461", "25", "180", "1050", "0", "0", "0", "0", "highway=tertiary surface=asphalt foot=yes bicycle=yes cycleway=no oneway=no", "", "98", "9824"], ["27359768", "44566263", "24", "23", "1450", "0", "0", "0", "0", "highway=tertiary surface=asphalt oneway=yes", "highway=crossing", "102", "10266"], ["27359874", "44564970", "25", "144", "1450", "0", "1", "0", "0", "highway=tertiary surface=asphalt oneway=yes", "highway=crossing", "129", "12998"], ["27359766", "44564773", "25", "29", "1450", "0", "86", "0", "0", "highway=tertiary surface=asphalt oneway=yes", "highway=crossing", "134", "13499"], ["27358283", "44564763", "30", "118", "1450", "0", "0", "0", "0", "highway=tertiary surface=asphalt oneway=yes", "highway=crossing", "162", "16296"], ["27357360", "44564756", "25", "73", "1450", "0", "0", "0", "0", "highway=tertiary surface=asphalt oneway=yes", "highway=crossing", "173", "17357"], ["27355483", "44564736", "25", "149", "1450", "0", "0", "0", "0", "highway=tertiary surface=asphalt oneway=yes", "highway=crossing crossing=uncontrolled", "195", "19541"], ["27353786", "44564718", "24", "135", "1450", "0", "0", "0", "0", "highway=tertiary surface=asphalt oneway=yes", "highway=crossing crossing=uncontrolled", "219", "21912"], ["27353782", "44564631", "24", "10", "5050", "0", "86", "0", "0", "highway=footway", "highway=crossing crossing=uncontrolled", "220", "22042"], ["27354506", "44564636", "24", "58", "1450", "0", "94", "0", "0", "highway=tertiary surface=asphalt oneway=yes", "", "228", "22847"]], "times": [0, 0.336, 13.541, 21.375, 22.343, 36.371, 45.469, 46.324, 48.728, 57.844, 75.937, 98.22, 102.644, 107.036, 109.65, 129.958, 131.235, 133.609, 134.965, 145.414, 162.928, 171.768, 173.546, 195.383, 196.809, 214.643, 219.094, 220.392, 228.442]}, "geometry": {"type": "LineString", "coordinates": [[27.358216, 44.569674, 19.0], [27.358225, 44.569653, 19.0], [27.358819, 44.569262, 20.0], [27.358498, 44.568995, 20.25], [27.358461, 44.568964, 20.25], [27.358714, 44.568446, 21.25], [27.358868, 44.568105, 21.75], [27.35888, 44.568073, 21.75], [27.358922, 44.567988, 22.25], [27.359035, 44.567759, 24.0], [27.359285, 44.567243, 24.5], [27.359669, 44.566461, 25.0], [27.359768, 44.566263, 24.75], [27.359848, 44.566042, 24.5], [27.359869, 44.565909, 24.5], [27.359874, 44.56497, 25.25], [27.359873, 44.564903, 25.25], [27.359869, 44.564774, 25.0], [27.359766, 44.564773, 25.0], [27.359215, 44.564768, 26.5], [27.358283, 44.564763, 30.25], [27.357526, 44.564758, 25.75], [27.35736, 44.564756, 25.25], [27.355483, 44.564736, 25.0], [27.355373, 44.564735, 25.0], [27.354216, 44.564722, 26.0], [27.353786, 44.564718, 24.5], [27.353782, 44.564631, 24.25], [27.354506, 44.564636, 24.5]]}}]}