{"type": "FeatureCollection", "features": [{"type": "Feature", "properties": {"creator": "BRouter-1.7.10", "name": "brouter_trekking_0", "track-length": "404", "filtered ascend": "1", "plain-ascend": "-5", "total-time": "58", "total-energy": "5845", "cost": "1049", "messages": [["Longitude", "Latitude", "Elevation", "Distance", "CostPerKm", "ElevCost", "TurnCost", "NodeCost", "InitialCost", "WayTags", "NodeTags", "Time", "Energy"], ["27361587", "44558927", "25", "48", "5050", "0", "147", "0", "0", "highway=footway", "", "6", "699"], ["27361945", "44558363", "25", "69", "1450", "0", "145", "0", "0", "highway=tertiary surface=asphalt", "", "17", "1729"], ["27362097", "44558403", "24", "13", "1150", "0", "83", "0", "0", "highway=residential surface=asphalt", "highway=crossing", "18", "1891"], ["27362884", "44558594", "21", "66", "1150", "0", "0", "0", "0", "highway=residential surface=asphalt", "highway=crossing", "27", "2720"], ["27364352", "44558955", "21", "123", "1150", "0", "0", "0", "0", "highway=residential surface=asphalt", "highway=crossing", "44", "4493"], ["27365368", "44559196", "21", "85", "1150", "0", "0", "0", "0", "highway=residential surface=asphalt", "", "58", "5845"]], "times": [0, 2.623, 6.992, 17.295, 18.914, 22.089, 27.2, 28.778, 39.137, 44.928, 46.484, 58.449]}, "geometry": {"type": "LineString", "coordinates": [[27.361518, 44.558659, 26.75], [27.361373, 44.558639, 27.75], [27.361587, 44.558927, 25.25], [27.361945, 44.558363, 25.75], [27.362097, 44.558403, 24.75], [27.362458, 44.558495, 23.5], [27.362884, 44.558594, 21.5], [27.36303, 44.558622, 21.0], [27.363894, 44.558843, 21.0], [27.364352, 44.558955, 21.0], [27.364477, 44.558983, 21.0], [27.365368, 44.559196, 21.0]]}}]}