{"type": "FeatureCollection", "features": [{"type": "Feature", "properties": {"creator": "BRouter-1.7.10", "name": "brouter_trekking_0", "track-length": "947", "filtered ascend": "5", "plain-ascend": "4", "total-time": "181", "total-energy": "18143", "cost": "2568", "messages": [["Longitude", "Latitude", "Elevation", "Distance", "CostPerKm", "ElevCost", "TurnCost", "NodeCost", "InitialCost", "WayTags", "NodeTags", "Time", "Energy"], ["27354878", "44558202", "27", "158", "1150", "0", "0", "0", "0", "reversedirection=yes highway=residential", "", "31", "3165"], ["27355058", "44558240", "27", "15", "1150", "0", "94", "0", "0", "highway=residential oneway=yes", "", "34", "3496"], ["27354627", "44559299", "26", "123", "1150", "0", "86", "0", "0", "highway=residential surface=asphalt oneway=yes", "", "64", "6458"], ["27354971", "44562201", "25", "326", "1150", "0", "11", "0", "0", "reversedirection=yes highway=residential surface=asphalt", "highway=crossing", "126", "12684"], ["27354998", "44562336", "25", "15", "1150", "0", "0", "0", "0", "reversedirection=yes highway=residential surface=asphalt", "estimated_crossing_class=5", "128", "12886"], ["27354854", "44562347", "25", "12", "3050", "0", "93", "0", "0", "reversedirection=yes highway=primary surface=asphalt smoothness=excellent oneway=no", "highway=crossing estimated_crossing_class=0 crossing=zebra", "130", "13061"], ["27352994", "44562526", "26", "149", "3050", "0", "0", "0", "0", "reversedirection=yes highway=primary surface=asphalt smoothness=excellent oneway=no", "highway=crossing estimated_crossing_class=5", "155", "15560"], ["27352917", "44562532", "26", "6", "3050", "0", "0", "0", "0", "reversedirection=yes highway=primary surface=asphalt smoothness=excellent oneway=no", "estimated_crossing_class=5", "156", "15660"], ["27352889", "44562400", "25", "15", "1150", "0", "86", "0", "0", "highway=residential surface=asphalt oneway=yes", "", "158", "15897"], ["27351513", "44562533", "26", "110", "5050", "0", "88", "0", "0", "reversedirection=yes highway=footway", "", "178", "17833"], ["27351583", "44562398", "26", "16", "5050", "0", "132", "0", "0", "highway=footway", "", "181", "18109"], ["27351611", "44562401", "26", "2", "5050", "0", "72", "0", "0", "reversedirection=yes highway=footway", "", "181", "18143"]], "times": [0, 20.433, 31.647, 34.956, 40.204, 64.571, 65.831, 73.964, 77.672, 79.962, 89.097, 96.287, 100.715, 113.724, 118.393, 120.691, 123.575, 126.827, 128.84, 130.59, 155.576, 156.584, 158.951, 178.314, 181.066, 181.409]}, "geometry": {"type": "LineString", "coordinates": [[27.35554, 44.556862, 22.5], [27.355068, 44.557811, 26.0], [27.354878, 44.558202, 27.5], [27.355058, 44.55824, 27.5], [27.354983, 44.558458, 27.5], [27.354627, 44.559299, 26.0], [27.354614, 44.55935, 26.0], [27.354693, 44.559729, 25.75], [27.354733, 44.5599, 26.0], [27.35476, 44.560009, 26.0], [27.354838, 44.560354, 27.0], [27.354891, 44.560622, 27.5], [27.354919, 44.560798, 27.5], [27.354978, 44.561345, 27.75], [27.355007, 44.561589, 27.25], [27.355009, 44.561732, 26.5], [27.354938, 44.561957, 25.0], [27.354971, 44.562201, 25.0], [27.354998, 44.562336, 25.25], [27.354854, 44.562347, 25.5], [27.352994, 44.562526, 26.0], [27.352917, 44.562532, 26.0], [27.352889, 44.5624, 25.75], [27.351513, 44.562533, 26.25], [27.351583, 44.562398, 26.25], [27.351611, 44.562401, 26.5]]}}]}