{"type": "FeatureCollection", "features": [{"type": "Feature", "properties": {"creator": "BRouter-1.7.10", "name": "brouter_trekking_0", "track-length": "2532", "filtered ascend": "6", "plain-ascend": "0", "total-time": "442", "total-energy": "44167", "cost": "3902", "messages": [["Longitude", "Latitude", "Elevation", "Distance", "CostPerKm", "ElevCost", "TurnCost", "NodeCost", "InitialCost", "WayTags", "NodeTags", "Time", "Energy"], ["27375054", "44563480", "21", "11", "1150", "0", "0", "0", "0", "highway=residential surface=asphalt", "", "1", "184"], ["27372722", "44564791", "22", "237", "1150", "0", "36", "0", "0", "reversedirection=yes highway=residential surface=asphalt", "", "46", "4653"], ["27371698", "44564065", "22", "115", "1150", "0", "71", "0", "0", "highway=residential surface=asphalt oneway=yes", "highway=crossing", "65", "6592"], ["27371605", "44563996", "22", "11", "1150", "0", "0", "0", "0", "highway=residential surface=asphalt oneway=yes", "", "67", "6778"], ["27371528", "44564077", "21", "11", "1450", "0", "108", "0", "0", "reversedirection=yes highway=tertiary surface=asphalt", "highway=crossing", "69", "6941"], ["27371283", "44564355", "20", "36", "1450", "0", "0", "0", "0", "reversedirection=yes highway=tertiary surface=asphalt", "", "73", "7373"], ["27371201", "44564348", "21", "7", "1450", "0", "53", "0", "0", "reversedirection=yes highway=tertiary surface=asphalt oneway=no", "highway=crossing", "74", "7472"], ["27370268", "44564264", "23", "75", "1450", "0", "0", "0", "0", "reversedirection=yes highway=tertiary surface=asphalt oneway=no", "", "91", "9120"], ["27364209", "44564006", "23", "481", "1050", "0", "0", "0", "0", "highway=tertiary surface=asphalt foot=yes bicycle=yes oneway=yes", "highway=crossing", "180", "18060"], ["27363843", "44564050", "24", "30", "1050", "0", "3", "0", "0", "highway=tertiary surface=asphalt foot=yes bicycle=yes oneway=yes", "highway=crossing", "185", "18590"], ["27363750", "44564052", "24", "7", "1050", "0", "0", "0", "0", "highway=tertiary surface=asphalt foot=yes bicycle=yes oneway=yes", "", "187", "18713"], ["27363606", "44564121", "23", "14", "1450", "0", "13", "0", "0", "highway=tertiary surface=asphalt oneway=yes", "highway=crossing", "189", "18944"], ["27361167", "44564483", "28", "200", "1450", "0", "0", "0", "0", "highway=tertiary surface=asphalt oneway=yes", "highway=crossing", "227", "22792"], ["27360981", "44564502", "27", "15", "1450", "0", "0", "0", "0", "highway=tertiary surface=asphalt oneway=yes", "", "232", "23299"], ["27360974", "44564329", "27", "20", "1450", "0", "98", "0", "0", "highway=tertiary surface=asphalt", "highway=crossing", "239", "23911"], ["27360893", "44562252", "25", "230", "1450", "0", "0", "0", "0", "highway=tertiary surface=asphalt", "highway=crossing crossing=zebra", "279", "27962"], ["27360890", "44562148", "26", "12", "1450", "0", "0", "0", "0", "highway=tertiary surface=asphalt", "estimated_crossing_class=5", "281", "28193"], ["27360887", "44562026", "27", "14", "1450", "0", "0", "0", "0", "highway=tertiary surface=asphalt", "highway=crossing crossing=uncontrolled", "285", "28516"], ["27360845", "44561073", "26", "106", "1450", "0", "0", "0", "0", "highway=tertiary surface=asphalt", "", "304", "30472"], ["27359132", "44561114", "25", "136", "1150", "0", "90", "0", "0", "highway=residential surface=asphalt oneway=no", "", "325", "32591"], ["27359097", "44560339", "25", "87", "1150", "0", "90", "0", "0", "highway=residential surface=asphalt", "highway=crossing crossing=uncontrolled", "339", "33970"], ["27355068", "44557811", "26", "565", "1150", "0", "164", "0", "0", "highway=residential surface=asphalt", "", "424", "42420"], ["27355540", "44556862", "21", "112", "1150", "0", "92", "0", "0", "highway=residential", "", "441", "44167"]], "times": [0, 1.848, 10.402, 19.009, 36.378, 46.528, 65.926, 67.778, 69.415, 72.731, 73.728, 74.721, 91.198, 116.35, 131.177, 132.598, 135.007, 153.906, 159.009, 169.261, 171.702, 178.911, 180.584, 181.086, 183.761, 185.885, 187.118, 189.422, 192.359, 194.307, 198.769, 201.502, 208.357, 211.974, 227.896, 232.968, 236.109, 239.083, 263.682, 265.848, 272.818, 273.969, 278.016, 279.593, 281.902, 285.129, 304.688, 317.759, 320.056, 325.879, 330.968, 339.669, 364.75, 373.241, 374.657, 375.843, 377.407, 400.146, 404.172, 424.148, 441.613]}, "geometry": {"type": "LineString", "coordinates": [[27.375186, 44.563491, 21.25], [27.375054, 44.56348, 21.25], [27.374674, 44.563757, 22.0], [27.374256, 44.564044, 22.0], [27.373248, 44.564546, 22.0], [27.372722, 44.564791, 22.75], [27.371698, 44.564065, 22.25], [27.371605, 44.563996, 22.25], [27.371528, 44.564077, 21.75], [27.371338, 44.56429, 20.5], [27.371283, 44.564355, 20.5], [27.371201, 44.564348, 21.0], [27.370268, 44.564264, 23.0], [27.368982, 44.564151, 24.5], [27.367874, 44.564071, 23.75], [27.367757, 44.564065, 23.5], [27.367542, 44.564058, 23.0], [27.366338, 44.56403, 24.5], [27.365986, 44.564023, 24.5], [27.365175, 44.564009, 24.0], [27.36498, 44.564008, 24.0], [27.364338, 44.564006, 23.25], [27.364209, 44.564006, 23.75], [27.364172, 44.564007, 23.75], [27.36399, 44.564039, 24.0], [27.363843, 44.56405, 24.0], [27.36375, 44.564052, 24.0], [27.363606, 44.564121, 23.75], [27.363381, 44.564211, 23.25], [27.36323, 44.56426, 23.25], [27.362917, 44.564341, 23.75], [27.36274, 44.564377, 24.0], [27.362372, 44.56442, 25.0], [27.36221, 44.564431, 26.0], [27.361167, 44.564483, 28.0], [27.360981, 44.564502, 27.5], [27.360975, 44.564415, 27.5], [27.360974, 44.564329, 27.5], [27.360931, 44.563248, 26.75], [27.360924, 44.563112, 25.75], [27.360912, 44.562653, 25.25], [27.360907, 44.56258, 25.25], [27.360899, 44.562345, 25.5], [27.360893, 44.562252, 25.5], [27.36089, 44.562148, 26.25], [27.360887, 44.562026, 27.0], [27.360845, 44.561073, 26.5], [27.3599, 44.561097, 26.5], [27.359698, 44.561102, 25.75], [27.359132, 44.561114, 25.0], [27.359117, 44.560776, 24.75], [27.359097, 44.560339, 25.75], [27.359029, 44.5588, 24.5], [27.359017, 44.558277, 24.0], [27.358897, 44.558234, 23.25], [27.358832, 44.558164, 23.25], [27.358822, 44.558065, 23.5], [27.356804, 44.558137, 22.75], [27.356461, 44.558143, 22.5], [27.355068, 44.557811, 26.0], [27.35554, 44.556862, 21.0]]}}]}