{"type": "FeatureCollection", "features": [{"type": "Feature", "properties": {"creator": "BRouter-1.7.10", "name": "brouter_trekking_0", "track-length": "2654", "filtered ascend": "6", "plain-ascend": "-3", "total-time": "451", "total-energy": "45134", "cost": "5762", "messages": [["Longitude", "Latitude", "Elevation", "Distance", "CostPerKm", "ElevCost", "TurnCost", "NodeCost", "InitialCost", "WayTags", "NodeTags", "Time", "Energy"], ["27370599", "44561480", "23", "70", "5050", "0", "83", "0", "0", "highway=footway", "", "9", "948"], ["27368560", "44561248", "24", "184", "1150", "0", "227", "0", "0", "reversedirection=yes highway=residential surface=asphalt oneway=no", "", "39", "3955"], ["27368370", "44561194", "24", "17", "1150", "0", "67", "0", "0", "reversedirection=yes highway=residential oneway=no", "", "42", "4274"], ["27366485", "44561168", "25", "150", "1150", "0", "0", "0", "0", "reversedirection=yes highway=residential surface=asphalt oneway=no", "", "73", "7352"], ["27366251", "44561413", "24", "33", "1150", "0", "70", "0", "0", "reversedirection=yes highway=residential surface=asphalt", "", "79", "7934"], ["27364049", "44561195", "24", "183", "1150", "0", "37", "0", "0", "highway=residential surface=asphalt oneway=yes", "", "111", "11154"], ["27364129", "44562004", "27", "90", "1150", "0", "90", "0", "0", "reversedirection=yes highway=residential surface=asphalt", "highway=crossing", "125", "12569"], ["27364130", "44562122", "28", "13", "1150", "0", "0", "0", "0", "reversedirection=yes highway=residential surface=asphalt", "estimated_crossing_class=5", "128", "12831"], ["27364128", "44562198", "28", "8", "1450", "0", "0", "0", "0", "highway=tertiary surface=asphalt oneway=no", "highway=crossing", "129", "13000"], ["27363897", "44563794", "23", "177", "1450", "0", "0", "0", "0", "highway=tertiary surface=asphalt oneway=no", "highway=crossing", "159", "15925"], ["27363887", "44563848", "24", "6", "1450", "0", "0", "0", "0", "highway=tertiary surface=asphalt oneway=no", "", "160", "16019"], ["27363606", "44564121", "23", "40", "1450", "0", "9", "0", "0", "highway=tertiary surface=asphalt oneway=yes", "highway=crossing", "166", "16643"], ["27361167", "44564483", "28", "200", "1450", "0", "0", "0", "0", "highway=tertiary surface=asphalt oneway=yes", "highway=crossing", "203", "20362"], ["27359766", "44564773", "25", "116", "1450", "0", "3", "0", "0", "highway=tertiary surface=asphalt oneway=yes", "highway=crossing", "226", "22664"], ["27358283", "44564763", "30", "118", "1450", "0", "0", "0", "0", "highway=tertiary surface=asphalt oneway=yes", "highway=crossing", "253", "25337"], ["27357360", "44564756", "25", "73", "1450", "0", "0", "0", "0", "highway=tertiary surface=asphalt oneway=yes", "highway=crossing", "263", "26383"], ["27355483", "44564736", "25", "149", "1450", "0", "0", "0", "0", "highway=tertiary surface=asphalt oneway=yes", "highway=crossing crossing=uncontrolled", "285", "28557"], ["27353786", "44564718", "24", "135", "1450", "0", "0", "0", "0", "highway=tertiary surface=asphalt oneway=yes", "highway=crossing crossing=uncontrolled", "309", "30925"], ["27351172", "44564692", "24", "208", "1450", "0", "0", "0", "0", "highway=tertiary surface=asphalt oneway=yes", "highway=crossing", "342", "34253"], ["27350877", "44564671", "23", "24", "1450", "0", "0", "0", "0", "highway=tertiary surface=asphalt oneway=yes", "", "345", "34580"], ["27350964", "44564475", "23", "23", "1450", "0", "99", "0", "0", "reversedirection=yes highway=tertiary surface=asphalt", "highway=crossing", "348", "34891"], ["27351896", "44562911", "26", "189", "1450", "0", "0", "0", "0", "reversedirection=yes highway=tertiary surface=asphalt", "highway=crossing", "384", "38478"], ["27352102", "44562614", "27", "37", "1450", "0", "0", "0", "0", "reversedirection=yes highway=tertiary surface=asphalt", "estimated_crossing_class=5", "394", "39495"], ["27350782", "44562739", "24", "105", "3050", "0", "140", "0", "0", "reversedirection=yes highway=primary surface=asphalt oneway=no", "railway=level_crossing", "409", "40915"], ["27350307", "44562790", "25", "38", "3050", "0", "0", "0", "0", "reversedirection=yes highway=primary surface=asphalt oneway=no", "", "415", "41599"], ["27349730", "44562832", "24", "46", "3050", "0", "2", "0", "0", "highway=primary surface=asphalt oneway=yes", "highway=give_way direction=forward", "423", "42317"], ["27349583", "44562801", "24", "12", "3050", "0", "1", "0", "0", "highway=primary surface=asphalt oneway=yes", "", "424", "42491"], ["27349137", "44562630", "23", "61", "10050", "0", "0", "0", "0", "highway=trunk surface=asphalt foot=no smoothness=good junction=roundabout", "", "433", "43362"], ["27349005", "44562429", "22", "25", "1350", "0", "18", "0", "0", "highway=service surface=asphalt oneway=yes", "", "436", "43669"], ["27348918", "44562180", "21", "29", "1350", "0", "5", "0", "0", "highway=service surface=asphalt", "", "439", "44003"], ["27347883", "44562320", "21", "95", "1350", "0", "181", "0", "0", "reversedirection=yes highway=service", "", "451", "45134"]], "times": [0, 2.52, 9.485, 11.541, 12.239, 13.368, 15.172, 16.148, 17.047, 19.615, 20.981, 23.385, 29.527, 39.548, 40.303, 41.243, 42.735, 53.852, 54.882, 69.286, 73.518, 75.693, 77.491, 79.333, 80.275, 81.853, 84.052, 86.521, 89.146, 92.355, 96.139, 98.319, 102.884, 111.534, 112.773, 114.739, 116.604, 119.243, 125.679, 128.292, 129.982, 136.115, 143.99, 148.951, 151.578, 155.19, 159.228, 160.171, 161.433, 162.701, 164.294, 166.406, 169.15, 170.986, 175.218, 177.833, 184.446, 187.966, 203.598, 208.623, 212.408, 222.56, 224.11, 225.359, 226.615, 236.428, 253.337, 262.036, 263.795, 285.509, 286.933, 304.738, 309.186, 314.939, 342.465, 345.74, 347.071, 348.842, 350.963, 360.133, 368.947, 384.713, 394.876, 404.352, 409.075, 409.837, 415.912, 421.027, 422.087, 423.092, 424.838, 425.279, 426.166, 427.008, 427.858, 428.572, 429.581, 430.6, 431.629, 432.607, 433.543, 435.642, 436.612, 437.436, 438.47, 439.945, 441.431, 449.82, 451.259]}, "geometry": {"type": "LineString", "coordinates": [[27.370839, 44.560989, 24.5], [27.370645, 44.56099, 24.5], [27.370599, 44.56148, 23.0], [27.370581, 44.561345, 23.0], [27.370542, 44.561307, 23.0], [27.370455, 44.561277, 23.0], [27.370294, 44.561238, 22.5], [27.370224, 44.561201, 22.75], [27.370156, 44.561177, 23.0], [27.369973, 44.56117, 23.5], [27.369882, 44.561192, 23.5], [27.369711, 44.561246, 23.25], [27.369207, 44.561244, 23.0], [27.36856, 44.561248, 24.0], [27.368535, 44.561218, 24.0], [27.368471, 44.5612, 24.0], [27.36837, 44.561194, 24.0], [27.36768, 44.561176, 24.5], [27.367613, 44.561176, 24.75], [27.366773, 44.56117, 25.25], [27.366485, 44.561168, 25.0], [27.366436, 44.561273, 25.0], [27.366365, 44.56135, 25.0], [27.366251, 44.561413, 24.75], [27.366174, 44.56143, 24.5], [27.366047, 44.561447, 24.5], [27.365881, 44.561444, 24.75], [27.36573, 44.561434, 25.5], [27.365609, 44.561405, 26.5], [27.365486, 44.56135, 26.75], [27.365321, 44.56126, 26.5], [27.365225, 44.561192, 26.0], [27.364848, 44.561193, 25.0], [27.364049, 44.561195, 24.25], [27.36405, 44.561276, 24.0], [27.364062, 44.561402, 24.0], [27.364086, 44.561519, 24.0], [27.364116, 44.56168, 24.0], [27.364129, 44.562004, 27.75], [27.36413, 44.562122, 28.25], [27.364128, 44.562198, 28.5], [27.364118, 44.5624, 26.75], [27.364082, 44.562787, 25.5], [27.36404, 44.563082, 24.75], [27.363999, 44.563291, 23.25], [27.363953, 44.563541, 23.5], [27.363897, 44.563794, 23.75], [27.363887, 44.563848, 24.0], [27.363864, 44.563915, 24.0], [27.363827, 44.563979, 24.0], [27.36375, 44.564052, 24.0], [27.363606, 44.564121, 23.75], [27.363381, 44.564211, 23.25], [27.36323, 44.56426, 23.25], [27.362917, 44.564341, 23.75], [27.36274, 44.564377, 24.0], [27.362372, 44.56442, 25.0], [27.36221, 44.564431, 26.0], [27.361167, 44.564483, 28.0], [27.360981, 44.564502, 27.5], [27.360822, 44.564529, 27.25], [27.360095, 44.56474, 25.25], [27.359974, 44.564762, 25.0], [27.359869, 44.564774, 25.0], [27.359766, 44.564773, 25.0], [27.359215, 44.564768, 26.5], [27.358283, 44.564763, 30.25], [27.357526, 44.564758, 25.75], [27.35736, 44.564756, 25.25], [27.355483, 44.564736, 25.0], [27.355373, 44.564735, 25.0], [27.354216, 44.564722, 26.0], [27.353786, 44.564718, 24.5], [27.353131, 44.564709, 23.0], [27.351172, 44.564692, 24.75], [27.350877, 44.564671, 23.75], [27.350898, 44.564586, 23.5], [27.350964, 44.564475, 23.5], [27.35104, 44.56434, 23.25], [27.351294, 44.563868, 24.0], [27.351568, 44.563406, 23.75], [27.351896, 44.562911, 26.0], [27.352102, 44.562614, 27.0], [27.35121, 44.562695, 24.25], [27.350782, 44.562739, 24.0], [27.350715, 44.562748, 24.25], [27.350307, 44.56279, 25.0], [27.349906, 44.56284, 24.5], [27.349812, 44.56284, 24.25], [27.34973, 44.562832, 24.0], [27.349583, 44.562801, 24.0], [27.34956, 44.562821, 24.0], [27.349503, 44.562853, 24.0], [27.349435, 44.562873, 23.75], [27.349362, 44.562878, 23.75], [27.349301, 44.56287, 23.75], [27.349226, 44.562844, 23.75], [27.349167, 44.562802, 23.75], [27.34913, 44.562748, 23.75], [27.34912, 44.562688, 23.5], [27.349137, 44.56263, 23.25], [27.349045, 44.562492, 22.75], [27.349005, 44.562429, 22.5], [27.348958, 44.562374, 22.25], [27.348929, 44.562295, 22.0], [27.348918, 44.56218, 21.75], [27.348773, 44.562186, 22.0], [27.347873, 44.562222, 21.0], [27.347883, 44.56232, 21.0]]}}]}