{"type": "FeatureCollection", "features": [{"type": "Feature", "properties": {"creator": "BRouter-1.7.10", "name": "brouter_trekking_0", "track-length": "217", "filtered ascend": "4", "plain-ascend": "0", "total-time": "41", "total-energy": "4148", "cost": "469", "messages": [["Longitude", "Latitude", "Elevation", "Distance", "CostPerKm", "ElevCost", "TurnCost", "NodeCost", "InitialCost", "WayTags", "NodeTags", "Time", "Energy"], ["27359976", "44564905", "25", "50", "1150", "0", "0", "0", "0", "reversedirection=yes highway=residential", "highway=crossing", "7", "721"], ["27359873", "44564903", "25", "8", "1150", "0", "0", "0", "0", "reversedirection=yes highway=residential", "", "8", "834"], ["27359766", "44564773", "25", "22", "1450", "0", "171", "0", "0", "highway=tertiary surface=asphalt oneway=yes", "highway=crossing", "11", "1136"], ["27358283", "44564763", "30", "118", "1450", "0", "0", "0", "0", "highway=tertiary surface=asphalt oneway=yes", "highway=crossing", "36", "3607"], ["27358047", "44564761", "25", "19", "1450", "0", "0", "0", "0", "highway=tertiary surface=asphalt oneway=yes", "", "41", "4148"]], "times": [0, 7.212, 8.341, 10.244, 11.354, 20.155, 36.062, 41.469]}, "geometry": {"type": "LineString", "coordinates": [[27.360604, 44.564922, 26.25], [27.359976, 44.564905, 25.5], [27.359873, 44.564903, 25.25], [27.359869, 44.564774, 25.0], [27.359766, 44.564773, 25.0], [27.359215, 44.564768, 26.5], [27.358283, 44.564763, 30.25], [27.358047, 44.564761, 25.75]]}}]}