{"type": "FeatureCollection", "features": [{"type": "Feature", "properties": {"creator": "BRouter-1.7.10", "name": "brouter_trekking_0", "track-length": "1103", "filtered ascend": "5", "plain-ascend": "-1", "total-time": "201", "total-energy": "20101", "cost": "1837", "messages": [["Longitude", "Latitude", "Elevation", "Distance", "CostPerKm", "ElevCost", "TurnCost", "NodeCost", "InitialCost", "WayTags", "NodeTags", "Time", "Energy"], ["27350804", "44564933", "23", "20", "1350", "0", "0", "0", "0", "reversedirection=yes highway=service", "", "3", "380"], ["27350877", "44564671", "23", "29", "1150", "0", "109", "0", "0", "reversedirection=yes highway=residential surface=asphalt", "", "9", "935"], ["27350964", "44564475", "23", "23", "1450", "0", "2", "0", "0", "reversedirection=yes highway=tertiary surface=asphalt", "highway=crossing", "13", "1324"], ["27351896", "44562911", "26", "189", "1450", "0", "0", "0", "0", "reversedirection=yes highway=tertiary surface=asphalt", "highway=crossing", "52", "5238"], ["27352102", "44562614", "27", "37", "1450", "0", "0", "0", "0", "reversedirection=yes highway=tertiary surface=asphalt", "estimated_crossing_class=5", "62", "6282"], ["27352869", "44562537", "26", "62", "3050", "0", "39", "0", "0", "highway=primary surface=asphalt smoothness=excellent oneway=no", "estimated_crossing_class=5", "74", "7448"], ["27352917", "44562532", "26", "4", "3050", "0", "0", "0", "0", "highway=primary surface=asphalt smoothness=excellent oneway=no", "estimated_crossing_class=5", "75", "7520"], ["27353392", "44559993", "24", "289", "1150", "0", "91", "0", "0", "highway=residential surface=asphalt oneway=yes", "", "119", "11917"], ["27354262", "44557637", "24", "271", "1150", "0", "11", "0", "0", "highway=residential surface=asphalt", "", "169", "16933"], ["27355068", "44557811", "26", "67", "1150", "0", "28", "0", "0", "reversedirection=yes highway=residential surface=asphalt", "", "182", "18244"], ["27355540", "44556862", "21", "112", "1150", "0", "87", "0", "0", "highway=residential", "", "200", "20101"]], "times": [0, 3.807, 6.99, 9.356, 11.047, 13.243, 15.783, 26.355, 35.893, 52.376, 62.811, 74.47, 75.197, 77.739, 84.692, 88.173, 97.126, 108.763, 119.153, 144.946, 159.959, 162.901, 169.029, 169.309, 169.756, 182.416, 200.994]}, "geometry": {"type": "LineString", "coordinates": [[27.350573, 44.56487, 23.25], [27.350804, 44.564933, 23.75], [27.350834, 44.564788, 24.0], [27.350877, 44.564671, 23.75], [27.350898, 44.564586, 23.5], [27.350964, 44.564475, 23.5], [27.35104, 44.56434, 23.25], [27.351294, 44.563868, 24.0], [27.351568, 44.563406, 23.75], [27.351896, 44.562911, 26.0], [27.352102, 44.562614, 27.0], [27.352869, 44.562537, 26.0], [27.352917, 44.562532, 26.0], [27.352889, 44.5624, 25.75], [27.352832, 44.561974, 25.0], [27.352827, 44.561771, 25.0], [27.352929, 44.561234, 24.75], [27.353139, 44.560652, 25.25], [27.353392, 44.559993, 24.0], [27.35377, 44.558887, 28.75], [27.354002, 44.558257, 26.5], [27.354084, 44.558053, 24.5], [27.35424, 44.557653, 24.5], [27.354262, 44.557637, 24.5], [27.354305, 44.557634, 24.75], [27.355068, 44.557811, 26.0], [27.35554, 44.556862, 21.0]]}}]}