{"type": "FeatureCollection", "features": [{"type": "Feature", "properties": {"creator": "BRouter-1.7.10", "name": "brouter_trekking_0", "track-length": "1575", "filtered ascend": "0", "plain-ascend": "-6", "total-time": "241", "total-energy": "24084", "cost": "3256", "messages": [["Longitude", "Latitude", "Elevation", "Distance", "CostPerKm", "ElevCost", "TurnCost", "NodeCost", "InitialCost", "WayTags", "NodeTags", "Time", "Energy"], ["27351513", "44562533", "26", "12", "5050", "0", "0", "0", "0", "reversedirection=yes highway=footway", "", "2", "201"], ["27352889", "44562400", "25", "110", "5050", "0", "132", "0", "0", "highway=footway", "", "19", "1907"], ["27352917", "44562532", "26", "15", "5150", "0", "88", "0", "0", "reversedirection=yes highway=residential surface=asphalt oneway=yes", "estimated_crossing_class=5", "21", "2164"], ["27352869", "44562537", "26", "4", "3050", "0", "90", "0", "0", "reversedirection=yes highway=primary surface=asphalt smoothness=excellent oneway=no", "estimated_crossing_class=5", "22", "2233"], ["27352102", "44562614", "27", "62", "3050", "0", "0", "0", "0", "reversedirection=yes highway=primary surface=asphalt smoothness=excellent oneway=no", "estimated_crossing_class=5", "35", "3533"], ["27351896", "44562911", "26", "37", "1450", "0", "39", "0", "0", "highway=tertiary surface=asphalt", "highway=crossing", "40", "4100"], ["27350964", "44564475", "23", "189", "1450", "0", "0", "0", "0", "highway=tertiary surface=asphalt", "highway=crossing", "64", "6480"], ["27350877", "44564671", "23", "23", "1450", "0", "2", "0", "0", "highway=tertiary surface=asphalt", "", "68", "6836"], ["27350804", "44565008", "23", "37", "1150", "0", "1", "0", "0", "highway=residential surface=asphalt", "highway=crossing crossing=uncontrolled", "74", "7449"], ["27351110", "44569619", "22", "515", "1150", "0", "0", "0", "0", "highway=residential surface=asphalt", "", "157", "15753"], ["27353103", "44569638", "21", "158", "1150", "0", "84", "0", "0", "highway=residential surface=asphalt oneway=yes", "highway=crossing", "180", "18032"], ["27358107", "44569736", "19", "398", "1150", "0", "2", "0", "0", "highway=residential surface=asphalt oneway=yes", "", "238", "23835"], ["27358225", "44569653", "19", "13", "5150", "0", "43", "0", "0", "reversedirection=yes highway=residential surface=asphalt access=yes foot=yes bicycle=yes cycleway=no oneway=yes", "highway=crossing", "240", "24051"], ["27358216", "44569674", "19", "2", "5050", "0", "168", "0", "0", "reversedirection=yes highway=footway", "", "240", "24084"]], "times": [0, 2.016, 19.074, 21.648, 22.333, 35.337, 40.999, 47.656, 55.22, 62.445, 64.802, 66.75, 68.363, 70.607, 73.192, 74.491, 77.704, 82.194, 102.563, 113.183, 127.124, 132.598, 144.269, 157.514, 180.286, 181.708, 235.295, 238.278, 240.438, 240.77]}, "geometry": {"type": "LineString", "coordinates": [[27.351565, 44.562432, 26.25], [27.351513, 44.562533, 26.25], [27.352889, 44.5624, 25.75], [27.352917, 44.562532, 26.0], [27.352869, 44.562537, 26.0], [27.352102, 44.562614, 27.0], [27.351896, 44.562911, 26.0], [27.351568, 44.563406, 23.75], [27.351294, 44.563868, 24.0], [27.35104, 44.56434, 23.25], [27.350964, 44.564475, 23.5], [27.350898, 44.564586, 23.5], [27.350877, 44.564671, 23.75], [27.350834, 44.564788, 24.0], [27.350804, 44.564933, 23.75], [27.350804, 44.565008, 23.75], [27.350804, 44.565257, 22.0], [27.350822, 44.565534, 22.75], [27.350898, 44.566359, 24.75], [27.350961, 44.567203, 21.5], [27.351008, 44.568017, 22.0], [27.351027, 44.568355, 21.5], [27.351062, 44.568855, 23.0], [27.35111, 44.569619, 22.0], [27.353103, 44.569638, 21.0], [27.353221, 44.569639, 21.0], [27.357887, 44.569697, 19.0], [27.358107, 44.569736, 19.0], [27.358225, 44.569653, 19.0], [27.358216, 44.569674, 19.0]]}}]}