{"type": "FeatureCollection", "features": [{"type": "Feature", "properties": {"creator": "BRouter-1.7.10", "name": "brouter_trekking_0", "track-length": "606", "filtered ascend": "2", "plain-ascend": "1", "total-time": "109", "total-energy": "10914", "cost": "1304", "messages": [["Longitude", "Latitude", "Elevation", "Distance", "CostPerKm", "ElevCost", "TurnCost", "NodeCost", "InitialCost", "WayTags", "NodeTags", "Time", "Energy"], ["27360931", "44563248", "26", "66", "1150", "0", "0", "0", "0", "reversedirection=yes highway=residential surface=asphalt oneway=no", "", "15", "1503"], ["27360893", "44562252", "25", "110", "1450", "0", "91", "0", "0", "highway=tertiary surface=asphalt", "highway=crossing crossing=zebra", "31", "3196"], ["27360890", "44562148", "26", "12", "1450", "0", "0", "0", "0", "highway=tertiary surface=asphalt", "estimated_crossing_class=5", "34", "3436"], ["27360887", "44562026", "27", "14", "1450", "0", "0", "0", "0", "highway=tertiary surface=asphalt", "highway=crossing crossing=uncontrolled", "37", "3769"], ["27360917", "44560179", "24", "206", "1450", "0", "0", "0", "0", "highway=tertiary surface=asphalt", "highway=crossing crossing=uncontrolled", "70", "7064"], ["27361587", "44558927", "25", "150", "1450", "0", "0", "0", "0", "highway=tertiary surface=asphalt", "", "94", "9462"], ["27361518", "44558659", "26", "48", "5050", "0", "181", "0", "0", "reversedirection=yes highway=footway", "", "109", "10914"]], "times": [0, 0.18, 15.035, 17.423, 24.871, 26.083, 30.318, 31.955, 34.35, 37.68, 57.599, 61.727, 63.807, 70.625, 72.616, 75.371, 76.864, 84.45, 94.596, 106.44, 109.112]}, "geometry": {"type": "LineString", "coordinates": [[27.36011, 44.563263, 25.25], [27.360115, 44.563264, 25.5], [27.360931, 44.563248, 26.75], [27.360924, 44.563112, 25.75], [27.360912, 44.562653, 25.25], [27.360907, 44.56258, 25.25], [27.360899, 44.562345, 25.5], [27.360893, 44.562252, 25.5], [27.36089, 44.562148, 26.25], [27.360887, 44.562026, 27.0], [27.360845, 44.561073, 26.5], [27.36084, 44.560756, 24.5], [27.36085, 44.560598, 24.0], [27.360917, 44.560179, 24.75], [27.360954, 44.560056, 24.5], [27.361022, 44.559877, 24.0], [27.361067, 44.55978, 24.0], [27.361332, 44.559345, 24.0], [27.361587, 44.558927, 25.25], [27.361373, 44.558639, 27.75], [27.361518, 44.558659, 26.0]]}}]}