{"type": "FeatureCollection", "features": [{"type": "Feature", "properties": {"creator": "BRouter-1.7.10", "name": "brouter_trekking_0", "track-length": "1142", "filtered ascend": "5", "plain-ascend": "3", "total-time": "210", "total-energy": "21007", "cost": "1584", "messages": [["Longitude", "Latitude", "Elevation", "Distance", "CostPerKm", "ElevCost", "TurnCost", "NodeCost", "InitialCost", "WayTags", "NodeTags", "Time", "Energy"], ["27354878", "44558202", "27", "158", "1150", "0", "0", "0", "0", "reversedirection=yes highway=residential", "", "31", "3165"], ["27355058", "44558240", "27", "15", "1150", "0", "94", "0", "0", "highway=residential oneway=yes", "", "34", "3496"], ["27354627", "44559299", "26", "123", "1150", "0", "86", "0", "0", "highway=residential surface=asphalt oneway=yes", "", "64", "6458"], ["27354971", "44562201", "25", "326", "1150", "0", "11", "0", "0", "reversedirection=yes highway=residential surface=asphalt", "highway=crossing", "126", "12684"], ["27354998", "44562336", "25", "15", "1150", "0", "0", "0", "0", "reversedirection=yes highway=residential surface=asphalt", "estimated_crossing_class=5", "128", "12886"], ["27355016", "44562420", "25", "9", "1150", "0", "0", "0", "0", "highway=residential surface=asphalt oneway=yes", "highway=crossing crossing=zebra", "130", "13017"], ["27355226", "44563373", "24", "107", "1150", "0", "0", "0", "0", "highway=residential surface=asphalt oneway=yes", "", "144", "14490"], ["27359906", "44563260", "24", "373", "1150", "0", "79", "0", "0", "highway=residential oneway=yes", "", "206", "20680"], ["27360110", "44563263", "25", "16", "1150", "0", "0", "0", "0", "reversedirection=yes highway=residential surface=asphalt oneway=no", "", "210", "21007"]], "times": [0, 20.433, 31.647, 34.956, 40.204, 64.571, 65.831, 73.964, 77.672, 79.962, 89.097, 96.287, 100.715, 113.724, 118.393, 120.691, 123.575, 126.827, 128.84, 130.15, 144.88, 162.091, 165.441, 178.79, 190.043, 190.769, 196.995, 206.771, 210.037]}, "geometry": {"type": "LineString", "coordinates": [[27.35554, 44.556862, 22.5], [27.355068, 44.557811, 26.0], [27.354878, 44.558202, 27.5], [27.355058, 44.55824, 27.5], [27.354983, 44.558458, 27.5], [27.354627, 44.559299, 26.0], [27.354614, 44.55935, 26.0], [27.354693, 44.559729, 25.75], [27.354733, 44.5599, 26.0], [27.35476, 44.560009, 26.0], [27.354838, 44.560354, 27.0], [27.354891, 44.560622, 27.5], [27.354919, 44.560798, 27.5], [27.354978, 44.561345, 27.75], [27.355007, 44.561589, 27.25], [27.355009, 44.561732, 26.5], [27.354938, 44.561957, 25.0], [27.354971, 44.562201, 25.0], [27.354998, 44.562336, 25.25], [27.355016, 44.56242, 25.5], [27.355226, 44.563373, 24.75], [27.35695, 44.563325, 23.0], [27.357186, 44.563319, 23.75], [27.357923, 44.563299, 25.0], [27.358677, 44.563274, 24.75], [27.358725, 44.563273, 24.75], [27.359242, 44.563266, 24.0], [27.359906, 44.56326, 24.75], [27.36011, 44.563263, 25.5]]}}]}