{"type": "FeatureCollection", "features": [{"type": "Feature", "properties": {"creator": "BRouter-1.7.10", "name": "brouter_trekking_0", "track-length": "2808", "filtered ascend": "0", "plain-ascend": "-8", "total-time": "463", "total-energy": "46317", "cost": "4152", "messages": [["Longitude", "Latitude", "Elevation", "Distance", "CostPerKm", "ElevCost", "TurnCost", "NodeCost", "InitialCost", "WayTags", "NodeTags", "Time", "Energy"], ["27354971", "44562201", "25", "61", "5050", "0", "0", "0", "0", "reversedirection=yes highway=footway", "highway=crossing", "9", "976"], ["27354998", "44562336", "25", "15", "1150", "0", "93", "0", "0", "reversedirection=yes highway=residential surface=asphalt", "estimated_crossing_class=5", "12", "1235"], ["27355016", "44562420", "25", "9", "1150", "0", "0", "0", "0", "highway=residential surface=asphalt oneway=yes", "highway=crossing crossing=zebra", "14", "1401"], ["27355374", "44564644", "24", "249", "1150", "0", "0", "0", "0", "highway=residential surface=asphalt oneway=yes", "", "51", "5168"], ["27355483", "44564645", "24", "9", "1450", "0", "91", "0", "0", "highway=tertiary surface=asphalt oneway=yes", "highway=crossing crossing=uncontrolled", "53", "5335"], ["27357365", "44564651", "25", "149", "1450", "0", "0", "0", "0", "highway=tertiary surface=asphalt oneway=yes", "highway=crossing", "82", "8275"], ["27357525", "44564651", "26", "13", "1450", "0", "0", "0", "0", "highway=tertiary surface=asphalt oneway=yes", "", "85", "8557"], ["27357529", "44564831", "25", "20", "1150", "0", "89", "0", "0", "highway=residential surface=asphalt oneway=yes", "highway=crossing", "89", "8928"], ["27357488", "44565632", "23", "90", "1150", "0", "1", "0", "0", "highway=residential surface=asphalt oneway=yes", "", "100", "10075"], ["27357468", "44565722", "22", "10", "1150", "0", "0", "0", "0", "highway=residential surface=asphalt oneway=no", "highway=crossing crossing=uncontrolled", "101", "10196"], ["27357001", "44567244", "22", "173", "1150", "0", "0", "0", "0", "highway=residential surface=asphalt oneway=no", "", "125", "12555"], ["27359131", "44567243", "25", "170", "1150", "0", "108", "0", "0", "highway=residential surface=asphalt", "highway=crossing crossing=uncontrolled", "163", "16331"], ["27359285", "44567243", "24", "12", "1150", "0", "0", "0", "0", "highway=residential surface=asphalt", "", "165", "16558"], ["27358922", "44567988", "22", "88", "1050", "0", "119", "0", "0", "reversedirection=yes highway=tertiary surface=asphalt foot=yes bicycle=yes cycleway=no oneway=no", "highway=crossing crossing=uncontrolled", "178", "17876"], ["27358461", "44568964", "20", "115", "1050", "0", "0", "0", "0", "reversedirection=yes highway=tertiary surface=asphalt foot=yes bicycle=yes cycleway=no oneway=no", "", "191", "19158"], ["27358498", "44568995", "20", "5", "1050", "0", "44", "0", "0", "highway=tertiary surface=asphalt access=yes foot=yes bicycle=yes cycleway=no oneway=no", "highway=crossing", "192", "19220"], ["27361321", "44569878", "20", "249", "1050", "0", "12", "0", "0", "highway=tertiary surface=asphalt access=yes foot=yes bicycle=yes cycleway=no oneway=no", "highway=crossing", "233", "23341"], ["27371271", "44572196", "21", "831", "1050", "0", "3", "0", "0", "highway=tertiary surface=asphalt access=yes foot=yes bicycle=yes cycleway=no oneway=no", "", "379", "37948"], ["27371024", "44573357", "21", "130", "1550", "0", "77", "0", "0", "reversedirection=yes highway=residential surface=unpaved", "", "406", "40628"], ["27372571", "44573741", "19", "130", "1150", "0", "74", "0", "0", "highway=residential", "highway=crossing crossing=uncontrolled", "423", "42307"], ["27374148", "44574110", "18", "132", "1150", "0", "0", "0", "0", "highway=residential", "highway=crossing crossing=uncontrolled", "438", "43901"], ["27375575", "44574457", "18", "119", "1150", "0", "0", "0", "0", "highway=residential", "highway=crossing crossing=uncontrolled", "458", "45851"], ["27375919", "44574538", "16", "29", "1150", "0", "0", "0", "0", "highway=residential", "", "463", "46317"]], "times": [0, 0.336, 7.502, 9.762, 12.354, 14.01, 30.762, 45.622, 47.925, 51.682, 53.347, 80.818, 82.744, 85.56, 87.919, 89.275, 96.55, 100.748, 101.954, 105.067, 110.646, 125.546, 144.689, 148.38, 153.967, 163.296, 165.564, 175.615, 178.747, 179.862, 180.319, 184.804, 191.566, 192.182, 197.024, 222.37, 233.385, 234.375, 250.999, 261.321, 293.558, 297.957, 318.964, 332.85, 361.592, 377.919, 379.438, 380.379, 382.432, 401.235, 406.229, 421.777, 423.02, 438.95, 441.037, 450.569, 458.454, 461.482, 463.117]}, "geometry": {"type": "LineString", "coordinates": [[27.355727, 44.562143, 25.25], [27.355708, 44.562144, 25.25], [27.355141, 44.562188, 25.0], [27.354971, 44.562201, 25.0], [27.354998, 44.562336, 25.25], [27.355016, 44.56242, 25.5], [27.355226, 44.563373, 24.75], [27.355371, 44.564318, 23.75], [27.35538, 44.564461, 23.5], [27.355374, 44.564644, 24.5], [27.355483, 44.564645, 24.5], [27.357238, 44.564649, 25.25], [27.357365, 44.564651, 25.5], [27.357525, 44.564651, 26.0], [27.357526, 44.564758, 25.75], [27.357529, 44.564831, 25.25], [27.35754, 44.56534, 23.75], [27.357488, 44.565632, 23.25], [27.357468, 44.565722, 22.75], [27.357395, 44.565969, 22.0], [27.357239, 44.566428, 21.0], [27.357001, 44.567244, 22.25], [27.358108, 44.567248, 23.75], [27.358345, 44.567242, 23.75], [27.35863, 44.567243, 24.75], [27.359131, 44.567243, 25.0], [27.359285, 44.567243, 24.5], [27.359035, 44.567759, 24.0], [27.358922, 44.567988, 22.25], [27.35888, 44.568073, 21.75], [27.358868, 44.568105, 21.75], [27.358714, 44.568446, 21.25], [27.358461, 44.568964, 20.25], [27.358498, 44.568995, 20.25], [27.358819, 44.569262, 20.0], [27.36029, 44.569632, 22.25], [27.361321, 44.569878, 20.25], [27.361407, 44.569898, 20.25], [27.36222, 44.570093, 22.75], [27.362848, 44.570243, 22.5], [27.364355, 44.570589, 24.75], [27.364765, 44.570686, 22.75], [27.366404, 44.57107, 20.0], [27.367757, 44.571394, 18.0], [27.369983, 44.571916, 21.0], [27.371165, 44.572192, 21.0], [27.371271, 44.572196, 21.5], [27.371277, 44.572238, 21.5], [27.371267, 44.572339, 21.5], [27.371099, 44.573033, 23.0], [27.371024, 44.573357, 21.25], [27.372461, 44.573715, 20.0], [27.372571, 44.573741, 19.75], [27.374148, 44.57411, 18.0], [27.374354, 44.574162, 17.25], [27.375062, 44.574333, 18.25], [27.375575, 44.574457, 18.75], [27.375788, 44.574508, 18.5], [27.375919, 44.574538, 16.5]]}}]}