{"type": "FeatureCollection", "features": [{"type": "Feature", "properties": {"creator": "BRouter-1.7.10", "name": "brouter_trekking_0", "track-length": "3356", "filtered ascend": "6", "plain-ascend": "-2", "total-time": "572", "total-energy": "57223", "cost": "6077", "messages": [["Longitude", "Latitude", "Elevation", "Distance", "CostPerKm", "ElevCost", "TurnCost", "NodeCost", "InitialCost", "WayTags", "NodeTags", "Time", "Energy"], ["27354971", "44562201", "25", "61", "5050", "0", "0", "0", "0", "reversedirection=yes highway=footway", "highway=crossing", "9", "976"], ["27354998", "44562336", "25", "15", "1150", "0", "93", "0", "0", "reversedirection=yes highway=residential surface=asphalt", "estimated_crossing_class=5", "12", "1235"], ["27355016", "44562420", "25", "9", "1150", "0", "0", "0", "0", "highway=residential surface=asphalt oneway=yes", "highway=crossing crossing=zebra", "14", "1401"], ["27355374", "44564644", "24", "249", "1150", "0", "0", "0", "0", "highway=residential surface=asphalt oneway=yes", "", "51", "5168"], ["27355483", "44564645", "24", "9", "1450", "0", "91", "0", "0", "highway=tertiary surface=asphalt oneway=yes", "highway=crossing crossing=uncontrolled", "53", "5335"], ["27357365", "44564651", "25", "149", "1450", "0", "0", "0", "0", "highway=tertiary surface=asphalt oneway=yes", "highway=crossing", "82", "8275"], ["27358286", "44564654", "30", "73", "1450", "0", "0", "0", "0", "highway=tertiary surface=asphalt oneway=yes", "highway=crossing", "101", "10179"], ["27359762", "44564654", "24", "118", "1450", "0", "0", "0", "0", "highway=tertiary surface=asphalt oneway=yes", "highway=crossing", "119", "11983"], ["27361170", "44564399", "28", "117", "1450", "0", "2", "0", "0", "highway=tertiary surface=asphalt oneway=yes", "highway=crossing", "144", "14473"], ["27363536", "44564052", "23", "194", "1450", "0", "0", "0", "0", "highway=tertiary surface=asphalt oneway=yes", "highway=crossing", "171", "17116"], ["27363887", "44563848", "24", "37", "1450", "0", "0", "0", "0", "highway=tertiary surface=asphalt oneway=yes", "", "176", "17675"], ["27363897", "44563794", "23", "6", "1450", "0", "20", "0", "0", "reversedirection=yes highway=tertiary surface=asphalt oneway=no", "highway=crossing", "177", "17762"], ["27364040", "44563082", "24", "79", "1450", "0", "0", "0", "0", "reversedirection=yes highway=tertiary surface=asphalt oneway=no", "", "190", "19023"], ["27366509", "44563194", "23", "197", "1150", "0", "86", "0", "0", "highway=residential surface=asphalt oneway=yes", "highway=crossing crossing=uncontrolled", "220", "22007"], ["27368156", "44563199", "25", "130", "1150", "0", "0", "0", "0", "highway=residential surface=asphalt oneway=yes", "highway=crossing crossing=uncontrolled", "248", "24871"], ["27368764", "44563418", "24", "55", "1150", "0", "13", "0", "0", "highway=residential surface=asphalt oneway=yes", "", "257", "25801"], ["27369512", "44562865", "23", "85", "1150", "0", "68", "0", "0", "highway=residential surface=asphalt", "", "270", "27020"], ["27371338", "44564290", "20", "217", "1150", "0", "112", "0", "0", "reversedirection=yes highway=residential", "", "299", "29924"], ["27370870", "44564832", "20", "70", "1450", "0", "64", "0", "0", "reversedirection=yes highway=tertiary surface=asphalt", "", "309", "30907"], ["27375054", "44563480", "21", "421", "1150", "0", "143", "0", "0", "highway=residential surface=asphalt", "", "382", "38304"], ["27375466", "44563516", "22", "33", "1150", "0", "35", "0", "0", "reversedirection=yes highway=residential surface=asphalt", "", "388", "38890"], ["27376136", "44563593", "24", "54", "1150", "0", "0", "0", "0", "highway=residential surface=asphalt", "highway=crossing crossing=uncontrolled", "403", "40336"], ["27376475", "44563634", "24", "27", "1150", "0", "0", "0", "0", "highway=residential surface=asphalt", "highway=crossing crossing=uncontrolled", "409", "40954"], ["27377406", "44563916", "23", "82", "1150", "0", "1", "0", "0", "highway=residential surface=asphalt", "highway=crossing crossing=uncontrolled", "425", "42572"], ["27380657", "44565849", "26", "336", "1150", "0", "0", "0", "0", "highway=residential surface=asphalt", "highway=crossing crossing=uncontrolled", "494", "49485"], ["27380845", "44565974", "26", "20", "1150", "0", "0", "0", "0", "highway=residential surface=asphalt", "highway=crossing crossing=uncontrolled", "498", "49885"], ["27383442", "44568700", "20", "366", "1150", "0", "1", "0", "0", "highway=residential surface=asphalt", "highway=crossing", "547", "54755"], ["27383984", "44568419", "21", "53", "5050", "0", "99", "0", "0", "highway=footway", "", "554", "55486"], ["27384364", "44568213", "21", "48", "5050", "0", "169", "0", "0", "reversedirection=yes highway=footway", "", "562", "56221"], ["27384440", "44567831", "22", "46", "5050", "0", "157", "0", "0", "highway=footway", "", "572", "57223"]], "times": [0, 0.336, 7.502, 9.762, 12.354, 14.01, 30.762, 45.622, 47.925, 51.682, 53.347, 80.818, 82.744, 85.56, 86.694, 101.777, 104.578, 114.482, 119.818, 120.988, 122.375, 123.741, 137.055, 140.351, 144.706, 158.119, 159.778, 163.157, 164.552, 167.188, 168.538, 171.14, 172.93, 174.44, 176.732, 177.602, 181.537, 185.428, 190.206, 192.646, 203.116, 213.609, 220.041, 221.908, 233.784, 248.674, 250.687, 257.981, 262.808, 270.165, 283.606, 287.006, 289.041, 290.303, 299.196, 300.206, 309.022, 323.884, 332.72, 345.269, 353.214, 369.231, 376.859, 382.986, 388.844, 403.299, 409.483, 413.772, 417.065, 419.271, 425.652, 436.698, 441.793, 455.259, 494.772, 497.256, 498.772, 502.748, 508.344, 518.513, 524.779, 535.822, 541.802, 543.897, 547.468, 548.22, 550.389, 554.77, 555.205, 555.642, 556.081, 556.521, 556.964, 557.408, 557.853, 558.3, 558.749, 562.12, 562.604, 562.927, 563.272, 563.618, 572.139]}, "geometry": {"type": "LineString", "coordinates": [[27.355727, 44.562143, 25.25], [27.355708, 44.562144, 25.25], [27.355141, 44.562188, 25.0], [27.354971, 44.562201, 25.0], [27.354998, 44.562336, 25.25], [27.355016, 44.56242, 25.5], [27.355226, 44.563373, 24.75], [27.355371, 44.564318, 23.75], [27.35538, 44.564461, 23.5], [27.355374, 44.564644, 24.5], [27.355483, 44.564645, 24.5], [27.357238, 44.564649, 25.25], [27.357365, 44.564651, 25.5], [27.357525, 44.564651, 26.0], [27.357592, 44.564651, 26.25], [27.358286, 44.564654, 30.5], [27.358421, 44.564655, 30.75], [27.359213, 44.564657, 26.0], [27.359762, 44.564654, 24.5], [27.359871, 44.564654, 24.5], [27.360002, 44.564637, 24.25], [27.360122, 44.564613, 24.5], [27.36081, 44.564436, 26.75], [27.360975, 44.564415, 27.5], [27.36117, 44.564399, 28.0], [27.362201, 44.564337, 26.25], [27.362346, 44.564327, 25.5], [27.362732, 44.564283, 24.0], [27.362891, 44.564252, 23.5], [27.363187, 44.564178, 23.0], [27.363323, 44.564135, 23.0], [27.363536, 44.564052, 23.75], [27.363657, 44.563993, 24.0], [27.36375, 44.563939, 24.0], [27.363887, 44.563848, 24.0], [27.363897, 44.563794, 23.75], [27.363953, 44.563541, 23.5], [27.363999, 44.563291, 23.25], [27.36404, 44.563082, 24.75], [27.3642, 44.563093, 24.5], [27.36519, 44.563182, 22.75], [27.365992, 44.563194, 23.25], [27.366509, 44.563194, 23.0], [27.366652, 44.563194, 23.25], [27.367411, 44.563191, 24.0], [27.368156, 44.563199, 25.5], [27.368275, 44.5632, 25.5], [27.368764, 44.563418, 24.25], [27.36908, 44.563198, 23.5], [27.369512, 44.562865, 23.5], [27.370253, 44.563517, 23.0], [27.370431, 44.563665, 23.0], [27.370575, 44.563714, 23.0], [27.370652, 44.563754, 23.0], [27.371338, 44.56429, 20.5], [27.371283, 44.564355, 20.5], [27.37087, 44.564832, 20.75], [27.371624, 44.565304, 21.75], [27.372063, 44.565092, 22.5], [27.372722, 44.564791, 22.75], [27.373248, 44.564546, 22.0], [27.374256, 44.564044, 22.0], [27.374674, 44.563757, 22.0], [27.375054, 44.56348, 21.25], [27.375466, 44.563516, 22.0], [27.376136, 44.563593, 24.0], [27.376475, 44.563634, 24.0], [27.376719, 44.563674, 24.0], [27.376907, 44.563713, 24.0], [27.377033, 44.563749, 24.0], [27.377406, 44.563916, 23.75], [27.378092, 44.564292, 23.25], [27.378415, 44.564484, 23.0], [27.379119, 44.564902, 23.75], [27.380657, 44.565849, 26.25], [27.380771, 44.565919, 26.5], [27.380845, 44.565974, 26.25], [27.381034, 44.566181, 25.25], [27.381404, 44.566583, 23.0], [27.381968, 44.567197, 22.75], [27.38226, 44.567515, 23.0], [27.382726, 44.567981, 23.5], [27.383084, 44.56834, 21.75], [27.383229, 44.56848, 20.75], [27.383442, 44.5687, 20.75], [27.383497, 44.568666, 20.75], [27.383663, 44.568581, 21.0], [27.383984, 44.568419, 21.0], [27.384012, 44.568435, 21.0], [27.384046, 44.568444, 21.0], [27.384082, 44.568444, 21.0], [27.384116, 44.568436, 21.0], [27.384144, 44.568421, 21.0], [27.384164, 44.568399, 21.0], [27.384173, 44.568375, 21.0], [27.38417, 44.568349, 21.0], [27.384156, 44.568326, 21.0], [27.384364, 44.568213, 21.25], [27.384364, 44.568182, 21.25], [27.384378, 44.568169, 21.25], [27.384398, 44.568161, 21.5], [27.384422, 44.568161, 21.5], [27.38444, 44.567831, 22.75]]}}]}