{"type": "FeatureCollection", "features": [{"type": "Feature", "properties": {"creator": "BRouter-1.7.10", "name": "brouter_trekking_0", "track-length": "708", "filtered ascend": "1", "plain-ascend": "-2", "total-time": "120", "total-energy": "11967", "cost": "1823", "messages": [["Longitude", "Latitude", "Elevation", "Distance", "CostPerKm", "ElevCost", "TurnCost", "NodeCost", "InitialCost", "WayTags", "NodeTags", "Time", "Energy"], ["27371011", "44560989", "24", "14", "5050", "0", "0", "0", "0", "reversedirection=yes highway=footway", "", "2", "235"], ["27371009", "44561491", "23", "56", "5050", "0", "90", "0", "0", "highway=footway", "", "9", "945"], ["27375801", "44561746", "25", "402", "1150", "0", "202", "0", "0", "highway=residential surface=asphalt oneway=no", "", "84", "8487"], ["27375962", "44562392", "26", "81", "5150", "0", "19", "0", "0", "reversedirection=yes highway=residential surface=asphalt oneway=yes", "estimated_crossing_class=4", "100", "10025"], ["27375941", "44562480", "26", "10", "1150", "0", "0", "0", "0", "reversedirection=yes highway=residential surface=asphalt", "highway=crossing crossing=uncontrolled", "102", "10225"], ["27375548", "44563086", "23", "75", "1150", "0", "2", "0", "0", "reversedirection=yes highway=residential surface=asphalt", "", "112", "11244"], ["27375492", "44563379", "22", "33", "1150", "0", "8", "0", "0", "highway=residential surface=asphalt", "highway=crossing crossing=uncontrolled", "115", "11591"], ["27375186", "44563491", "21", "37", "1150", "0", "89", "0", "0", "highway=residential surface=asphalt", "", "119", "11967"]], "times": [0, 2.352, 9.452, 10.819, 12.492, 36.244, 38.071, 69.003, 79.717, 80.359, 80.842, 82.86, 83.771, 84.859, 88.453, 89.977, 91.297, 100.237, 102.239, 106.377, 110.596, 112.424, 115.891, 117.465, 119.656]}, "geometry": {"type": "LineString", "coordinates": [[27.370839, 44.560989, 24.5], [27.371011, 44.560989, 24.5], [27.371009, 44.561491, 23.0], [27.371137, 44.561495, 23.0], [27.371229, 44.561585, 23.0], [27.372721, 44.561588, 24.75], [27.372849, 44.561588, 24.75], [27.374702, 44.561552, 26.0], [27.375642, 44.561541, 24.75], [27.375688, 44.561547, 25.0], [27.375714, 44.561568, 25.0], [27.375726, 44.561671, 25.5], [27.375754, 44.561708, 25.5], [27.375801, 44.561746, 25.5], [27.375996, 44.561865, 25.5], [27.376041, 44.561927, 25.75], [27.376069, 44.561988, 25.75], [27.375962, 44.562392, 26.0], [27.375941, 44.56248, 26.25], [27.375854, 44.562713, 25.25], [27.375648, 44.562976, 24.25], [27.375548, 44.563086, 23.75], [27.375492, 44.563379, 22.5], [27.375466, 44.563516, 22.0], [27.375186, 44.563491, 21.25]]}}]}