{"type": "FeatureCollection", "features": [{"type": "Feature", "properties": {"creator": "BRouter-1.7.10", "name": "brouter_trekking_0", "track-length": "2903", "filtered ascend": "1", "plain-ascend": "-9", "total-time": "476", "total-energy": "47562", "cost": "4240", "messages": [["Longitude", "Latitude", "Elevation", "Distance", "CostPerKm", "ElevCost", "TurnCost", "NodeCost", "InitialCost", "WayTags", "NodeTags", "Time", "Energy"], ["27361587", "44558927", "25", "48", "5050", "0", "147", "0", "0", "highway=footway", "", "6", "699"], ["27360917", "44560179", "24", "150", "1450", "0", "34", "0", "0", "reversedirection=yes highway=tertiary surface=asphalt", "highway=crossing crossing=uncontrolled", "26", "2659"], ["27360887", "44562026", "27", "206", "1450", "0", "0", "0", "0", "reversedirection=yes highway=tertiary surface=asphalt", "highway=crossing crossing=uncontrolled", "70", "7087"], ["27360890", "44562148", "26", "14", "1450", "0", "0", "0", "0", "reversedirection=yes highway=tertiary surface=asphalt", "estimated_crossing_class=5", "73", "7318"], ["27360893", "44562252", "25", "12", "1450", "0", "0", "0", "0", "reversedirection=yes highway=tertiary surface=asphalt", "highway=crossing crossing=zebra", "74", "7484"], ["27360974", "44564329", "27", "230", "1450", "0", "0", "0", "0", "reversedirection=yes highway=tertiary surface=asphalt", "highway=crossing", "118", "11833"], ["27360995", "44564727", "27", "45", "1450", "0", "0", "0", "0", "reversedirection=yes highway=tertiary surface=asphalt", "highway=crossing", "126", "12700"], ["27361090", "44565020", "26", "34", "1450", "0", "8", "0", "0", "highway=tertiary surface=asphalt oneway=yes", "highway=crossing", "132", "13262"], ["27361092", "44566062", "23", "116", "1450", "0", "0", "0", "0", "highway=tertiary surface=asphalt oneway=yes", "highway=crossing", "150", "15069"], ["27361092", "44566127", "23", "7", "1450", "0", "0", "0", "0", "highway=tertiary surface=asphalt oneway=yes", "", "151", "15182"], ["27360964", "44566130", "23", "10", "1150", "0", "87", "0", "0", "highway=residential surface=asphalt oneway=no", "", "153", "15335"], ["27360860", "44566163", "23", "9", "1150", "0", "6", "0", "0", "highway=residential surface=asphalt oneway=yes", "highway=crossing", "154", "15465"], ["27359949", "44566456", "24", "79", "1150", "0", "0", "0", "0", "highway=residential surface=asphalt oneway=yes", "", "164", "16432"], ["27359740", "44566460", "24", "17", "1150", "0", "7", "0", "0", "reversedirection=yes highway=residential surface=asphalt", "highway=crossing", "166", "16663"], ["27359669", "44566461", "25", "6", "1150", "0", "0", "0", "0", "reversedirection=yes highway=residential surface=asphalt", "", "167", "16751"], ["27358922", "44567988", "22", "180", "1050", "0", "58", "0", "0", "reversedirection=yes highway=tertiary surface=asphalt foot=yes bicycle=yes cycleway=no oneway=no", "highway=crossing crossing=uncontrolled", "192", "19212"], ["27358461", "44568964", "20", "115", "1050", "0", "0", "0", "0", "reversedirection=yes highway=tertiary surface=asphalt foot=yes bicycle=yes cycleway=no oneway=no", "", "204", "20449"], ["27358498", "44568995", "20", "5", "1050", "0", "44", "0", "0", "highway=tertiary surface=asphalt access=yes foot=yes bicycle=yes cycleway=no oneway=no", "highway=crossing", "205", "20509"], ["27361321", "44569878", "20", "249", "1050", "0", "12", "0", "0", "highway=tertiary surface=asphalt access=yes foot=yes bicycle=yes cycleway=no oneway=no", "highway=crossing", "245", "24591"], ["27371271", "44572196", "21", "831", "1050", "0", "3", "0", "0", "highway=tertiary surface=asphalt access=yes foot=yes bicycle=yes cycleway=no oneway=no", "", "391", "39193"], ["27371024", "44573357", "21", "130", "1550", "0", "77", "0", "0", "reversedirection=yes highway=residential surface=unpaved", "", "418", "41873"], ["27372571", "44573741", "19", "130", "1150", "0", "74", "0", "0", "highway=residential", "highway=crossing crossing=uncontrolled", "435", "43552"], ["27374148", "44574110", "18", "132", "1150", "0", "0", "0", "0", "highway=residential", "highway=crossing crossing=uncontrolled", "451", "45146"], ["27375575", "44574457", "18", "119", "1150", "0", "0", "0", "0", "highway=residential", "highway=crossing crossing=uncontrolled", "470", "47096"], ["27375919", "44574538", "16", "29", "1150", "0", "0", "0", "0", "highway=residential", "", "475", "47562"]], "times": [0, 2.623, 6.992, 12.601, 19.383, 20.894, 24.215, 26.595, 33.412, 36.479, 45.973, 70.86, 73.167, 74.825, 76.233, 79.802, 80.934, 89.246, 92.438, 118.312, 120.209, 122.084, 126.983, 129.484, 130.979, 132.598, 150.671, 151.802, 153.326, 154.628, 159.863, 164.301, 166.604, 167.485, 180.549, 189.172, 192.088, 193.142, 193.574, 197.868, 204.454, 205.057, 209.815, 234.884, 245.868, 246.856, 263.454, 273.767, 305.993, 310.391, 331.397, 345.283, 374.025, 390.352, 391.87, 392.811, 394.864, 413.667, 418.661, 434.21, 435.452, 451.383, 453.469, 463.001, 470.886, 473.914, 475.549]}, "geometry": {"type": "LineString", "coordinates": [[27.361518, 44.558659, 26.75], [27.361373, 44.558639, 27.75], [27.361587, 44.558927, 25.25], [27.361332, 44.559345, 24.0], [27.361067, 44.55978, 24.0], [27.361022, 44.559877, 24.0], [27.360954, 44.560056, 24.5], [27.360917, 44.560179, 24.75], [27.36085, 44.560598, 24.0], [27.36084, 44.560756, 24.5], [27.360845, 44.561073, 26.5], [27.360887, 44.562026, 27.0], [27.36089, 44.562148, 26.25], [27.360893, 44.562252, 25.5], [27.360899, 44.562345, 25.5], [27.360907, 44.56258, 25.25], [27.360912, 44.562653, 25.25], [27.360924, 44.563112, 25.75], [27.360931, 44.563248, 26.75], [27.360974, 44.564329, 27.5], [27.360975, 44.564415, 27.5], [27.360981, 44.564502, 27.5], [27.360995, 44.564727, 27.75], [27.361066, 44.564847, 27.5], [27.36109, 44.564925, 27.25], [27.36109, 44.56502, 26.75], [27.361092, 44.566062, 23.75], [27.361092, 44.566127, 23.75], [27.360964, 44.56613, 23.5], [27.36086, 44.566163, 23.25], [27.360434, 44.5663, 23.0], [27.359949, 44.566456, 24.0], [27.35974, 44.56646, 24.75], [27.359669, 44.566461, 25.0], [27.359285, 44.567243, 24.5], [27.359035, 44.567759, 24.0], [27.358922, 44.567988, 22.25], [27.35888, 44.568073, 21.75], [27.358868, 44.568105, 21.75], [27.358714, 44.568446, 21.25], [27.358461, 44.568964, 20.25], [27.358498, 44.568995, 20.25], [27.358819, 44.569262, 20.0], [27.36029, 44.569632, 22.25], [27.361321, 44.569878, 20.25], [27.361407, 44.569898, 20.25], [27.36222, 44.570093, 22.75], [27.362848, 44.570243, 22.5], [27.364355, 44.570589, 24.75], [27.364765, 44.570686, 22.75], [27.366404, 44.57107, 20.0], [27.367757, 44.571394, 18.0], [27.369983, 44.571916, 21.0], [27.371165, 44.572192, 21.0], [27.371271, 44.572196, 21.5], [27.371277, 44.572238, 21.5], [27.371267, 44.572339, 21.5], [27.371099, 44.573033, 23.0], [27.371024, 44.573357, 21.25], [27.372461, 44.573715, 20.0], [27.372571, 44.573741, 19.75], [27.374148, 44.57411, 18.0], [27.374354, 44.574162, 17.25], [27.375062, 44.574333, 18.25], [27.375575, 44.574457, 18.75], [27.375788, 44.574508, 18.5], [27.375919, 44.574538, 16.5]]}}]}