{"type": "FeatureCollection", "features": [{"type": "Feature", "properties": {"creator": "BRouter-1.7.10", "name": "brouter_trekking_0", "track-length": "392", "filtered ascend": "1", "plain-ascend": "0", "total-time": "67", "total-energy": "6744", "cost": "922", "messages": [["Longitude", "Latitude", "Elevation", "Distance", "CostPerKm", "ElevCost", "TurnCost", "NodeCost", "InitialCost", "WayTags", "NodeTags", "Time", "Energy"], ["27361587", "44558927", "25", "48", "5050", "0", "147", "0", "0", "highway=footway", "", "6", "699"], ["27360917", "44560179", "24", "150", "1450", "0", "34", "0", "0", "reversedirection=yes highway=tertiary surface=asphalt", "highway=crossing crossing=uncontrolled", "26", "2659"], ["27360882", "44561922", "27", "194", "1450", "0", "0", "0", "0", "reversedirection=yes highway=tertiary surface=asphalt", "", "67", "6744"]], "times": [0, 2.623, 6.992, 12.601, 19.383, 20.894, 24.215, 26.595, 33.412, 36.479, 45.973, 67.431]}, "geometry": {"type": "LineString", "coordinates": [[27.361518, 44.558659, 26.75], [27.361373, 44.558639, 27.75], [27.361587, 44.558927, 25.25], [27.361332, 44.559345, 24.0], [27.361067, 44.55978, 24.0], [27.361022, 44.559877, 24.0], [27.360954, 44.560056, 24.5], [27.360917, 44.560179, 24.75], [27.36085, 44.560598, 24.0], [27.36084, 44.560756, 24.5], [27.360845, 44.561073, 26.5], [27.360882, 44.561922, 27.0]]}}]}