{"type": "FeatureCollection", "features": [{"type": "Feature", "properties": {"creator": "BRouter-1.7.10", "name": "brouter_trekking_0", "track-length": "607", "filtered ascend": "3", "plain-ascend": "2", "total-time": "114", "total-energy": "11440", "cost": "1791", "messages": [["Longitude", "Latitude", "Elevation", "Distance", "CostPerKm", "ElevCost", "TurnCost", "NodeCost", "InitialCost", "WayTags", "NodeTags", "Time", "Energy"], ["27350804", "44564933", "23", "20", "1350", "0", "0", "0", "0", "reversedirection=yes highway=service", "", "3", "380"], ["27350877", "44564671", "23", "29", "1150", "0", "109", "0", "0", "reversedirection=yes highway=residential surface=asphalt", "", "9", "935"], ["27350964", "44564475", "23", "23", "1450", "0", "2", "0", "0", "reversedirection=yes highway=tertiary surface=asphalt", "highway=crossing", "13", "1324"], ["27351896", "44562911", "26", "189", "1450", "0", "0", "0", "0", "reversedirection=yes highway=tertiary surface=asphalt", "highway=crossing", "52", "5238"], ["27352102", "44562614", "27", "37", "1450", "0", "0", "0", "0", "reversedirection=yes highway=tertiary surface=asphalt", "estimated_crossing_class=5", "62", "6282"], ["27352869", "44562537", "26", "62", "3050", "0", "39", "0", "0", "highway=primary surface=asphalt smoothness=excellent oneway=no", "estimated_crossing_class=5", "74", "7448"], ["27352917", "44562532", "26", "4", "3050", "0", "0", "0", "0", "highway=primary surface=asphalt smoothness=excellent oneway=no", "estimated_crossing_class=5", "75", "7520"], ["27352994", "44562526", "26", "6", "3050", "0", "0", "0", "0", "highway=primary surface=asphalt smoothness=excellent oneway=no", "highway=crossing estimated_crossing_class=5", "76", "7629"], ["27354854", "44562347", "25", "149", "3050", "0", "0", "0", "0", "highway=primary surface=asphalt smoothness=excellent oneway=no", "highway=crossing estimated_crossing_class=0 crossing=zebra", "100", "10053"], ["27354998", "44562336", "25", "12", "3050", "0", "0", "0", "0", "highway=primary surface=asphalt smoothness=excellent oneway=no", "estimated_crossing_class=5", "102", "10240"], ["27354971", "44562201", "25", "15", "1150", "0", "93", "0", "0", "highway=residential surface=asphalt", "highway=crossing", "104", "10462"], ["27355727", "44562143", "25", "61", "5050", "0", "93", "0", "0", "highway=footway", "", "114", "11440"]], "times": [0, 3.807, 6.99, 9.356, 11.047, 13.243, 15.783, 26.355, 35.893, 52.376, 62.811, 74.47, 75.197, 76.284, 100.52, 102.39, 104.613, 106.722, 114.061, 114.389]}, "geometry": {"type": "LineString", "coordinates": [[27.350573, 44.56487, 23.25], [27.350804, 44.564933, 23.75], [27.350834, 44.564788, 24.0], [27.350877, 44.564671, 23.75], [27.350898, 44.564586, 23.5], [27.350964, 44.564475, 23.5], [27.35104, 44.56434, 23.25], [27.351294, 44.563868, 24.0], [27.351568, 44.563406, 23.75], [27.351896, 44.562911, 26.0], [27.352102, 44.562614, 27.0], [27.352869, 44.562537, 26.0], [27.352917, 44.562532, 26.0], [27.352994, 44.562526, 26.0], [27.354854, 44.562347, 25.5], [27.354998, 44.562336, 25.25], [27.354971, 44.562201, 25.0], [27.355141, 44.562188, 25.0], [27.355708, 44.562144, 25.25], [27.355727, 44.562143, 25.25]]}}]}