{"type": "FeatureCollection", "features": [{"type": "Feature", "properties": {"creator": "BRouter-1.7.10", "name": "brouter_trekking_0", "track-length": "627", "filtered ascend": "6", "plain-ascend": "1", "total-time": "112", "total-energy": "11166", "cost": "1083", "messages": [["Longitude", "Latitude", "Elevation", "Distance", "CostPerKm", "ElevCost", "TurnCost", "NodeCost", "InitialCost", "WayTags", "NodeTags", "Time", "Energy"], ["27355483", "44564645", "24", "107", "1450", "0", "0", "0", "0", "highway=tertiary surface=asphalt oneway=yes", "highway=crossing crossing=uncontrolled", "18", "1874"], ["27357365", "44564651", "25", "149", "1450", "0", "0", "0", "0", "highway=tertiary surface=asphalt oneway=yes", "highway=crossing", "47", "4708"], ["27358286", "44564654", "30", "73", "1450", "0", "0", "0", "0", "highway=tertiary surface=asphalt oneway=yes", "highway=crossing", "65", "6592"], ["27359762", "44564654", "24", "118", "1450", "0", "0", "0", "0", "highway=tertiary surface=asphalt oneway=yes", "highway=crossing", "83", "8389"], ["27359871", "44564654", "24", "9", "1450", "0", "0", "0", "0", "highway=tertiary surface=asphalt oneway=yes", "", "85", "8506"], ["27359873", "44564537", "23", "13", "1450", "0", "89", "0", "0", "highway=tertiary surface=asphalt", "highway=crossing", "86", "8648"], ["27359906", "44563260", "24", "142", "1450", "0", "0", "0", "0", "highway=tertiary surface=asphalt", "", "108", "10870"], ["27360110", "44563263", "25", "16", "1150", "0", "90", "0", "0", "reversedirection=yes highway=residential surface=asphalt oneway=no", "", "111", "11166"]], "times": [0, 17.194, 18.743, 45.192, 47.087, 49.861, 50.98, 65.919, 68.701, 78.559, 83.883, 85.051, 86.478, 108.697, 111.656]}, "geometry": {"type": "LineString", "coordinates": [[27.354137, 44.564633, 24.25], [27.355374, 44.564644, 24.5], [27.355483, 44.564645, 24.5], [27.357238, 44.564649, 25.25], [27.357365, 44.564651, 25.5], [27.357525, 44.564651, 26.0], [27.357592, 44.564651, 26.25], [27.358286, 44.564654, 30.5], [27.358421, 44.564655, 30.75], [27.359213, 44.564657, 26.0], [27.359762, 44.564654, 24.5], [27.359871, 44.564654, 24.5], [27.359873, 44.564537, 23.5], [27.359906, 44.56326, 24.75], [27.36011, 44.563263, 25.5]]}}]}