{"type": "FeatureCollection", "features": [{"type": "Feature", "properties": {"creator": "BRouter-1.7.10", "name": "brouter_trekking_0", "track-length": "1037", "filtered ascend": "4", "plain-ascend": "2", "total-time": "181", "total-energy": "18072", "cost": "2132", "messages": [["Longitude", "Latitude", "Elevation", "Distance", "CostPerKm", "ElevCost", "TurnCost", "NodeCost", "InitialCost", "WayTags", "NodeTags", "Time", "Energy"], ["27369319", "44562138", "24", "11", "3050", "0", "0", "0", "0", "reversedirection=yes highway=primary surface=asphalt smoothness=excellent oneway=no", "highway=crossing estimated_crossing_class=4", "1", "184"], ["27368615", "44562135", "23", "56", "3050", "0", "0", "0", "0", "reversedirection=yes highway=primary surface=asphalt smoothness=excellent oneway=no", "estimated_crossing_class=5", "9", "925"], ["27368612", "44561991", "22", "16", "1150", "0", "88", "0", "0", "reversedirection=yes highway=residential oneway=no", "highway=crossing", "11", "1130"], ["27368370", "44561194", "24", "100", "1150", "0", "30", "0", "0", "reversedirection=yes highway=residential oneway=no", "", "28", "2875"], ["27368381", "44560550", "23", "72", "1150", "0", "83", "0", "0", "reversedirection=yes highway=residential", "", "40", "4047"], ["27364219", "44560216", "22", "335", "1150", "0", "90", "0", "0", "highway=residential oneway=yes", "", "96", "9640"], ["27364020", "44560210", "21", "16", "1150", "0", "9", "0", "0", "reversedirection=yes highway=residential", "", "98", "9824"], ["27361092", "44560079", "24", "236", "1150", "0", "8", "0", "0", "highway=residential surface=asphalt", "highway=crossing crossing=uncontrolled", "145", "14504"], ["27360954", "44560056", "24", "11", "1150", "0", "1", "0", "0", "highway=residential surface=asphalt", "", "146", "14693"], ["27361587", "44558927", "25", "136", "1450", "0", "93", "0", "0", "highway=tertiary surface=asphalt", "", "170", "17100"], ["27361518", "44558659", "26", "48", "5050", "0", "181", "0", "0", "reversedirection=yes highway=footway", "", "180", "18072"]], "times": [0, 1.848, 4.814, 9.254, 11.298, 22.193, 25.826, 26.515, 27.376, 28.751, 40.465, 51.525, 53.61, 62.529, 68.17, 71.608, 80.476, 89.049, 90.97, 96.391, 98.224, 101.803, 105.467, 107.305, 120.37, 127.112, 131.329, 136.604, 140.928, 145.026, 146.914, 150.106, 151.802, 160.16, 170.981, 177.228, 180.703]}, "geometry": {"type": "LineString", "coordinates": [[27.369455, 44.562138, 24.5], [27.369319, 44.562138, 24.5], [27.369051, 44.562137, 23.75], [27.368615, 44.562135, 23.0], [27.368612, 44.561991, 22.75], [27.368596, 44.561434, 24.0], [27.36856, 44.561248, 24.0], [27.368535, 44.561218, 24.0], [27.368471, 44.5612, 24.0], [27.36837, 44.561194, 24.0], [27.368381, 44.56055, 23.75], [27.367739, 44.560519, 25.0], [27.367621, 44.560511, 25.5], [27.366973, 44.560467, 24.5], [27.366503, 44.560454, 24.0], [27.366222, 44.560443, 24.0], [27.365455, 44.560425, 23.5], [27.364824, 44.560419, 24.0], [27.364677, 44.56039, 23.75], [27.364219, 44.560216, 22.75], [27.36402, 44.56021, 21.75], [27.363712, 44.560205, 19.75], [27.363366, 44.560169, 19.0], [27.363224, 44.560148, 19.5], [27.362389, 44.560018, 23.5], [27.362029, 44.560001, 24.5], [27.361832, 44.560044, 25.25], [27.361598, 44.560072, 25.75], [27.36137, 44.560088, 25.5], [27.361092, 44.560079, 24.75], [27.360954, 44.560056, 24.5], [27.361022, 44.559877, 24.0], [27.361067, 44.55978, 24.0], [27.361332, 44.559345, 24.0], [27.361587, 44.558927, 25.25], [27.361373, 44.558639, 27.75], [27.361518, 44.558659, 26.0]]}}]}