{"type": "FeatureCollection", "features": [{"type": "Feature", "properties": {"creator": "BRouter-1.7.10", "name": "brouter_trekking_0", "track-length": "2543", "filtered ascend": "1", "plain-ascend": "-7", "total-time": "422", "total-energy": "42245", "cost": "3447", "messages": [["Longitude", "Latitude", "Elevation", "Distance", "CostPerKm", "ElevCost", "TurnCost", "NodeCost", "InitialCost", "WayTags", "NodeTags", "Time", "Energy"], ["27355483", "44564645", "24", "78", "1450", "0", "0", "0", "0", "highway=tertiary surface=asphalt oneway=yes", "highway=crossing crossing=uncontrolled", "13", "1373"], ["27357365", "44564651", "25", "149", "1450", "0", "0", "0", "0", "highway=tertiary surface=asphalt oneway=yes", "highway=crossing", "42", "4220"], ["27357525", "44564651", "26", "13", "1450", "0", "0", "0", "0", "highway=tertiary surface=asphalt oneway=yes", "", "44", "4498"], ["27357529", "44564831", "25", "20", "1150", "0", "89", "0", "0", "highway=residential surface=asphalt oneway=yes", "highway=crossing", "48", "4865"], ["27357488", "44565632", "23", "90", "1150", "0", "1", "0", "0", "highway=residential surface=asphalt oneway=yes", "", "60", "6007"], ["27357468", "44565722", "22", "10", "1150", "0", "0", "0", "0", "highway=residential surface=asphalt oneway=no", "highway=crossing crossing=uncontrolled", "61", "6128"], ["27357001", "44567244", "22", "173", "1150", "0", "0", "0", "0", "highway=residential surface=asphalt oneway=no", "", "84", "8484"], ["27359131", "44567243", "25", "170", "1150", "0", "108", "0", "0", "highway=residential surface=asphalt", "highway=crossing crossing=uncontrolled", "122", "12258"], ["27359285", "44567243", "24", "12", "1150", "0", "0", "0", "0", "highway=residential surface=asphalt", "", "124", "12485"], ["27358922", "44567988", "22", "88", "1050", "0", "119", "0", "0", "reversedirection=yes highway=tertiary surface=asphalt foot=yes bicycle=yes cycleway=no oneway=no", "highway=crossing crossing=uncontrolled", "138", "13804"], ["27358461", "44568964", "20", "115", "1050", "0", "0", "0", "0", "reversedirection=yes highway=tertiary surface=asphalt foot=yes bicycle=yes cycleway=no oneway=no", "", "150", "15086"], ["27358498", "44568995", "20", "5", "1050", "0", "44", "0", "0", "highway=tertiary surface=asphalt access=yes foot=yes bicycle=yes cycleway=no oneway=no", "highway=crossing", "151", "15147"], ["27361321", "44569878", "20", "249", "1050", "0", "12", "0", "0", "highway=tertiary surface=asphalt access=yes foot=yes bicycle=yes cycleway=no oneway=no", "highway=crossing", "192", "19268"], ["27371271", "44572196", "21", "831", "1050", "0", "3", "0", "0", "highway=tertiary surface=asphalt access=yes foot=yes bicycle=yes cycleway=no oneway=no", "", "338", "33875"], ["27371024", "44573357", "21", "130", "1550", "0", "77", "0", "0", "reversedirection=yes highway=residential surface=unpaved", "", "365", "36555"], ["27372571", "44573741", "19", "130", "1150", "0", "74", "0", "0", "highway=residential", "highway=crossing crossing=uncontrolled", "382", "38234"], ["27374148", "44574110", "18", "132", "1150", "0", "0", "0", "0", "highway=residential", "highway=crossing crossing=uncontrolled", "398", "39828"], ["27375575", "44574457", "18", "119", "1150", "0", "0", "0", "0", "highway=residential", "highway=crossing crossing=uncontrolled", "417", "41778"], ["27375919", "44574538", "16", "29", "1150", "0", "0", "0", "0", "highway=residential", "", "422", "42245"]], "times": [0, 12.177, 13.739, 40.304, 42.202, 44.981, 47.313, 48.656, 55.885, 60.068, 61.27, 64.376, 69.947, 84.832, 103.967, 107.658, 113.243, 122.57, 124.839, 134.889, 138.02, 139.136, 139.592, 144.077, 150.84, 151.455, 156.297, 181.643, 192.658, 193.648, 210.272, 220.594, 252.831, 257.23, 278.238, 292.124, 320.866, 337.193, 338.711, 339.652, 341.705, 360.508, 365.502, 381.05, 382.293, 398.223, 400.31, 409.842, 417.727, 420.755, 422.39]}, "geometry": {"type": "LineString", "coordinates": [[27.354506, 44.564636, 24.25], [27.355374, 44.564644, 24.5], [27.355483, 44.564645, 24.5], [27.357238, 44.564649, 25.25], [27.357365, 44.564651, 25.5], [27.357525, 44.564651, 26.0], [27.357526, 44.564758, 25.75], [27.357529, 44.564831, 25.25], [27.35754, 44.56534, 23.75], [27.357488, 44.565632, 23.25], [27.357468, 44.565722, 22.75], [27.357395, 44.565969, 22.0], [27.357239, 44.566428, 21.0], [27.357001, 44.567244, 22.25], [27.358108, 44.567248, 23.75], [27.358345, 44.567242, 23.75], [27.35863, 44.567243, 24.75], [27.359131, 44.567243, 25.0], [27.359285, 44.567243, 24.5], [27.359035, 44.567759, 24.0], [27.358922, 44.567988, 22.25], [27.35888, 44.568073, 21.75], [27.358868, 44.568105, 21.75], [27.358714, 44.568446, 21.25], [27.358461, 44.568964, 20.25], [27.358498, 44.568995, 20.25], [27.358819, 44.569262, 20.0], [27.36029, 44.569632, 22.25], [27.361321, 44.569878, 20.25], [27.361407, 44.569898, 20.25], [27.36222, 44.570093, 22.75], [27.362848, 44.570243, 22.5], [27.364355, 44.570589, 24.75], [27.364765, 44.570686, 22.75], [27.366404, 44.57107, 20.0], [27.367757, 44.571394, 18.0], [27.369983, 44.571916, 21.0], [27.371165, 44.572192, 21.0], [27.371271, 44.572196, 21.5], [27.371277, 44.572238, 21.5], [27.371267, 44.572339, 21.5], [27.371099, 44.573033, 23.0], [27.371024, 44.573357, 21.25], [27.372461, 44.573715, 20.0], [27.372571, 44.573741, 19.75], [27.374148, 44.57411, 18.0], [27.374354, 44.574162, 17.25], [27.375062, 44.574333, 18.25], [27.375575, 44.574457, 18.75], [27.375788, 44.574508, 18.5], [27.375919, 44.574538, 16.5]]}}]}