{"type": "FeatureCollection", "features": [{"type": "Feature", "properties": {"creator": "BRouter-1.7.10", "name": "brouter_trekking_0", "track-length": "420", "filtered ascend": "0", "plain-ascend": "0", "total-time": "69", "total-energy": "6917", "cost": "1382", "messages": [["Longitude", "Latitude", "Elevation", "Distance", "CostPerKm", "ElevCost", "TurnCost", "NodeCost", "InitialCost", "WayTags", "NodeTags", "Time", "Energy"], ["27369319", "44562138", "24", "11", "3050", "0", "0", "0", "0", "reversedirection=yes highway=primary surface=asphalt smoothness=excellent oneway=no", "highway=crossing estimated_crossing_class=4", "1", "184"], ["27368615", "44562135", "23", "56", "3050", "0", "0", "0", "0", "reversedirection=yes highway=primary surface=asphalt smoothness=excellent oneway=no", "estimated_crossing_class=5", "9", "925"], ["27368612", "44561991", "22", "16", "1150", "0", "88", "0", "0", "reversedirection=yes highway=residential oneway=no", "highway=crossing", "11", "1130"], ["27368560", "44561248", "24", "83", "1150", "0", "0", "0", "0", "reversedirection=yes highway=residential oneway=no", "", "25", "2583"], ["27370599", "44561480", "23", "184", "1150", "0", "149", "0", "0", "highway=residential surface=asphalt oneway=no", "", "53", "5388"], ["27370839", "44560989", "24", "70", "5050", "0", "262", "0", "0", "reversedirection=yes highway=footway", "", "69", "6917"]], "times": [0, 1.848, 4.814, 9.254, 11.298, 22.193, 25.826, 32.976, 39.28, 41.835, 43.195, 45.45, 46.308, 47.263, 49.448, 50.706, 51.496, 53.878, 66.106, 69.166]}, "geometry": {"type": "LineString", "coordinates": [[27.369455, 44.562138, 24.5], [27.369319, 44.562138, 24.5], [27.369051, 44.562137, 23.75], [27.368615, 44.562135, 23.0], [27.368612, 44.561991, 22.75], [27.368596, 44.561434, 24.0], [27.36856, 44.561248, 24.0], [27.369207, 44.561244, 23.0], [27.369711, 44.561246, 23.25], [27.369882, 44.561192, 23.5], [27.369973, 44.56117, 23.5], [27.370156, 44.561177, 23.0], [27.370224, 44.561201, 22.75], [27.370294, 44.561238, 22.5], [27.370455, 44.561277, 23.0], [27.370542, 44.561307, 23.0], [27.370581, 44.561345, 23.0], [27.370599, 44.56148, 23.0], [27.370645, 44.56099, 24.5], [27.370839, 44.560989, 24.5]]}}]}