{"type": "FeatureCollection", "features": [{"type": "Feature", "properties": {"creator": "BRouter-1.7.10", "name": "brouter_trekking_0", "track-length": "1250", "filtered ascend": "3", "plain-ascend": "-2", "total-time": "208", "total-energy": "20769", "cost": "2737", "messages": [["Longitude", "Latitude", "Elevation", "Distance", "CostPerKm", "ElevCost", "TurnCost", "NodeCost", "InitialCost", "WayTags", "NodeTags", "Time", "Energy"], ["27363294", "44562004", "24", "26", "5050", "0", "90", "0", "0", "highway=footway", "", "4", "436"], ["27363291", "44562116", "24", "12", "1150", "0", "93", "0", "0", "highway=residential", "estimated_crossing_class=5", "6", "638"], ["27361151", "44562144", "25", "171", "3050", "0", "87", "0", "0", "reversedirection=yes highway=primary surface=asphalt smoothness=excellent oneway=no", "highway=crossing estimated_crossing_class=0 crossing=zebra", "41", "4151"], ["27360890", "44562148", "26", "21", "3050", "0", "0", "0", "0", "reversedirection=yes highway=primary surface=asphalt smoothness=excellent oneway=no", "estimated_crossing_class=5", "46", "4608"], ["27360887", "44562026", "27", "14", "1450", "0", "90", "0", "0", "highway=tertiary surface=asphalt", "highway=crossing crossing=uncontrolled", "49", "4962"], ["27360845", "44561073", "26", "106", "1450", "0", "0", "0", "0", "highway=tertiary surface=asphalt", "", "70", "7029"], ["27359132", "44561114", "25", "136", "1150", "0", "90", "0", "0", "highway=residential surface=asphalt oneway=no", "", "91", "9184"], ["27359097", "44560339", "25", "87", "1150", "0", "90", "0", "0", "highway=residential surface=asphalt", "highway=crossing crossing=uncontrolled", "105", "10569"], ["27355068", "44557811", "26", "565", "1150", "0", "164", "0", "0", "highway=residential surface=asphalt", "", "190", "19023"], ["27355540", "44556862", "21", "112", "1150", "0", "92", "0", "0", "highway=residential", "", "207", "20769"]], "times": [0, 1.848, 4.368, 6.384, 36.388, 41.514, 46.076, 49.622, 70.286, 83.638, 85.962, 91.831, 96.948, 105.686, 130.802, 139.3, 140.716, 141.902, 143.467, 166.208, 170.234, 190.211, 207.676]}, "geometry": {"type": "LineString", "coordinates": [[27.363097, 44.561909, 24.0], [27.3631, 44.562007, 24.0], [27.363294, 44.562004, 24.0], [27.363291, 44.562116, 24.0], [27.361497, 44.562135, 25.5], [27.361151, 44.562144, 25.5], [27.36089, 44.562148, 26.25], [27.360887, 44.562026, 27.0], [27.360845, 44.561073, 26.5], [27.3599, 44.561097, 26.5], [27.359698, 44.561102, 25.75], [27.359132, 44.561114, 25.0], [27.359117, 44.560776, 24.75], [27.359097, 44.560339, 25.75], [27.359029, 44.5588, 24.5], [27.359017, 44.558277, 24.0], [27.358897, 44.558234, 23.25], [27.358832, 44.558164, 23.25], [27.358822, 44.558065, 23.5], [27.356804, 44.558137, 22.75], [27.356461, 44.558143, 22.5], [27.355068, 44.557811, 26.0], [27.35554, 44.556862, 21.0]]}}]}