{"type": "FeatureCollection", "features": [{"type": "Feature", "properties": {"creator": "BRouter-1.7.10", "name": "brouter_trekking_0", "track-length": "1643", "filtered ascend": "1", "plain-ascend": "-2", "total-time": "267", "total-energy": "26704", "cost": "2165", "messages": [["Longitude", "Latitude", "Elevation", "Distance", "CostPerKm", "ElevCost", "TurnCost", "NodeCost", "InitialCost", "WayTags", "NodeTags", "Time", "Energy"], ["27375054", "44563480", "21", "11", "1150", "0", "0", "0", "0", "highway=residential surface=asphalt", "", "1", "184"], ["27374256", "44564044", "22", "89", "1150", "0", "35", "0", "0", "reversedirection=yes highway=residential surface=asphalt", "", "19", "1900"], ["27376007", "44565435", "22", "208", "1150", "0", "87", "0", "0", "highway=residential surface=asphalt oneway=yes", "highway=crossing crossing=uncontrolled", "54", "5488"], ["27376090", "44565498", "22", "10", "1150", "0", "0", "0", "0", "highway=residential surface=asphalt oneway=yes", "", "56", "5665"], ["27380280", "44568484", "20", "470", "1150", "0", "0", "0", "0", "reversedirection=yes highway=residential surface=asphalt", "", "130", "13045"], ["27379304", "44570323", "22", "218", "1150", "0", "62", "0", "0", "reversedirection=yes highway=residential oneway=no", "", "174", "17466"], ["27378067", "44572982", "21", "311", "1150", "0", "2", "0", "0", "reversedirection=yes highway=residential", "highway=crossing crossing=uncontrolled", "222", "22269"], ["27377062", "44574800", "13", "230", "1150", "0", "90", "0", "0", "reversedirection=yes highway=residential", "highway=crossing crossing=uncontrolled", "251", "25167"], ["27375919", "44574538", "18", "96", "1150", "0", "0", "0", "0", "reversedirection=yes highway=residential", "", "267", "26704"]], "times": [0, 1.848, 10.402, 19.009, 25.33, 34.13, 41.584, 54.882, 56.652, 73.257, 86.273, 96.848, 97.592, 107.565, 130.447, 132.614, 135.678, 174.648, 193.071, 194.39, 220.654, 222.669, 250.029, 251.643, 257.761, 267.007]}, "geometry": {"type": "LineString", "coordinates": [[27.375186, 44.563491, 21.25], [27.375054, 44.56348, 21.25], [27.374674, 44.563757, 22.0], [27.374256, 44.564044, 22.0], [27.374531, 44.564261, 22.25], [27.374936, 44.564585, 22.25], [27.375391, 44.564946, 21.0], [27.376007, 44.565435, 22.0], [27.37609, 44.565498, 22.0], [27.376978, 44.566136, 21.75], [27.377792, 44.566722, 20.75], [27.378518, 44.567255, 19.5], [27.378566, 44.567289, 19.75], [27.378995, 44.567579, 21.25], [27.38028, 44.568484, 20.25], [27.3802, 44.568601, 20.0], [27.380058, 44.568783, 19.25], [27.379304, 44.570323, 22.0], [27.378772, 44.571429, 17.5], [27.378756, 44.5715, 17.75], [27.378107, 44.572896, 20.5], [27.378067, 44.572982, 21.25], [27.377222, 44.574837, 14.75], [27.377062, 44.5748, 13.75], [27.376492, 44.574669, 16.5], [27.375919, 44.574538, 18.5]]}}]}