{"type": "FeatureCollection", "features": [{"type": "Feature", "properties": {"creator": "BRouter-1.7.10", "name": "brouter_trekking_0", "track-length": "1789", "filtered ascend": "4", "plain-ascend": "-4", "total-time": "303", "total-energy": "30331", "cost": "3851", "messages": [["Longitude", "Latitude", "Elevation", "Distance", "CostPerKm", "ElevCost", "TurnCost", "NodeCost", "InitialCost", "WayTags", "NodeTags", "Time", "Energy"], ["27351513", "44562533", "26", "12", "5050", "0", "0", "0", "0", "reversedirection=yes highway=footway", "", "2", "201"], ["27352889", "44562400", "25", "110", "5050", "0", "132", "0", "0", "highway=footway", "", "19", "1907"], ["27352917", "44562532", "26", "15", "5150", "0", "88", "0", "0", "reversedirection=yes highway=residential surface=asphalt oneway=yes", "estimated_crossing_class=5", "21", "2164"], ["27352869", "44562537", "26", "4", "3050", "0", "90", "0", "0", "reversedirection=yes highway=primary surface=asphalt smoothness=excellent oneway=no", "estimated_crossing_class=5", "22", "2233"], ["27353114", "44564294", "23", "216", "1150", "0", "120", "0", "0", "highway=residential surface=asphalt oneway=yes", "", "51", "5176"], ["27353128", "44564622", "23", "36", "1150", "0", "0", "0", "0", "highway=residential surface=asphalt", "", "56", "5663"], ["27353782", "44564631", "24", "52", "1450", "0", "85", "0", "0", "highway=tertiary surface=asphalt oneway=yes", "highway=crossing crossing=uncontrolled", "66", "6643"], ["27355483", "44564645", "24", "136", "1450", "0", "0", "0", "0", "highway=tertiary surface=asphalt oneway=yes", "highway=crossing crossing=uncontrolled", "91", "9131"], ["27357365", "44564651", "25", "149", "1450", "0", "0", "0", "0", "highway=tertiary surface=asphalt oneway=yes", "highway=crossing", "119", "11991"], ["27358286", "44564654", "30", "73", "1450", "0", "0", "0", "0", "highway=tertiary surface=asphalt oneway=yes", "highway=crossing", "138", "13879"], ["27359762", "44564654", "24", "118", "1450", "0", "0", "0", "0", "highway=tertiary surface=asphalt oneway=yes", "highway=crossing", "156", "15678"], ["27360975", "44564415", "27", "101", "1450", "0", "2", "0", "0", "highway=tertiary surface=asphalt oneway=yes", "", "177", "17729"], ["27360995", "44564727", "27", "35", "1450", "0", "101", "0", "0", "reversedirection=yes highway=tertiary surface=asphalt", "highway=crossing", "185", "18580"], ["27361090", "44565020", "26", "34", "1450", "0", "8", "0", "0", "highway=tertiary surface=asphalt oneway=yes", "highway=crossing", "192", "19239"], ["27361092", "44566062", "23", "116", "1450", "0", "0", "0", "0", "highway=tertiary surface=asphalt oneway=yes", "highway=crossing", "205", "20535"], ["27361092", "44566127", "23", "7", "1450", "0", "0", "0", "0", "highway=tertiary surface=asphalt oneway=yes", "", "206", "20629"], ["27361213", "44566162", "24", "10", "1150", "0", "56", "0", "0", "reversedirection=yes highway=residential surface=asphalt oneway=no", "highway=crossing", "207", "20773"], ["27362046", "44566412", "22", "75", "1150", "0", "17", "0", "0", "reversedirection=yes highway=residential surface=asphalt oneway=no", "", "217", "21800"], ["27364341", "44566819", "23", "195", "1150", "0", "5", "0", "0", "highway=residential surface=asphalt", "highway=crossing crossing=uncontrolled", "249", "24955"], ["27364439", "44566868", "23", "10", "1150", "0", "0", "0", "0", "highway=residential surface=asphalt", "", "251", "25139"], ["27364259", "44567120", "24", "31", "1150", "0", "81", "0", "0", "reversedirection=yes highway=residential surface=asphalt", "", "258", "25820"], ["27364876", "44567790", "23", "113", "1150", "0", "130", "0", "0", "highway=residential surface=asphalt oneway=yes", "", "276", "27696"], ["27363917", "44568393", "21", "141", "1150", "0", "89", "0", "0", "reversedirection=yes highway=residential surface=asphalt oneway=no", "", "303", "30331"]], "times": [0, 2.016, 19.074, 21.648, 22.333, 23.701, 27.805, 29.179, 29.705, 35.938, 36.558, 37.18, 37.62, 42.062, 44.437, 51.756, 56.626, 66.427, 89.732, 91.309, 118, 119.902, 122.686, 123.809, 138.783, 141.569, 151.438, 156.765, 157.933, 159.319, 160.683, 173.984, 177.278, 179.703, 185.785, 188.771, 190.519, 192.367, 205.329, 206.265, 207.705, 213.655, 215.995, 217.976, 225.104, 226.131, 229.619, 238.199, 249.523, 251.365, 254.276, 258.177, 261.911, 263.175, 266.397, 266.902, 267.54, 276.937, 288.449, 290.001, 297.44, 302.101, 303.273]}, "geometry": {"type": "LineString", "coordinates": [[27.351565, 44.562432, 26.25], [27.351513, 44.562533, 26.25], [27.352889, 44.5624, 25.75], [27.352917, 44.562532, 26.0], [27.352869, 44.562537, 26.0], [27.352874, 44.562605, 26.0], [27.352855, 44.562846, 25.5], [27.352873, 44.562936, 25.0], [27.352898, 44.562968, 24.75], [27.353299, 44.563204, 25.25], [27.353329, 44.563229, 25.25], [27.353341, 44.563261, 25.25], [27.353334, 44.563292, 25.0], [27.353157, 44.563586, 24.0], [27.353082, 44.563742, 24.0], [27.353114, 44.564294, 23.0], [27.353128, 44.564622, 23.0], [27.353782, 44.564631, 24.25], [27.355374, 44.564644, 24.5], [27.355483, 44.564645, 24.5], [27.357238, 44.564649, 25.25], [27.357365, 44.564651, 25.5], [27.357525, 44.564651, 26.0], [27.357592, 44.564651, 26.25], [27.358286, 44.564654, 30.5], [27.358421, 44.564655, 30.75], [27.359213, 44.564657, 26.0], [27.359762, 44.564654, 24.5], [27.359871, 44.564654, 24.5], [27.360002, 44.564637, 24.25], [27.360122, 44.564613, 24.5], [27.36081, 44.564436, 26.75], [27.360975, 44.564415, 27.5], [27.360981, 44.564502, 27.5], [27.360995, 44.564727, 27.75], [27.361066, 44.564847, 27.5], [27.36109, 44.564925, 27.25], [27.36109, 44.56502, 26.75], [27.361092, 44.566062, 23.75], [27.361092, 44.566127, 23.75], [27.361213, 44.566162, 24.0], [27.36165, 44.566332, 24.0], [27.361837, 44.56642, 23.25], [27.362046, 44.566412, 22.5], [27.362874, 44.566382, 21.25], [27.362972, 44.566381, 21.5], [27.36323, 44.566419, 22.5], [27.363719, 44.566533, 23.5], [27.364341, 44.566819, 23.5], [27.364439, 44.566868, 23.5], [27.364352, 44.566978, 24.0], [27.364259, 44.56712, 24.5], [27.364436, 44.567193, 24.75], [27.364502, 44.56721, 24.5], [27.364822, 44.56721, 22.5], [27.364862, 44.56723, 22.25], [27.364874, 44.567274, 22.25], [27.364876, 44.56779, 23.25], [27.364882, 44.568291, 24.25], [27.364886, 44.568365, 24.25], [27.36445, 44.56838, 24.75], [27.36403, 44.568391, 23.25], [27.363917, 44.568393, 21.5]]}}]}