{"type": "FeatureCollection", "features": [{"type": "Feature", "properties": {"creator": "BRouter-1.7.10", "name": "brouter_trekking_0", "track-length": "852", "filtered ascend": "2", "plain-ascend": "-4", "total-time": "143", "total-energy": "14260", "cost": "1896", "messages": [["Longitude", "Latitude", "Elevation", "Distance", "CostPerKm", "ElevCost", "TurnCost", "NodeCost", "InitialCost", "WayTags", "NodeTags", "Time", "Energy"], ["27351583", "44562398", "26", "2", "5050", "0", "0", "0", "0", "highway=footway", "", "0", "33"], ["27351513", "44562533", "26", "16", "5050", "0", "72", "0", "0", "reversedirection=yes highway=footway", "", "3", "302"], ["27352889", "44562400", "25", "110", "5050", "0", "132", "0", "0", "highway=footway", "", "20", "2008"], ["27353392", "44559993", "24", "274", "1150", "0", "87", "0", "0", "highway=residential surface=asphalt oneway=yes", "", "60", "6082"], ["27354262", "44557637", "24", "271", "1150", "0", "11", "0", "0", "highway=residential surface=asphalt", "", "110", "11092"], ["27355068", "44557811", "26", "67", "1150", "0", "28", "0", "0", "reversedirection=yes highway=residential surface=asphalt", "", "124", "12402"], ["27355540", "44556862", "21", "112", "1150", "0", "87", "0", "0", "highway=residential", "", "142", "14260"]], "times": [0, 0.336, 3.024, 20.082, 26.78, 30.168, 38.961, 50.477, 60.82, 86.561, 101.564, 104.505, 110.632, 110.911, 111.358, 124.016, 142.592]}, "geometry": {"type": "LineString", "coordinates": [[27.351611, 44.562401, 26.25], [27.351583, 44.562398, 26.25], [27.351513, 44.562533, 26.25], [27.352889, 44.5624, 25.75], [27.352832, 44.561974, 25.0], [27.352827, 44.561771, 25.0], [27.352929, 44.561234, 24.75], [27.353139, 44.560652, 25.25], [27.353392, 44.559993, 24.0], [27.35377, 44.558887, 28.75], [27.354002, 44.558257, 26.5], [27.354084, 44.558053, 24.5], [27.35424, 44.557653, 24.5], [27.354262, 44.557637, 24.5], [27.354305, 44.557634, 24.75], [27.355068, 44.557811, 26.0], [27.35554, 44.556862, 21.0]]}}]}