{"type": "FeatureCollection", "features": [{"type": "Feature", "properties": {"creator": "BRouter-1.7.10", "name": "brouter_trekking_0", "track-length": "1790", "filtered ascend": "8", "plain-ascend": "2", "total-time": "324", "total-energy": "32390", "cost": "3722", "messages": [["Longitude", "Latitude", "Elevation", "Distance", "CostPerKm", "ElevCost", "TurnCost", "NodeCost", "InitialCost", "WayTags", "NodeTags", "Time", "Energy"], ["27358225", "44569653", "19", "2", "5050", "0", "0", "0", "0", "highway=footway", "highway=crossing", "0", "33"], ["27358107", "44569736", "19", "13", "1150", "0", "168", "0", "0", "highway=residential surface=asphalt access=yes foot=yes bicycle=yes cycleway=no oneway=yes", "", "2", "252"], ["27353102", "44569701", "21", "398", "1150", "0", "18", "0", "0", "highway=residential surface=asphalt oneway=yes", "highway=crossing", "79", "7914"], ["27351106", "44569674", "22", "159", "1150", "0", "0", "0", "0", "highway=residential surface=asphalt oneway=yes", "", "110", "11001"], ["27350804", "44565008", "23", "521", "1150", "0", "93", "0", "0", "reversedirection=yes highway=residential surface=asphalt", "highway=crossing crossing=uncontrolled", "202", "20299"], ["27350877", "44564671", "23", "37", "1150", "0", "1", "0", "0", "reversedirection=yes highway=residential surface=asphalt", "", "211", "21129"], ["27350964", "44564475", "23", "23", "1450", "0", "2", "0", "0", "reversedirection=yes highway=tertiary surface=asphalt", "highway=crossing", "215", "21566"], ["27351896", "44562911", "26", "189", "1450", "0", "0", "0", "0", "reversedirection=yes highway=tertiary surface=asphalt", "highway=crossing", "256", "25653"], ["27352102", "44562614", "27", "37", "1450", "0", "0", "0", "0", "reversedirection=yes highway=tertiary surface=asphalt", "estimated_crossing_class=5", "267", "26709"], ["27350782", "44562739", "24", "105", "3050", "0", "140", "0", "0", "reversedirection=yes highway=primary surface=asphalt oneway=no", "railway=level_crossing", "281", "28155"], ["27350307", "44562790", "25", "38", "3050", "0", "0", "0", "0", "reversedirection=yes highway=primary surface=asphalt oneway=no", "", "288", "28845"], ["27349730", "44562832", "24", "46", "3050", "0", "2", "0", "0", "highway=primary surface=asphalt oneway=yes", "highway=give_way direction=forward", "295", "29568"], ["27349583", "44562801", "24", "12", "3050", "0", "1", "0", "0", "highway=primary surface=asphalt oneway=yes", "", "297", "29743"], ["27349137", "44562630", "23", "61", "10050", "0", "0", "0", "0", "highway=trunk surface=asphalt foot=no smoothness=good junction=roundabout", "", "306", "30617"], ["27349005", "44562429", "22", "25", "1350", "0", "18", "0", "0", "highway=service surface=asphalt oneway=yes", "", "309", "30924"], ["27348918", "44562180", "21", "29", "1350", "0", "5", "0", "0", "highway=service surface=asphalt", "", "312", "31258"], ["27347883", "44562320", "21", "95", "1350", "0", "181", "0", "0", "reversedirection=yes highway=service", "", "323", "32390"]], "times": [0, 0.336, 2.52, 5.917, 77.604, 79.135, 110.003, 111.069, 128.958, 136.721, 143.015, 156.934, 172.813, 191.387, 196.201, 202.973, 204.794, 208.548, 211.277, 213.192, 215.646, 218.434, 229.765, 239.676, 256.506, 267.07, 276.739, 281.52, 282.29, 288.424, 293.573, 294.639, 295.649, 297.402, 297.845, 298.735, 299.58, 300.433, 301.149, 302.161, 303.183, 304.215, 305.195, 306.132, 308.236, 309.207, 310.032, 311.067, 312.544, 314.032, 322.426, 323.866]}, "geometry": {"type": "LineString", "coordinates": [[27.358216, 44.569674, 19.0], [27.358225, 44.569653, 19.0], [27.358107, 44.569736, 19.0], [27.357876, 44.56976, 19.25], [27.353218, 44.569702, 21.0], [27.353102, 44.569701, 21.0], [27.351106, 44.569674, 22.0], [27.35111, 44.569619, 22.0], [27.351062, 44.568855, 23.0], [27.351027, 44.568355, 21.5], [27.351008, 44.568017, 22.0], [27.350961, 44.567203, 21.5], [27.350898, 44.566359, 24.75], [27.350822, 44.565534, 22.75], [27.350804, 44.565257, 22.0], [27.350804, 44.565008, 23.75], [27.350804, 44.564933, 23.75], [27.350834, 44.564788, 24.0], [27.350877, 44.564671, 23.75], [27.350898, 44.564586, 23.5], [27.350964, 44.564475, 23.5], [27.35104, 44.56434, 23.25], [27.351294, 44.563868, 24.0], [27.351568, 44.563406, 23.75], [27.351896, 44.562911, 26.0], [27.352102, 44.562614, 27.0], [27.35121, 44.562695, 24.25], [27.350782, 44.562739, 24.0], [27.350715, 44.562748, 24.25], [27.350307, 44.56279, 25.0], [27.349906, 44.56284, 24.5], [27.349812, 44.56284, 24.25], [27.34973, 44.562832, 24.0], [27.349583, 44.562801, 24.0], [27.34956, 44.562821, 24.0], [27.349503, 44.562853, 24.0], [27.349435, 44.562873, 23.75], [27.349362, 44.562878, 23.75], [27.349301, 44.56287, 23.75], [27.349226, 44.562844, 23.75], [27.349167, 44.562802, 23.75], [27.34913, 44.562748, 23.75], [27.34912, 44.562688, 23.5], [27.349137, 44.56263, 23.25], [27.349045, 44.562492, 22.75], [27.349005, 44.562429, 22.5], [27.348958, 44.562374, 22.25], [27.348929, 44.562295, 22.0], [27.348918, 44.56218, 21.75], [27.348773, 44.562186, 22.0], [27.347873, 44.562222, 21.0], [27.347883, 44.56232, 21.0]]}}]}