{"type": "FeatureCollection", "features": [{"type": "Feature", "properties": {"creator": "BRouter-1.7.10", "name": "brouter_trekking_0", "track-length": "520", "filtered ascend": "3", "plain-ascend": "-2", "total-time": "80", "total-energy": "8035", "cost": "1416", "messages": [["Longitude", "Latitude", "Elevation", "Distance", "CostPerKm", "ElevCost", "TurnCost", "NodeCost", "InitialCost", "WayTags", "NodeTags", "Time", "Energy"], ["27363916", "44562005", "26", "75", "5050", "0", "90", "0", "0", "highway=footway", "", "16", "1625"], ["27364129", "44562004", "27", "17", "5050", "0", "0", "0", "0", "reversedirection=yes highway=footway", "highway=crossing", "19", "1919"], ["27364020", "44560210", "21", "199", "1150", "0", "92", "0", "0", "highway=residential surface=asphalt", "", "45", "4554"], ["27364219", "44560216", "22", "16", "1150", "0", "95", "0", "0", "highway=residential", "", "48", "4833"], ["27364477", "44558983", "21", "138", "1150", "0", "89", "0", "0", "reversedirection=yes highway=residential", "", "70", "7007"], ["27365368", "44559196", "21", "75", "1150", "0", "95", "0", "0", "highway=residential surface=asphalt", "", "80", "8035"]], "times": [0, 1.848, 4.368, 10.16, 16.256, 19.196, 24.442, 27.154, 29.142, 31.309, 32.805, 45.536, 48.326, 62.046, 65.13, 67.702, 68.803, 70.058, 80.345]}, "geometry": {"type": "LineString", "coordinates": [[27.363097, 44.561909, 24.0], [27.3631, 44.562007, 24.0], [27.363294, 44.562004, 24.0], [27.363639, 44.562005, 25.0], [27.363916, 44.562005, 26.25], [27.364129, 44.562004, 27.75], [27.364116, 44.56168, 24.0], [27.364086, 44.561519, 24.0], [27.364062, 44.561402, 24.0], [27.36405, 44.561276, 24.0], [27.364049, 44.561195, 24.25], [27.36402, 44.56021, 21.75], [27.364219, 44.560216, 22.75], [27.364278, 44.559531, 23.0], [27.364336, 44.559344, 22.25], [27.364412, 44.559154, 21.0], [27.364442, 44.559074, 21.0], [27.364477, 44.558983, 21.0], [27.365368, 44.559196, 21.0]]}}]}