{"type": "FeatureCollection", "features": [{"type": "Feature", "properties": {"creator": "BRouter-1.7.10", "name": "brouter_trekking_0", "track-length": "1553", "filtered ascend": "4", "plain-ascend": "-2", "total-time": "263", "total-energy": "26324", "cost": "2515", "messages": [["Longitude", "Latitude", "Elevation", "Distance", "CostPerKm", "ElevCost", "TurnCost", "NodeCost", "InitialCost", "WayTags", "NodeTags", "Time", "Energy"], ["27364209", "44564006", "23", "5", "1050", "0", "0", "0", "0", "highway=tertiary surface=asphalt foot=yes bicycle=yes oneway=yes", "highway=crossing", "0", "89"], ["27363843", "44564050", "24", "30", "1050", "0", "3", "0", "0", "highway=tertiary surface=asphalt foot=yes bicycle=yes oneway=yes", "highway=crossing", "6", "653"], ["27363750", "44564052", "24", "7", "1050", "0", "0", "0", "0", "highway=tertiary surface=asphalt foot=yes bicycle=yes oneway=yes", "", "7", "782"], ["27363606", "44564121", "23", "14", "1450", "0", "13", "0", "0", "highway=tertiary surface=asphalt oneway=yes", "highway=crossing", "10", "1023"], ["27361167", "44564483", "28", "200", "1450", "0", "0", "0", "0", "highway=tertiary surface=asphalt oneway=yes", "highway=crossing", "49", "4936"], ["27360981", "44564502", "27", "15", "1450", "0", "0", "0", "0", "highway=tertiary surface=asphalt oneway=yes", "", "54", "5446"], ["27360974", "44564329", "27", "20", "1450", "0", "98", "0", "0", "highway=tertiary surface=asphalt", "highway=crossing", "60", "6060"], ["27360893", "44562252", "25", "230", "1450", "0", "0", "0", "0", "highway=tertiary surface=asphalt", "highway=crossing crossing=zebra", "101", "10118"], ["27360890", "44562148", "26", "12", "1450", "0", "0", "0", "0", "highway=tertiary surface=asphalt", "estimated_crossing_class=5", "103", "10349"], ["27360887", "44562026", "27", "14", "1450", "0", "0", "0", "0", "highway=tertiary surface=asphalt", "highway=crossing crossing=uncontrolled", "106", "10672"], ["27360845", "44561073", "26", "106", "1450", "0", "0", "0", "0", "highway=tertiary surface=asphalt", "", "126", "12629"], ["27359132", "44561114", "25", "136", "1150", "0", "90", "0", "0", "highway=residential surface=asphalt oneway=no", "", "147", "14748"], ["27359097", "44560339", "25", "87", "1150", "0", "90", "0", "0", "highway=residential surface=asphalt", "highway=crossing crossing=uncontrolled", "161", "16127"], ["27355068", "44557811", "26", "565", "1150", "0", "164", "0", "0", "highway=residential surface=asphalt", "", "245", "24577"], ["27355540", "44556862", "21", "112", "1150", "0", "92", "0", "0", "highway=residential", "", "263", "26324"]], "times": [0, 0.898, 1.435, 4.285, 6.53, 7.826, 10.234, 13.274, 15.28, 19.861, 22.654, 29.631, 33.296, 49.362, 54.456, 57.61, 60.595, 85.253, 87.422, 94.396, 95.548, 99.597, 101.174, 103.484, 106.712, 126.275, 139.347, 141.644, 147.467, 152.556, 161.258, 186.339, 194.83, 196.246, 197.431, 198.996, 221.735, 225.76, 245.737, 263.201]}, "geometry": {"type": "LineString", "coordinates": [[27.364273, 44.564006, 23.5], [27.364209, 44.564006, 23.75], [27.364172, 44.564007, 23.75], [27.36399, 44.564039, 24.0], [27.363843, 44.56405, 24.0], [27.36375, 44.564052, 24.0], [27.363606, 44.564121, 23.75], [27.363381, 44.564211, 23.25], [27.36323, 44.56426, 23.25], [27.362917, 44.564341, 23.75], [27.36274, 44.564377, 24.0], [27.362372, 44.56442, 25.0], [27.36221, 44.564431, 26.0], [27.361167, 44.564483, 28.0], [27.360981, 44.564502, 27.5], [27.360975, 44.564415, 27.5], [27.360974, 44.564329, 27.5], [27.360931, 44.563248, 26.75], [27.360924, 44.563112, 25.75], [27.360912, 44.562653, 25.25], [27.360907, 44.56258, 25.25], [27.360899, 44.562345, 25.5], [27.360893, 44.562252, 25.5], [27.36089, 44.562148, 26.25], [27.360887, 44.562026, 27.0], [27.360845, 44.561073, 26.5], [27.3599, 44.561097, 26.5], [27.359698, 44.561102, 25.75], [27.359132, 44.561114, 25.0], [27.359117, 44.560776, 24.75], [27.359097, 44.560339, 25.75], [27.359029, 44.5588, 24.5], [27.359017, 44.558277, 24.0], [27.358897, 44.558234, 23.25], [27.358832, 44.558164, 23.25], [27.358822, 44.558065, 23.5], [27.356804, 44.558137, 22.75], [27.356461, 44.558143, 22.5], [27.355068, 44.557811, 26.0], [27.35554, 44.556862, 21.0]]}}]}