{"type": "FeatureCollection", "features": [{"type": "Feature", "properties": {"creator": "BRouter-1.7.10", "name": "brouter_trekking_0", "track-length": "1718", "filtered ascend": "2", "plain-ascend": "-1", "total-time": "289", "total-energy": "28928", "cost": "3981", "messages": [["Longitude", "Latitude", "Elevation", "Distance", "CostPerKm", "ElevCost", "TurnCost", "NodeCost", "InitialCost", "WayTags", "NodeTags", "Time", "Energy"], ["27371011", "44560989", "24", "14", "5050", "0", "0", "0", "0", "reversedirection=yes highway=footway", "", "2", "235"], ["27371009", "44561491", "23", "56", "5050", "0", "90", "0", "0", "highway=footway", "", "9", "945"], ["27375801", "44561746", "25", "402", "1150", "0", "202", "0", "0", "highway=residential surface=asphalt oneway=no", "", "84", "8487"], ["27375962", "44562392", "26", "81", "5150", "0", "19", "0", "0", "reversedirection=yes highway=residential surface=asphalt oneway=yes", "estimated_crossing_class=4", "100", "10025"], ["27375941", "44562480", "26", "10", "1150", "0", "0", "0", "0", "reversedirection=yes highway=residential surface=asphalt", "highway=crossing crossing=uncontrolled", "102", "10225"], ["27375548", "44563086", "23", "75", "1150", "0", "2", "0", "0", "reversedirection=yes highway=residential surface=asphalt", "", "112", "11244"], ["27375492", "44563379", "22", "33", "1150", "0", "8", "0", "0", "highway=residential surface=asphalt", "highway=crossing crossing=uncontrolled", "115", "11591"], ["27376136", "44563593", "24", "69", "1150", "0", "87", "0", "0", "highway=residential surface=asphalt", "highway=crossing crossing=uncontrolled", "126", "12661"], ["27376475", "44563634", "24", "27", "1150", "0", "0", "0", "0", "highway=residential surface=asphalt", "highway=crossing crossing=uncontrolled", "131", "13117"], ["27377406", "44563916", "23", "82", "1150", "0", "1", "0", "0", "highway=residential surface=asphalt", "highway=crossing crossing=uncontrolled", "144", "14466"], ["27380657", "44565849", "26", "336", "1150", "0", "0", "0", "0", "highway=residential surface=asphalt", "highway=crossing crossing=uncontrolled", "211", "21195"], ["27380845", "44565974", "26", "20", "1150", "0", "0", "0", "0", "highway=residential surface=asphalt", "highway=crossing crossing=uncontrolled", "215", "21593"], ["27383442", "44568700", "20", "366", "1150", "0", "1", "0", "0", "highway=residential surface=asphalt", "highway=crossing", "264", "26460"], ["27383984", "44568419", "21", "53", "5050", "0", "99", "0", "0", "highway=footway", "", "271", "27191"], ["27384364", "44568213", "21", "48", "5050", "0", "169", "0", "0", "reversedirection=yes highway=footway", "", "279", "27926"], ["27384440", "44567831", "22", "46", "5050", "0", "157", "0", "0", "highway=footway", "", "289", "28928"]], "times": [0, 2.352, 9.452, 10.819, 12.492, 36.244, 38.071, 69.003, 79.717, 80.359, 80.842, 82.86, 83.771, 84.859, 88.453, 89.977, 91.297, 100.237, 102.239, 106.377, 110.596, 112.424, 115.891, 117.465, 126.595, 131.15, 134.522, 137.217, 139.07, 144.639, 154.859, 159.728, 172.799, 211.919, 214.393, 215.904, 219.87, 225.459, 235.62, 241.883, 252.923, 258.902, 260.997, 264.568, 265.319, 267.488, 271.869, 272.304, 272.741, 273.18, 273.62, 274.063, 274.506, 274.952, 275.399, 275.848, 279.219, 279.703, 280.026, 280.371, 280.717, 289.237]}, "geometry": {"type": "LineString", "coordinates": [[27.370839, 44.560989, 24.5], [27.371011, 44.560989, 24.5], [27.371009, 44.561491, 23.0], [27.371137, 44.561495, 23.0], [27.371229, 44.561585, 23.0], [27.372721, 44.561588, 24.75], [27.372849, 44.561588, 24.75], [27.374702, 44.561552, 26.0], [27.375642, 44.561541, 24.75], [27.375688, 44.561547, 25.0], [27.375714, 44.561568, 25.0], [27.375726, 44.561671, 25.5], [27.375754, 44.561708, 25.5], [27.375801, 44.561746, 25.5], [27.375996, 44.561865, 25.5], [27.376041, 44.561927, 25.75], [27.376069, 44.561988, 25.75], [27.375962, 44.562392, 26.0], [27.375941, 44.56248, 26.25], [27.375854, 44.562713, 25.25], [27.375648, 44.562976, 24.25], [27.375548, 44.563086, 23.75], [27.375492, 44.563379, 22.5], [27.375466, 44.563516, 22.0], [27.376136, 44.563593, 24.0], [27.376475, 44.563634, 24.0], [27.376719, 44.563674, 24.0], [27.376907, 44.563713, 24.0], [27.377033, 44.563749, 24.0], [27.377406, 44.563916, 23.75], [27.378092, 44.564292, 23.25], [27.378415, 44.564484, 23.0], [27.379119, 44.564902, 23.75], [27.380657, 44.565849, 26.25], [27.380771, 44.565919, 26.5], [27.380845, 44.565974, 26.25], [27.381034, 44.566181, 25.25], [27.381404, 44.566583, 23.0], [27.381968, 44.567197, 22.75], [27.38226, 44.567515, 23.0], [27.382726, 44.567981, 23.5], [27.383084, 44.56834, 21.75], [27.383229, 44.56848, 20.75], [27.383442, 44.5687, 20.75], [27.383497, 44.568666, 20.75], [27.383663, 44.568581, 21.0], [27.383984, 44.568419, 21.0], [27.384012, 44.568435, 21.0], [27.384046, 44.568444, 21.0], [27.384082, 44.568444, 21.0], [27.384116, 44.568436, 21.0], [27.384144, 44.568421, 21.0], [27.384164, 44.568399, 21.0], [27.384173, 44.568375, 21.0], [27.38417, 44.568349, 21.0], [27.384156, 44.568326, 21.0], [27.384364, 44.568213, 21.25], [27.384364, 44.568182, 21.25], [27.384378, 44.568169, 21.25], [27.384398, 44.568161, 21.5], [27.384422, 44.568161, 21.5], [27.38444, 44.567831, 22.75]]}}]}