{"type": "FeatureCollection", "features": [{"type": "Feature", "properties": {"creator": "BRouter-1.7.10", "name": "brouter_trekking_0", "track-length": "256", "filtered ascend": "3", "plain-ascend": "3", "total-time": "52", "total-energy": "5233", "cost": "1128", "messages": [["Longitude", "Latitude", "Elevation", "Distance", "CostPerKm", "ElevCost", "TurnCost", "NodeCost", "InitialCost", "WayTags", "NodeTags", "Time", "Energy"], ["27363294", "44562004", "24", "26", "5050", "0", "90", "0", "0", "highway=footway", "", "4", "436"], ["27363291", "44562116", "24", "12", "1150", "0", "93", "0", "0", "highway=residential", "estimated_crossing_class=5", "6", "638"], ["27361151", "44562144", "25", "171", "3050", "0", "87", "0", "0", "reversedirection=yes highway=primary surface=asphalt smoothness=excellent oneway=no", "highway=crossing estimated_crossing_class=0 crossing=zebra", "41", "4151"], ["27360890", "44562148", "26", "21", "3050", "0", "0", "0", "0", "reversedirection=yes highway=primary surface=asphalt smoothness=excellent oneway=no", "estimated_crossing_class=5", "46", "4608"], ["27360887", "44562026", "27", "14", "1450", "0", "90", "0", "0", "highway=tertiary surface=asphalt", "highway=crossing crossing=uncontrolled", "49", "4962"], ["27360882", "44561922", "26", "12", "1450", "0", "0", "0", "0", "highway=tertiary surface=asphalt", "", "52", "5233"]], "times": [0, 1.848, 4.368, 6.384, 36.388, 41.514, 46.076, 49.622, 52.331]}, "geometry": {"type": "LineString", "coordinates": [[27.363097, 44.561909, 24.0], [27.3631, 44.562007, 24.0], [27.363294, 44.562004, 24.0], [27.363291, 44.562116, 24.0], [27.361497, 44.562135, 25.5], [27.361151, 44.562144, 25.5], [27.36089, 44.562148, 26.25], [27.360887, 44.562026, 27.0], [27.360882, 44.561922, 26.5]]}}]}