{"type": "FeatureCollection", "features": [{"type": "Feature", "properties": {"creator": "BRouter-1.7.10", "name": "brouter_trekking_0", "track-length": "1126", "filtered ascend": "2", "plain-ascend": "-2", "total-time": "187", "total-energy": "18722", "cost": "3082", "messages": [["Longitude", "Latitude", "Elevation", "Distance", "CostPerKm", "ElevCost", "TurnCost", "NodeCost", "InitialCost", "WayTags", "NodeTags", "Time", "Energy"], ["27355374", "44564644", "24", "98", "1450", "0", "0", "0", "0", "highway=tertiary surface=asphalt oneway=yes", "", "17", "1719"], ["27355373", "44564735", "25", "10", "1150", "0", "89", "0", "0", "highway=residential surface=asphalt oneway=yes", "", "19", "1915"], ["27353786", "44564718", "24", "126", "1450", "0", "90", "0", "0", "highway=tertiary surface=asphalt oneway=yes", "highway=crossing crossing=uncontrolled", "44", "4434"], ["27351172", "44564692", "24", "208", "1450", "0", "0", "0", "0", "highway=tertiary surface=asphalt oneway=yes", "highway=crossing", "78", "7830"], ["27350877", "44564671", "23", "24", "1450", "0", "0", "0", "0", "highway=tertiary surface=asphalt oneway=yes", "", "81", "8159"], ["27350964", "44564475", "23", "23", "1450", "0", "99", "0", "0", "reversedirection=yes highway=tertiary surface=asphalt", "highway=crossing", "84", "8471"], ["27351896", "44562911", "26", "189", "1450", "0", "0", "0", "0", "reversedirection=yes highway=tertiary surface=asphalt", "highway=crossing", "120", "12065"], ["27352102", "44562614", "27", "37", "1450", "0", "0", "0", "0", "reversedirection=yes highway=tertiary surface=asphalt", "estimated_crossing_class=5", "130", "13082"], ["27350782", "44562739", "24", "105", "3050", "0", "140", "0", "0", "reversedirection=yes highway=primary surface=asphalt oneway=no", "railway=level_crossing", "145", "14502"], ["27350307", "44562790", "25", "38", "3050", "0", "0", "0", "0", "reversedirection=yes highway=primary surface=asphalt oneway=no", "", "151", "15186"], ["27349730", "44562832", "24", "46", "3050", "0", "2", "0", "0", "highway=primary surface=asphalt oneway=yes", "highway=give_way direction=forward", "159", "15904"], ["27349583", "44562801", "24", "12", "3050", "0", "1", "0", "0", "highway=primary surface=asphalt oneway=yes", "", "160", "16079"], ["27349137", "44562630", "23", "61", "10050", "0", "0", "0", "0", "highway=trunk surface=asphalt foot=no smoothness=good junction=roundabout", "", "169", "16950"], ["27349005", "44562429", "22", "25", "1350", "0", "18", "0", "0", "highway=service surface=asphalt oneway=yes", "", "172", "17257"], ["27348918", "44562180", "21", "29", "1350", "0", "5", "0", "0", "highway=service surface=asphalt", "", "175", "17591"], ["27347883", "44562320", "21", "95", "1350", "0", "181", "0", "0", "reversedirection=yes highway=service", "", "187", "18722"]], "times": [0, 17.194, 19.159, 39.624, 44.341, 50.278, 78.297, 81.59, 82.927, 84.706, 86.834, 96.031, 104.859, 120.64, 130.809, 140.287, 145.011, 145.774, 151.85, 156.965, 158.025, 159.03, 160.776, 161.217, 162.104, 162.946, 163.796, 164.51, 165.519, 166.539, 167.567, 168.546, 169.481, 171.58, 172.55, 173.374, 174.409, 175.884, 177.37, 185.759, 187.198]}, "geometry": {"type": "LineString", "coordinates": [[27.354137, 44.564633, 24.25], [27.355374, 44.564644, 24.5], [27.355373, 44.564735, 25.0], [27.354216, 44.564722, 26.0], [27.353786, 44.564718, 24.5], [27.353131, 44.564709, 23.0], [27.351172, 44.564692, 24.75], [27.350877, 44.564671, 23.75], [27.350898, 44.564586, 23.5], [27.350964, 44.564475, 23.5], [27.35104, 44.56434, 23.25], [27.351294, 44.563868, 24.0], [27.351568, 44.563406, 23.75], [27.351896, 44.562911, 26.0], [27.352102, 44.562614, 27.0], [27.35121, 44.562695, 24.25], [27.350782, 44.562739, 24.0], [27.350715, 44.562748, 24.25], [27.350307, 44.56279, 25.0], [27.349906, 44.56284, 24.5], [27.349812, 44.56284, 24.25], [27.34973, 44.562832, 24.0], [27.349583, 44.562801, 24.0], [27.34956, 44.562821, 24.0], [27.349503, 44.562853, 24.0], [27.349435, 44.562873, 23.75], [27.349362, 44.562878, 23.75], [27.349301, 44.56287, 23.75], [27.349226, 44.562844, 23.75], [27.349167, 44.562802, 23.75], [27.34913, 44.562748, 23.75], [27.34912, 44.562688, 23.5], [27.349137, 44.56263, 23.25], [27.349045, 44.562492, 22.75], [27.349005, 44.562429, 22.5], [27.348958, 44.562374, 22.25], [27.348929, 44.562295, 22.0], [27.348918, 44.56218, 21.75], [27.348773, 44.562186, 22.0], [27.347873, 44.562222, 21.0], [27.347883, 44.56232, 21.0]]}}]}