{"type": "FeatureCollection", "features": [{"type": "Feature", "properties": {"creator": "BRouter-1.7.10", "name": "brouter_trekking_0", "track-length": "256", "filtered ascend": "0", "plain-ascend": "0", "total-time": "38", "total-energy": "3808", "cost": "524", "messages": [["Longitude", "Latitude", "Elevation", "Distance", "CostPerKm", "ElevCost", "TurnCost", "NodeCost", "InitialCost", "WayTags", "NodeTags", "Time", "Energy"], ["27359976", "44564905", "25", "50", "1150", "0", "0", "0", "0", "reversedirection=yes highway=residential", "highway=crossing", "7", "721"], ["27359873", "44564903", "25", "8", "1150", "0", "0", "0", "0", "reversedirection=yes highway=residential", "", "8", "834"], ["27359869", "44564774", "25", "14", "1450", "0", "85", "0", "0", "highway=tertiary surface=asphalt oneway=yes", "", "10", "1024"], ["27359873", "44564537", "23", "26", "1450", "0", "0", "0", "0", "highway=tertiary surface=asphalt", "highway=crossing", "13", "1327"], ["27359906", "44563260", "24", "142", "1450", "0", "0", "0", "0", "highway=tertiary surface=asphalt", "", "35", "3514"], ["27360110", "44563263", "25", "16", "1150", "0", "90", "0", "0", "reversedirection=yes highway=residential surface=asphalt oneway=no", "", "38", "3808"]], "times": [0, 7.212, 8.341, 10.244, 11.873, 13.269, 35.141, 38.079]}, "geometry": {"type": "LineString", "coordinates": [[27.360604, 44.564922, 26.25], [27.359976, 44.564905, 25.5], [27.359873, 44.564903, 25.25], [27.359869, 44.564774, 25.0], [27.359871, 44.564654, 24.5], [27.359873, 44.564537, 23.5], [27.359906, 44.56326, 24.75], [27.36011, 44.563263, 25.5]]}}]}