{"type": "FeatureCollection", "features": [{"type": "Feature", "properties": {"creator": "BRouter-1.7.10", "name": "brouter_trekking_0", "track-length": "1599", "filtered ascend": "0", "plain-ascend": "-5", "total-time": "260", "total-energy": "25960", "cost": "2400", "messages": [["Longitude", "Latitude", "Elevation", "Distance", "CostPerKm", "ElevCost", "TurnCost", "NodeCost", "InitialCost", "WayTags", "NodeTags", "Time", "Energy"], ["27369488", "44562139", "24", "3", "3050", "0", "0", "0", "0", "highway=primary surface=asphalt smoothness=excellent oneway=no", "estimated_crossing_class=4", "0", "53"], ["27369579", "44562222", "25", "12", "1150", "0", "34", "0", "0", "reversedirection=yes highway=residential surface=asphalt", "highway=crossing", "2", "298"], ["27369896", "44562528", "24", "42", "1150", "0", "0", "0", "0", "reversedirection=yes highway=residential surface=asphalt", "highway=crossing", "10", "1029"], ["27369831", "44562680", "24", "24", "1150", "0", "86", "0", "0", "reversedirection=yes highway=residential surface=asphalt", "highway=crossing", "14", "1405"], ["27367874", "44564071", "23", "219", "1150", "0", "1", "0", "0", "reversedirection=yes highway=residential surface=asphalt", "", "48", "4803"], ["27366338", "44564030", "24", "122", "1050", "0", "32", "0", "0", "highway=tertiary surface=asphalt foot=yes bicycle=yes oneway=yes", "", "70", "7036"], ["27366337", "44564076", "24", "5", "1150", "0", "91", "0", "0", "reversedirection=yes highway=residential surface=asphalt", "highway=crossing crossing=uncontrolled", "71", "7127"], ["27366151", "44565173", "22", "123", "1150", "0", "2", "0", "0", "reversedirection=yes highway=residential surface=asphalt", "", "89", "8952"], ["27364439", "44566868", "23", "233", "1150", "0", "9", "0", "0", "highway=residential surface=asphalt", "", "127", "12786"], ["27364341", "44566819", "23", "10", "1150", "0", "90", "0", "0", "reversedirection=yes highway=residential surface=asphalt", "highway=crossing crossing=uncontrolled", "129", "12987"], ["27362046", "44566412", "22", "195", "1150", "0", "5", "0", "0", "reversedirection=yes highway=residential surface=asphalt", "", "161", "16168"], ["27361213", "44566162", "24", "75", "1150", "0", "17", "0", "0", "highway=residential surface=asphalt oneway=no", "highway=crossing", "178", "17812"], ["27360964", "44566130", "23", "20", "1150", "0", "7", "0", "0", "highway=residential surface=asphalt oneway=no", "", "181", "18182"], ["27360860", "44566163", "23", "9", "1150", "0", "6", "0", "0", "highway=residential surface=asphalt oneway=yes", "highway=crossing", "183", "18331"], ["27359949", "44566456", "24", "79", "1150", "0", "0", "0", "0", "highway=residential surface=asphalt oneway=yes", "", "197", "19756"], ["27359740", "44566460", "24", "17", "1150", "0", "7", "0", "0", "reversedirection=yes highway=residential surface=asphalt", "highway=crossing", "201", "20152"], ["27359669", "44566461", "25", "6", "1150", "0", "0", "0", "0", "reversedirection=yes highway=residential surface=asphalt", "", "202", "20297"], ["27358922", "44567988", "22", "180", "1050", "0", "58", "0", "0", "reversedirection=yes highway=tertiary surface=asphalt foot=yes bicycle=yes cycleway=no oneway=no", "highway=crossing crossing=uncontrolled", "233", "23359"], ["27358461", "44568964", "20", "115", "1050", "0", "0", "0", "0", "reversedirection=yes highway=tertiary surface=asphalt foot=yes bicycle=yes cycleway=no oneway=no", "", "246", "24635"], ["27358498", "44568995", "20", "5", "1050", "0", "44", "0", "0", "highway=tertiary surface=asphalt access=yes foot=yes bicycle=yes cycleway=no oneway=no", "highway=crossing", "246", "24696"], ["27358819", "44569262", "20", "39", "1050", "0", "0", "0", "0", "highway=tertiary surface=asphalt access=yes foot=yes bicycle=yes cycleway=no oneway=no", "", "251", "25179"], ["27358225", "44569653", "19", "64", "1150", "0", "87", "0", "0", "reversedirection=yes highway=residential surface=asphalt access=yes foot=yes bicycle=yes cycleway=no oneway=no", "highway=crossing", "259", "25934"], ["27358216", "44569674", "19", "2", "5050", "0", "13", "0", "0", "reversedirection=yes highway=footway", "", "259", "25960"]], "times": [0, 0.539, 2.988, 10.297, 11.916, 14.057, 18.459, 25.632, 31.902, 48.028, 49.408, 51.761, 70.353, 71.265, 81.43, 87.086, 89.52, 101.42, 105.532, 106.751, 108.257, 127.849, 129.864, 141.149, 147.139, 149.72, 150.691, 161.661, 165.095, 169.376, 178.102, 180.023, 181.798, 183.288, 189.101, 197.542, 201.5, 202.942, 220.621, 230.461, 233.562, 234.669, 235.122, 239.581, 246.319, 246.933, 251.764, 259.309, 259.568]}, "geometry": {"type": "LineString", "coordinates": [[27.369455, 44.562138, 24.5], [27.369488, 44.562139, 24.75], [27.369579, 44.562222, 25.25], [27.369896, 44.562528, 24.75], [27.36997, 44.562598, 24.5], [27.369831, 44.56268, 24.25], [27.369512, 44.562865, 23.5], [27.36908, 44.563198, 23.5], [27.368764, 44.563418, 24.25], [27.367874, 44.564071, 23.75], [27.367757, 44.564065, 23.5], [27.367542, 44.564058, 23.0], [27.366338, 44.56403, 24.5], [27.366337, 44.564076, 24.5], [27.366321, 44.564618, 24.25], [27.366235, 44.565019, 22.75], [27.366151, 44.565173, 22.75], [27.36543, 44.565809, 22.0], [27.365166, 44.566055, 21.0], [27.365123, 44.566138, 20.75], [27.365053, 44.566232, 20.75], [27.364439, 44.566868, 23.5], [27.364341, 44.566819, 23.5], [27.363719, 44.566533, 23.5], [27.36323, 44.566419, 22.5], [27.362972, 44.566381, 21.5], [27.362874, 44.566382, 21.25], [27.362046, 44.566412, 22.5], [27.361837, 44.56642, 23.25], [27.36165, 44.566332, 24.0], [27.361213, 44.566162, 24.0], [27.361092, 44.566127, 23.75], [27.360964, 44.56613, 23.5], [27.36086, 44.566163, 23.25], [27.360434, 44.5663, 23.0], [27.359949, 44.566456, 24.0], [27.35974, 44.56646, 24.75], [27.359669, 44.566461, 25.0], [27.359285, 44.567243, 24.5], [27.359035, 44.567759, 24.0], [27.358922, 44.567988, 22.25], [27.35888, 44.568073, 21.75], [27.358868, 44.568105, 21.75], [27.358714, 44.568446, 21.25], [27.358461, 44.568964, 20.25], [27.358498, 44.568995, 20.25], [27.358819, 44.569262, 20.0], [27.358225, 44.569653, 19.0], [27.358216, 44.569674, 19.0]]}}]}