{"type": "FeatureCollection", "features": [{"type": "Feature", "properties": {"creator": "BRouter-1.7.10", "name": "brouter_trekking_0", "track-length": "411", "filtered ascend": "2", "plain-ascend": "-2", "total-time": "57", "total-energy": "5678", "cost": "992", "messages": [["Longitude", "Latitude", "Elevation", "Distance", "CostPerKm", "ElevCost", "TurnCost", "NodeCost", "InitialCost", "WayTags", "NodeTags", "Time", "Energy"], ["27357526", "44564758", "25", "41", "1450", "0", "0", "0", "0", "highway=tertiary surface=asphalt oneway=yes", "", "4", "407"], ["27357525", "44564651", "26", "12", "5150", "0", "88", "0", "0", "reversedirection=yes highway=residential surface=asphalt oneway=yes", "", "5", "544"], ["27358286", "44564654", "30", "60", "1450", "0", "90", "0", "0", "highway=tertiary surface=asphalt oneway=yes", "highway=crossing", "15", "1534"], ["27359762", "44564654", "24", "118", "1450", "0", "0", "0", "0", "highway=tertiary surface=asphalt oneway=yes", "highway=crossing", "30", "3018"], ["27359871", "44564654", "24", "9", "1450", "0", "0", "0", "0", "highway=tertiary surface=asphalt oneway=yes", "", "31", "3126"], ["27359873", "44564537", "23", "13", "1450", "0", "89", "0", "0", "highway=tertiary surface=asphalt", "highway=crossing", "32", "3260"], ["27359906", "44563260", "24", "142", "1450", "0", "0", "0", "0", "highway=tertiary surface=asphalt", "", "53", "5388"], ["27360110", "44563263", "25", "16", "1150", "0", "90", "0", "0", "reversedirection=yes highway=residential surface=asphalt oneway=no", "", "56", "5678"]], "times": [0, 4.07, 5.446, 6.065, 15.342, 17.319, 25.349, 30.183, 31.26, 32.605, 53.88, 56.781]}, "geometry": {"type": "LineString", "coordinates": [[27.358047, 44.564761, 28.75], [27.357526, 44.564758, 25.75], [27.357525, 44.564651, 26.0], [27.357592, 44.564651, 26.25], [27.358286, 44.564654, 30.5], [27.358421, 44.564655, 30.75], [27.359213, 44.564657, 26.0], [27.359762, 44.564654, 24.5], [27.359871, 44.564654, 24.5], [27.359873, 44.564537, 23.5], [27.359906, 44.56326, 24.75], [27.36011, 44.563263, 25.5]]}}]}