{"type": "FeatureCollection", "features": [{"type": "Feature", "properties": {"creator": "BRouter-1.7.10", "name": "brouter_trekking_0", "track-length": "1054", "filtered ascend": "5", "plain-ascend": "2", "total-time": "190", "total-energy": "19050", "cost": "2210", "messages": [["Longitude", "Latitude", "Elevation", "Distance", "CostPerKm", "ElevCost", "TurnCost", "NodeCost", "InitialCost", "WayTags", "NodeTags", "Time", "Energy"], ["27375466", "44563516", "22", "22", "1150", "0", "0", "0", "0", "reversedirection=yes highway=residential surface=asphalt", "", "4", "445"], ["27376136", "44563593", "24", "54", "1150", "0", "0", "0", "0", "highway=residential surface=asphalt", "highway=crossing crossing=uncontrolled", "20", "2023"], ["27376475", "44563634", "24", "27", "1150", "0", "0", "0", "0", "highway=residential surface=asphalt", "highway=crossing crossing=uncontrolled", "26", "2680"], ["27377406", "44563916", "23", "82", "1150", "0", "1", "0", "0", "highway=residential surface=asphalt", "highway=crossing crossing=uncontrolled", "43", "4359"], ["27380657", "44565849", "26", "336", "1150", "0", "0", "0", "0", "highway=residential surface=asphalt", "highway=crossing crossing=uncontrolled", "113", "11311"], ["27380845", "44565974", "26", "20", "1150", "0", "0", "0", "0", "highway=residential surface=asphalt", "highway=crossing crossing=uncontrolled", "117", "11712"], ["27383442", "44568700", "20", "366", "1150", "0", "1", "0", "0", "highway=residential surface=asphalt", "highway=crossing", "165", "16583"], ["27383984", "44568419", "21", "53", "5050", "0", "99", "0", "0", "highway=footway", "", "173", "17313"], ["27384364", "44568213", "21", "48", "5050", "0", "169", "0", "0", "reversedirection=yes highway=footway", "", "180", "18048"], ["27384440", "44567831", "22", "46", "5050", "0", "157", "0", "0", "highway=footway", "", "190", "19050"]], "times": [0, 4.456, 20.228, 26.802, 31.307, 34.738, 37.025, 43.588, 54.814, 59.957, 73.504, 113.096, 115.582, 117.1, 121.078, 126.675, 136.846, 143.112, 154.156, 160.136, 162.231, 165.802, 166.554, 168.723, 173.104, 173.539, 173.976, 174.415, 174.856, 175.298, 175.742, 176.187, 176.634, 177.083, 180.454, 180.938, 181.261, 181.607, 181.952, 190.473]}, "geometry": {"type": "LineString", "coordinates": [[27.375186, 44.563491, 21.25], [27.375466, 44.563516, 22.0], [27.376136, 44.563593, 24.0], [27.376475, 44.563634, 24.0], [27.376719, 44.563674, 24.0], [27.376907, 44.563713, 24.0], [27.377033, 44.563749, 24.0], [27.377406, 44.563916, 23.75], [27.378092, 44.564292, 23.25], [27.378415, 44.564484, 23.0], [27.379119, 44.564902, 23.75], [27.380657, 44.565849, 26.25], [27.380771, 44.565919, 26.5], [27.380845, 44.565974, 26.25], [27.381034, 44.566181, 25.25], [27.381404, 44.566583, 23.0], [27.381968, 44.567197, 22.75], [27.38226, 44.567515, 23.0], [27.382726, 44.567981, 23.5], [27.383084, 44.56834, 21.75], [27.383229, 44.56848, 20.75], [27.383442, 44.5687, 20.75], [27.383497, 44.568666, 20.75], [27.383663, 44.568581, 21.0], [27.383984, 44.568419, 21.0], [27.384012, 44.568435, 21.0], [27.384046, 44.568444, 21.0], [27.384082, 44.568444, 21.0], [27.384116, 44.568436, 21.0], [27.384144, 44.568421, 21.0], [27.384164, 44.568399, 21.0], [27.384173, 44.568375, 21.0], [27.38417, 44.568349, 21.0], [27.384156, 44.568326, 21.0], [27.384364, 44.568213, 21.25], [27.384364, 44.568182, 21.25], [27.384378, 44.568169, 21.25], [27.384398, 44.568161, 21.5], [27.384422, 44.568161, 21.5], [27.38444, 44.567831, 22.75]]}}]}