{"type": "FeatureCollection", "features": [{"type": "Feature", "properties": {"creator": "BRouter-1.7.10", "name": "brouter_trekking_0", "track-length": "1577", "filtered ascend": "9", "plain-ascend": "2", "total-time": "296", "total-energy": "29620", "cost": "2522", "messages": [["Longitude", "Latitude", "Elevation", "Distance", "CostPerKm", "ElevCost", "TurnCost", "NodeCost", "InitialCost", "WayTags", "NodeTags", "Time", "Energy"], ["27358225", "44569653", "19", "2", "5050", "0", "0", "0", "0", "highway=footway", "highway=crossing", "0", "33"], ["27358819", "44569262", "20", "64", "1150", "0", "13", "0", "0", "highway=residential surface=asphalt access=yes foot=yes bicycle=yes cycleway=no oneway=no", "", "13", "1354"], ["27358498", "44568995", "20", "39", "1050", "0", "87", "0", "0", "reversedirection=yes highway=tertiary surface=asphalt access=yes foot=yes bicycle=yes cycleway=no oneway=no", "highway=crossing", "21", "2137"], ["27358461", "44568964", "20", "5", "1050", "0", "0", "0", "0", "reversedirection=yes highway=tertiary surface=asphalt access=yes foot=yes bicycle=yes cycleway=no oneway=no", "", "22", "2234"], ["27358922", "44567988", "22", "115", "1050", "0", "44", "0", "0", "highway=tertiary surface=asphalt foot=yes bicycle=yes cycleway=no oneway=no", "highway=crossing crossing=uncontrolled", "48", "4873"], ["27359669", "44566461", "25", "180", "1050", "0", "0", "0", "0", "highway=tertiary surface=asphalt foot=yes bicycle=yes cycleway=no oneway=no", "", "98", "9824"], ["27359768", "44566263", "24", "23", "1450", "0", "0", "0", "0", "highway=tertiary surface=asphalt oneway=yes", "highway=crossing", "102", "10266"], ["27359874", "44564970", "25", "144", "1450", "0", "1", "0", "0", "highway=tertiary surface=asphalt oneway=yes", "highway=crossing", "129", "12998"], ["27359869", "44564774", "25", "21", "1450", "0", "0", "0", "0", "highway=tertiary surface=asphalt oneway=yes", "", "133", "13363"], ["27359871", "44564654", "24", "13", "1450", "0", "0", "0", "0", "highway=tertiary surface=asphalt", "", "135", "13558"], ["27361170", "44564399", "28", "108", "1450", "0", "74", "0", "0", "highway=tertiary surface=asphalt oneway=yes", "highway=crossing", "161", "16152"], ["27363536", "44564052", "23", "194", "1450", "0", "0", "0", "0", "highway=tertiary surface=asphalt oneway=yes", "highway=crossing", "188", "18858"], ["27363887", "44563848", "24", "37", "1450", "0", "0", "0", "0", "highway=tertiary surface=asphalt oneway=yes", "", "194", "19421"], ["27363897", "44563794", "23", "6", "1450", "0", "20", "0", "0", "reversedirection=yes highway=tertiary surface=asphalt oneway=no", "highway=crossing", "195", "19508"], ["27364128", "44562198", "28", "177", "1450", "0", "0", "0", "0", "reversedirection=yes highway=tertiary surface=asphalt oneway=no", "highway=crossing", "231", "23152"], ["27364130", "44562122", "28", "8", "1450", "0", "0", "0", "0", "reversedirection=yes highway=tertiary surface=asphalt oneway=no", "estimated_crossing_class=5", "234", "23437"], ["27364129", "44562004", "27", "13", "1150", "0", "0", "0", "0", "highway=residential surface=asphalt", "highway=crossing", "238", "23823"], ["27364020", "44560210", "21", "199", "1150", "0", "0", "0", "0", "highway=residential surface=asphalt", "", "267", "26795"], ["27364219", "44560216", "22", "16", "1150", "0", "95", "0", "0", "highway=residential", "", "269", "26972"], ["27364477", "44558983", "21", "138", "1150", "0", "89", "0", "0", "reversedirection=yes highway=residential", "", "286", "28664"], ["27365368", "44559196", "21", "75", "1150", "0", "95", "0", "0", "highway=residential surface=asphalt", "", "296", "29620"]], "times": [0, 0.336, 13.541, 21.375, 22.343, 36.371, 45.469, 46.324, 48.728, 57.844, 75.937, 98.22, 102.644, 107.036, 109.65, 129.958, 131.235, 133.609, 135.557, 137.131, 138.673, 153.366, 156.888, 161.493, 175.398, 177.089, 180.509, 181.917, 184.574, 185.933, 188.554, 190.356, 191.875, 194.179, 195.054, 199.004, 202.906, 207.697, 215.502, 227.568, 231.483, 234.326, 238.186, 242.413, 244.693, 246.401, 248.294, 249.611, 267.905, 269.668, 279.583, 282.166, 284.46, 285.452, 286.589, 296.148]}, "geometry": {"type": "LineString", "coordinates": [[27.358216, 44.569674, 19.0], [27.358225, 44.569653, 19.0], [27.358819, 44.569262, 20.0], [27.358498, 44.568995, 20.25], [27.358461, 44.568964, 20.25], [27.358714, 44.568446, 21.25], [27.358868, 44.568105, 21.75], [27.35888, 44.568073, 21.75], [27.358922, 44.567988, 22.25], [27.359035, 44.567759, 24.0], [27.359285, 44.567243, 24.5], [27.359669, 44.566461, 25.0], [27.359768, 44.566263, 24.75], [27.359848, 44.566042, 24.5], [27.359869, 44.565909, 24.5], [27.359874, 44.56497, 25.25], [27.359873, 44.564903, 25.25], [27.359869, 44.564774, 25.0], [27.359871, 44.564654, 24.5], [27.360002, 44.564637, 24.25], [27.360122, 44.564613, 24.5], [27.36081, 44.564436, 26.75], [27.360975, 44.564415, 27.5], [27.36117, 44.564399, 28.0], [27.362201, 44.564337, 26.25], [27.362346, 44.564327, 25.5], [27.362732, 44.564283, 24.0], [27.362891, 44.564252, 23.5], [27.363187, 44.564178, 23.0], [27.363323, 44.564135, 23.0], [27.363536, 44.564052, 23.75], [27.363657, 44.563993, 24.0], [27.36375, 44.563939, 24.0], [27.363887, 44.563848, 24.0], [27.363897, 44.563794, 23.75], [27.363953, 44.563541, 23.5], [27.363999, 44.563291, 23.25], [27.36404, 44.563082, 24.75], [27.364082, 44.562787, 25.5], [27.364118, 44.5624, 26.75], [27.364128, 44.562198, 28.5], [27.36413, 44.562122, 28.25], [27.364129, 44.562004, 27.75], [27.364116, 44.56168, 24.0], [27.364086, 44.561519, 24.0], [27.364062, 44.561402, 24.0], [27.36405, 44.561276, 24.0], [27.364049, 44.561195, 24.25], [27.36402, 44.56021, 21.75], [27.364219, 44.560216, 22.75], [27.364278, 44.559531, 23.0], [27.364336, 44.559344, 22.25], [27.364412, 44.559154, 21.0], [27.364442, 44.559074, 21.0], [27.364477, 44.558983, 21.0], [27.365368, 44.559196, 21.0]]}}]}