{"type": "FeatureCollection", "features": [{"type": "Feature", "properties": {"creator": "BRouter-1.7.10", "name": "brouter_trekking_0", "track-length": "1189", "filtered ascend": "6", "plain-ascend": "2", "total-time": "215", "total-energy": "21539", "cost": "2154", "messages": [["Longitude", "Latitude", "Elevation", "Distance", "CostPerKm", "ElevCost", "TurnCost", "NodeCost", "InitialCost", "WayTags", "NodeTags", "Time", "Energy"], ["27355483", "44564645", "24", "78", "1450", "0", "0", "0", "0", "highway=tertiary surface=asphalt oneway=yes", "highway=crossing crossing=uncontrolled", "13", "1373"], ["27357365", "44564651", "25", "149", "1450", "0", "0", "0", "0", "highway=tertiary surface=asphalt oneway=yes", "highway=crossing", "42", "4220"], ["27358286", "44564654", "30", "73", "1450", "0", "0", "0", "0", "highway=tertiary surface=asphalt oneway=yes", "highway=crossing", "61", "6106"], ["27359762", "44564654", "24", "118", "1450", "0", "0", "0", "0", "highway=tertiary surface=asphalt oneway=yes", "highway=crossing", "79", "7904"], ["27360975", "44564415", "27", "101", "1450", "0", "2", "0", "0", "highway=tertiary surface=asphalt oneway=yes", "", "99", "9955"], ["27360974", "44564329", "27", "10", "1450", "0", "75", "0", "0", "highway=tertiary surface=asphalt", "highway=crossing", "101", "10197"], ["27360893", "44562252", "25", "230", "1450", "0", "0", "0", "0", "highway=tertiary surface=asphalt", "highway=crossing crossing=zebra", "139", "13922"], ["27360890", "44562148", "26", "12", "1450", "0", "0", "0", "0", "highway=tertiary surface=asphalt", "estimated_crossing_class=5", "141", "14149"], ["27360887", "44562026", "27", "14", "1450", "0", "0", "0", "0", "highway=tertiary surface=asphalt", "highway=crossing crossing=uncontrolled", "144", "14466"], ["27360917", "44560179", "24", "206", "1450", "0", "0", "0", "0", "highway=tertiary surface=asphalt", "highway=crossing crossing=uncontrolled", "176", "17697"], ["27361587", "44558927", "25", "150", "1450", "0", "0", "0", "0", "highway=tertiary surface=asphalt", "", "200", "20089"], ["27361518", "44558659", "26", "48", "5050", "0", "181", "0", "0", "reversedirection=yes highway=footway", "", "215", "21539"]], "times": [0, 12.177, 13.739, 40.304, 42.202, 44.981, 46.102, 61.058, 63.842, 73.705, 79.03, 80.198, 81.584, 82.948, 96.247, 99.54, 101.965, 123.793, 125.856, 132.592, 133.713, 137.665, 139.21, 141.475, 144.648, 164.018, 168.109, 170.174, 176.948, 178.93, 181.675, 183.163, 190.73, 200.859, 212.692, 215.362]}, "geometry": {"type": "LineString", "coordinates": [[27.354506, 44.564636, 24.25], [27.355374, 44.564644, 24.5], [27.355483, 44.564645, 24.5], [27.357238, 44.564649, 25.25], [27.357365, 44.564651, 25.5], [27.357525, 44.564651, 26.0], [27.357592, 44.564651, 26.25], [27.358286, 44.564654, 30.5], [27.358421, 44.564655, 30.75], [27.359213, 44.564657, 26.0], [27.359762, 44.564654, 24.5], [27.359871, 44.564654, 24.5], [27.360002, 44.564637, 24.25], [27.360122, 44.564613, 24.5], [27.36081, 44.564436, 26.75], [27.360975, 44.564415, 27.5], [27.360974, 44.564329, 27.5], [27.360931, 44.563248, 26.75], [27.360924, 44.563112, 25.75], [27.360912, 44.562653, 25.25], [27.360907, 44.56258, 25.25], [27.360899, 44.562345, 25.5], [27.360893, 44.562252, 25.5], [27.36089, 44.562148, 26.25], [27.360887, 44.562026, 27.0], [27.360845, 44.561073, 26.5], [27.36084, 44.560756, 24.5], [27.36085, 44.560598, 24.0], [27.360917, 44.560179, 24.75], [27.360954, 44.560056, 24.5], [27.361022, 44.559877, 24.0], [27.361067, 44.55978, 24.0], [27.361332, 44.559345, 24.0], [27.361587, 44.558927, 25.25], [27.361373, 44.558639, 27.75], [27.361518, 44.558659, 26.0]]}}]}