{"type": "FeatureCollection", "features": [{"type": "Feature", "properties": {"creator": "BRouter-1.7.10", "name": "brouter_trekking_0", "track-length": "4276", "filtered ascend": "12", "plain-ascend": "1", "total-time": "743", "total-energy": "74261", "cost": "8610", "messages": [["Longitude", "Latitude", "Elevation", "Distance", "CostPerKm", "ElevCost", "TurnCost", "NodeCost", "InitialCost", "WayTags", "NodeTags", "Time", "Energy"], ["27350804", "44564933", "23", "20", "1350", "0", "0", "0", "0", "reversedirection=yes highway=service", "", "3", "380"], ["27350877", "44564671", "23", "29", "1150", "0", "109", "0", "0", "reversedirection=yes highway=residential surface=asphalt", "", "9", "935"], ["27350898", "44564586", "23", "10", "1450", "0", "0", "0", "0", "reversedirection=yes highway=tertiary surface=asphalt", "", "11", "1104"], ["27351201", "44564605", "24", "24", "1450", "0", "83", "0", "0", "highway=tertiary surface=asphalt oneway=yes", "highway=crossing", "16", "1608"], ["27353782", "44564631", "24", "205", "1450", "0", "0", "0", "0", "highway=tertiary surface=asphalt oneway=yes", "highway=crossing crossing=uncontrolled", "50", "5077"], ["27355483", "44564645", "24", "136", "1450", "0", "0", "0", "0", "highway=tertiary surface=asphalt oneway=yes", "highway=crossing crossing=uncontrolled", "76", "7694"], ["27357365", "44564651", "25", "149", "1450", "0", "0", "0", "0", "highway=tertiary surface=asphalt oneway=yes", "highway=crossing", "105", "10588"], ["27358286", "44564654", "30", "73", "1450", "0", "0", "0", "0", "highway=tertiary surface=asphalt oneway=yes", "highway=crossing", "124", "12484"], ["27359762", "44564654", "24", "118", "1450", "0", "0", "0", "0", "highway=tertiary surface=asphalt oneway=yes", "highway=crossing", "142", "14285"], ["27361170", "44564399", "28", "117", "1450", "0", "2", "0", "0", "highway=tertiary surface=asphalt oneway=yes", "highway=crossing", "167", "16773"], ["27363536", "44564052", "23", "194", "1450", "0", "0", "0", "0", "highway=tertiary surface=asphalt oneway=yes", "highway=crossing", "194", "19416"], ["27363887", "44563848", "24", "37", "1450", "0", "0", "0", "0", "highway=tertiary surface=asphalt oneway=yes", "", "199", "19975"], ["27363897", "44563794", "23", "6", "1450", "0", "20", "0", "0", "reversedirection=yes highway=tertiary surface=asphalt oneway=no", "highway=crossing", "200", "20063"], ["27364040", "44563082", "24", "79", "1450", "0", "0", "0", "0", "reversedirection=yes highway=tertiary surface=asphalt oneway=no", "", "213", "21323"], ["27366509", "44563194", "23", "197", "1150", "0", "86", "0", "0", "highway=residential surface=asphalt oneway=yes", "highway=crossing crossing=uncontrolled", "243", "24307"], ["27368156", "44563199", "25", "130", "1150", "0", "0", "0", "0", "highway=residential surface=asphalt oneway=yes", "highway=crossing crossing=uncontrolled", "271", "27171"], ["27368764", "44563418", "24", "55", "1150", "0", "13", "0", "0", "highway=residential surface=asphalt oneway=yes", "", "280", "28101"], ["27369512", "44562865", "23", "85", "1150", "0", "68", "0", "0", "highway=residential surface=asphalt", "", "293", "29320"], ["27371338", "44564290", "20", "217", "1150", "0", "112", "0", "0", "reversedirection=yes highway=residential", "", "322", "32224"], ["27370870", "44564832", "20", "70", "1450", "0", "64", "0", "0", "reversedirection=yes highway=tertiary surface=asphalt", "", "332", "33207"], ["27375054", "44563480", "21", "421", "1150", "0", "143", "0", "0", "highway=residential surface=asphalt", "", "405", "40604"], ["27375466", "44563516", "22", "33", "1150", "0", "35", "0", "0", "reversedirection=yes highway=residential surface=asphalt", "", "411", "41190"], ["27376136", "44563593", "24", "54", "1150", "0", "0", "0", "0", "highway=residential surface=asphalt", "highway=crossing crossing=uncontrolled", "426", "42636"], ["27376475", "44563634", "24", "27", "1150", "0", "0", "0", "0", "highway=residential surface=asphalt", "highway=crossing crossing=uncontrolled", "432", "43255"], ["27377406", "44563916", "23", "82", "1150", "0", "1", "0", "0", "highway=residential surface=asphalt", "highway=crossing crossing=uncontrolled", "448", "44872"], ["27380657", "44565849", "26", "336", "1150", "0", "0", "0", "0", "highway=residential surface=asphalt", "highway=crossing crossing=uncontrolled", "517", "51785"], ["27380771", "44565919", "26", "12", "1150", "0", "0", "0", "0", "highway=residential surface=asphalt", "", "520", "52033"], ["27380874", "44565830", "26", "13", "1150", "0", "91", "0", "0", "highway=residential surface=asphalt oneway=yes", "highway=crossing crossing=uncontrolled", "523", "52314"], ["27381765", "44565117", "24", "106", "1150", "0", "0", "0", "0", "highway=residential surface=asphalt oneway=yes", "highway=crossing crossing=uncontrolled", "536", "53650"], ["27381898", "44565011", "24", "16", "1150", "0", "0", "0", "0", "highway=residential surface=asphalt oneway=yes", "estimated_crossing_class=4", "538", "53879"], ["27381778", "44564920", "23", "14", "3050", "0", "82", "0", "0", "reversedirection=yes highway=primary surface=asphalt smoothness=excellent oneway=no", "estimated_crossing_class=4", "540", "54073"], ["27381811", "44564816", "23", "12", "1350", "0", "40", "0", "0", "highway=unclassified surface=asphalt", "highway=crossing", "542", "54234"], ["27381764", "44563818", "19", "111", "1350", "0", "3", "0", "0", "highway=unclassified surface=asphalt", "", "556", "55651"], ["27381691", "44563779", "19", "7", "10050", "0", "33", "0", "0", "highway=trunk surface=asphalt smoothness=good oneway=no", "highway=crossing crossing=zebra", "557", "55747"], ["27381734", "44563726", "19", "7", "5050", "0", "79", "0", "0", "reversedirection=yes highway=footway", "", "558", "55849"], ["27382047", "44563910", "20", "32", "5050", "0", "104", "0", "0", "highway=footway", "", "561", "56172"], ["27382235", "44564010", "21", "19", "40000", "0", "0", "0", "0", "highway=steps foot=yes", "", "564", "56425"], ["27383036", "44563116", "21", "118", "1050", "0", "96", "0", "0", "highway=footway surface=asphalt foot=yes bicycle=yes", "", "582", "58237"], ["27383694", "44562356", "25", "99", "5050", "0", "2", "0", "0", "highway=footway", "estimated_crossing_class=4", "609", "60978"], ["27383485", "44562119", "26", "31", "3050", "0", "48", "0", "0", "highway=primary surface=asphalt smoothness=good oneway=no", "estimated_crossing_class=4", "614", "61507"], ["27383799", "44562085", "27", "25", "1650", "0", "126", "0", "0", "reversedirection=yes highway=secondary surface=asphalt smoothness=excellent oneway=no", "estimated_crossing_class=3", "620", "62017"], ["27384561", "44562004", "27", "61", "1650", "0", "0", "0", "0", "reversedirection=yes highway=secondary surface=asphalt smoothness=excellent oneway=no", "estimated_crossing_class=3", "633", "63312"], ["27385474", "44561910", "24", "73", "1650", "0", "0", "0", "0", "reversedirection=yes highway=secondary surface=asphalt smoothness=excellent oneway=no", "estimated_crossing_class=3", "644", "64506"], ["27386085", "44561804", "25", "50", "1650", "0", "0", "0", "0", "reversedirection=yes highway=secondary surface=asphalt smoothness=excellent oneway=no", "estimated_crossing_class=3", "655", "65595"], ["27387577", "44561443", "24", "126", "1650", "0", "0", "0", "0", "reversedirection=yes highway=secondary surface=asphalt smoothness=excellent oneway=no", "estimated_crossing_class=3", "677", "67712"], ["27388129", "44561087", "23", "59", "1650", "0", "5", "0", "0", "reversedirection=yes highway=secondary surface=asphalt smoothness=excellent oneway=no", "estimated_crossing_class=3", "685", "68566"], ["27389797", "44560007", "22", "179", "1650", "0", "0", "0", "0", "reversedirection=yes highway=secondary surface=asphalt smoothness=excellent oneway=no", "estimated_crossing_class=3", "708", "70906"], ["27389939", "44559910", "22", "16", "1650", "0", "0", "0", "0", "reversedirection=yes highway=secondary surface=asphalt smoothness=excellent oneway=no", "estimated_crossing_class=3", "711", "71152"], ["27391336", "44559042", "22", "147", "1650", "0", "0", "0", "0", "reversedirection=yes highway=secondary surface=asphalt smoothness=excellent oneway=no", "estimated_crossing_class=3", "734", "73476"], ["27391640", "44558901", "22", "29", "1650", "0", "1", "0", "0", "reversedirection=yes highway=secondary surface=asphalt smoothness=excellent oneway=no", "estimated_crossing_class=3", "740", "74063"], ["27391617", "44558814", "23", "10", "1350", "0", "58", "0", "0", "highway=service", "", "742", "74261"]], "times": [0, 3.807, 6.99, 9.356, 11.047, 13.718, 16.079, 17.341, 39.716, 50.776, 75.321, 76.936, 103.97, 105.882, 108.68, 109.808, 124.83, 127.623, 137.507, 142.838, 144.007, 145.394, 146.759, 160.066, 163.361, 167.714, 181.124, 182.783, 186.162, 187.557, 190.193, 191.543, 194.144, 195.934, 197.444, 199.736, 200.606, 204.541, 208.432, 213.21, 215.65, 226.12, 236.613, 243.045, 244.912, 256.788, 271.678, 273.691, 280.985, 285.812, 293.169, 306.61, 310.01, 312.045, 313.307, 322.2, 323.21, 332.026, 346.888, 355.724, 368.273, 376.218, 392.235, 399.863, 405.99, 411.848, 426.303, 432.487, 436.776, 440.069, 442.275, 448.656, 459.702, 464.797, 478.263, 517.776, 520.26, 523.064, 536.42, 538.715, 540.654, 542.262, 556.435, 557.388, 558.412, 561.638, 564.175, 582.292, 586.019, 590.149, 609.695, 614.978, 620.085, 633.03, 644.967, 655.857, 673.123, 677.02, 685.562, 708.961, 711.422, 727.532, 734.654, 736.026, 740.525, 742.51]}, "geometry": {"type": "LineString", "coordinates": [[27.350573, 44.56487, 23.25], [27.350804, 44.564933, 23.75], [27.350834, 44.564788, 24.0], [27.350877, 44.564671, 23.75], [27.350898, 44.564586, 23.5], [27.351057, 44.564597, 24.25], [27.351201, 44.564605, 24.5], [27.351273, 44.564609, 24.5], [27.353128, 44.564622, 23.0], [27.353782, 44.564631, 24.25], [27.355374, 44.564644, 24.5], [27.355483, 44.564645, 24.5], [27.357238, 44.564649, 25.25], [27.357365, 44.564651, 25.5], [27.357525, 44.564651, 26.0], [27.357592, 44.564651, 26.25], [27.358286, 44.564654, 30.5], [27.358421, 44.564655, 30.75], [27.359213, 44.564657, 26.0], [27.359762, 44.564654, 24.5], [27.359871, 44.564654, 24.5], [27.360002, 44.564637, 24.25], [27.360122, 44.564613, 24.5], [27.36081, 44.564436, 26.75], [27.360975, 44.564415, 27.5], [27.36117, 44.564399, 28.0], [27.362201, 44.564337, 26.25], [27.362346, 44.564327, 25.5], [27.362732, 44.564283, 24.0], [27.362891, 44.564252, 23.5], [27.363187, 44.564178, 23.0], [27.363323, 44.564135, 23.0], [27.363536, 44.564052, 23.75], [27.363657, 44.563993, 24.0], [27.36375, 44.563939, 24.0], [27.363887, 44.563848, 24.0], [27.363897, 44.563794, 23.75], [27.363953, 44.563541, 23.5], [27.363999, 44.563291, 23.25], [27.36404, 44.563082, 24.75], [27.3642, 44.563093, 24.5], [27.36519, 44.563182, 22.75], [27.365992, 44.563194, 23.25], [27.366509, 44.563194, 23.0], [27.366652, 44.563194, 23.25], [27.367411, 44.563191, 24.0], [27.368156, 44.563199, 25.5], [27.368275, 44.5632, 25.5], [27.368764, 44.563418, 24.25], [27.36908, 44.563198, 23.5], [27.369512, 44.562865, 23.5], [27.370253, 44.563517, 23.0], [27.370431, 44.563665, 23.0], [27.370575, 44.563714, 23.0], [27.370652, 44.563754, 23.0], [27.371338, 44.56429, 20.5], [27.371283, 44.564355, 20.5], [27.37087, 44.564832, 20.75], [27.371624, 44.565304, 21.75], [27.372063, 44.565092, 22.5], [27.372722, 44.564791, 22.75], [27.373248, 44.564546, 22.0], [27.374256, 44.564044, 22.0], [27.374674, 44.563757, 22.0], [27.375054, 44.56348, 21.25], [27.375466, 44.563516, 22.0], [27.376136, 44.563593, 24.0], [27.376475, 44.563634, 24.0], [27.376719, 44.563674, 24.0], [27.376907, 44.563713, 24.0], [27.377033, 44.563749, 24.0], [27.377406, 44.563916, 23.75], [27.378092, 44.564292, 23.25], [27.378415, 44.564484, 23.0], [27.379119, 44.564902, 23.75], [27.380657, 44.565849, 26.25], [27.380771, 44.565919, 26.5], [27.380874, 44.56583, 26.75], [27.381765, 44.565117, 24.0], [27.381898, 44.565011, 24.0], [27.381778, 44.56492, 23.75], [27.381811, 44.564816, 23.5], [27.381764, 44.563818, 19.5], [27.381691, 44.563779, 19.25], [27.381734, 44.563726, 19.5], [27.382047, 44.56391, 20.25], [27.382235, 44.56401, 21.25], [27.383036, 44.563116, 21.5], [27.383153, 44.562976, 22.5], [27.383291, 44.562858, 23.25], [27.383694, 44.562356, 25.0], [27.383485, 44.562119, 26.5], [27.383799, 44.562085, 27.25], [27.384561, 44.562004, 27.75], [27.385474, 44.56191, 24.0], [27.386085, 44.561804, 25.25], [27.387268, 44.561535, 24.75], [27.387577, 44.561443, 24.0], [27.388129, 44.561087, 23.75], [27.389797, 44.560007, 22.0], [27.389939, 44.55991, 22.0], [27.390964, 44.559257, 21.5], [27.391336, 44.559042, 22.25], [27.391405, 44.559002, 22.5], [27.39164, 44.558901, 22.75], [27.391617, 44.558814, 23.75]]}}]}