{"type": "FeatureCollection", "features": [{"type": "Feature", "properties": {"creator": "BRouter-1.7.10", "name": "brouter_trekking_0", "track-length": "735", "filtered ascend": "5", "plain-ascend": "0", "total-time": "127", "total-energy": "12679", "cost": "1457", "messages": [["Longitude", "Latitude", "Elevation", "Distance", "CostPerKm", "ElevCost", "TurnCost", "NodeCost", "InitialCost", "WayTags", "NodeTags", "Time", "Energy"], ["27359906", "44563260", "24", "16", "1150", "0", "0", "0", "0", "highway=residential surface=asphalt oneway=no", "", "2", "238"], ["27359873", "44564537", "23", "142", "1450", "0", "90", "0", "0", "reversedirection=yes highway=tertiary surface=asphalt", "highway=crossing", "21", "2144"], ["27359869", "44564774", "25", "26", "1450", "0", "0", "0", "0", "reversedirection=yes highway=tertiary surface=asphalt", "", "26", "2684"], ["27359766", "44564773", "25", "8", "1450", "0", "90", "0", "0", "highway=tertiary surface=asphalt oneway=yes", "highway=crossing", "28", "2855"], ["27358283", "44564763", "30", "118", "1450", "0", "0", "0", "0", "highway=tertiary surface=asphalt oneway=yes", "highway=crossing", "60", "6035"], ["27357360", "44564756", "25", "73", "1450", "0", "0", "0", "0", "highway=tertiary surface=asphalt oneway=yes", "highway=crossing", "71", "7144"], ["27355483", "44564736", "25", "149", "1450", "0", "0", "0", "0", "highway=tertiary surface=asphalt oneway=yes", "highway=crossing crossing=uncontrolled", "93", "9361"], ["27353786", "44564718", "24", "135", "1450", "0", "0", "0", "0", "highway=tertiary surface=asphalt oneway=yes", "highway=crossing crossing=uncontrolled", "117", "11743"], ["27353782", "44564631", "24", "10", "5050", "0", "86", "0", "0", "highway=footway", "highway=crossing crossing=uncontrolled", "118", "11873"], ["27354506", "44564636", "24", "58", "1450", "0", "94", "0", "0", "highway=tertiary surface=asphalt oneway=yes", "", "126", "12679"]], "times": [0, 2.383, 21.439, 23.988, 26.842, 28.552, 40.99, 60.339, 69.602, 71.433, 93.607, 95.043, 112.956, 117.416, 118.716, 126.775]}, "geometry": {"type": "LineString", "coordinates": [[27.36011, 44.563263, 25.25], [27.359906, 44.56326, 24.75], [27.359873, 44.564537, 23.5], [27.359871, 44.564654, 24.5], [27.359869, 44.564774, 25.0], [27.359766, 44.564773, 25.0], [27.359215, 44.564768, 26.5], [27.358283, 44.564763, 30.25], [27.357526, 44.564758, 25.75], [27.35736, 44.564756, 25.25], [27.355483, 44.564736, 25.0], [27.355373, 44.564735, 25.0], [27.354216, 44.564722, 26.0], [27.353786, 44.564718, 24.5], [27.353782, 44.564631, 24.25], [27.354506, 44.564636, 24.5]]}}]}