{"type": "FeatureCollection", "features": [{"type": "Feature", "properties": {"creator": "BRouter-1.7.10", "name": "brouter_trekking_0", "track-length": "3187", "filtered ascend": "0", "plain-ascend": "-9", "total-time": "520", "total-energy": "52024", "cost": "5187", "messages": [["Longitude", "Latitude", "Elevation", "Distance", "CostPerKm", "ElevCost", "TurnCost", "NodeCost", "InitialCost", "WayTags", "NodeTags", "Time", "Energy"], ["27351583", "44562398", "26", "2", "5050", "0", "0", "0", "0", "highway=footway", "", "0", "33"], ["27351513", "44562533", "26", "16", "5050", "0", "72", "0", "0", "reversedirection=yes highway=footway", "", "3", "302"], ["27352889", "44562400", "25", "110", "5050", "0", "132", "0", "0", "highway=footway", "", "20", "2008"], ["27352917", "44562532", "26", "15", "5150", "0", "88", "0", "0", "reversedirection=yes highway=residential surface=asphalt oneway=yes", "estimated_crossing_class=5", "22", "2265"], ["27352869", "44562537", "26", "4", "3050", "0", "90", "0", "0", "reversedirection=yes highway=primary surface=asphalt smoothness=excellent oneway=no", "estimated_crossing_class=5", "23", "2334"], ["27352102", "44562614", "27", "62", "3050", "0", "0", "0", "0", "reversedirection=yes highway=primary surface=asphalt smoothness=excellent oneway=no", "estimated_crossing_class=5", "36", "3634"], ["27351896", "44562911", "26", "37", "1450", "0", "39", "0", "0", "highway=tertiary surface=asphalt", "highway=crossing", "42", "4200"], ["27350964", "44564475", "23", "189", "1450", "0", "0", "0", "0", "highway=tertiary surface=asphalt", "highway=crossing", "65", "6581"], ["27350877", "44564671", "23", "23", "1450", "0", "2", "0", "0", "highway=tertiary surface=asphalt", "", "69", "6937"], ["27350804", "44565008", "23", "37", "1150", "0", "1", "0", "0", "highway=residential surface=asphalt", "highway=crossing crossing=uncontrolled", "75", "7550"], ["27358880", "44568073", "21", "962", "1150", "0", "85", "0", "0", "highway=residential surface=asphalt", "", "231", "23125"], ["27358461", "44568964", "20", "105", "1050", "0", "112", "0", "0", "reversedirection=yes highway=tertiary surface=asphalt foot=yes bicycle=yes cycleway=no oneway=no", "", "245", "24594"], ["27358498", "44568995", "20", "5", "1050", "0", "44", "0", "0", "highway=tertiary surface=asphalt access=yes foot=yes bicycle=yes cycleway=no oneway=no", "highway=crossing", "246", "24665"], ["27361321", "44569878", "20", "249", "1050", "0", "12", "0", "0", "highway=tertiary surface=asphalt access=yes foot=yes bicycle=yes cycleway=no oneway=no", "highway=crossing", "290", "29019"], ["27371271", "44572196", "21", "831", "1050", "0", "3", "0", "0", "highway=tertiary surface=asphalt access=yes foot=yes bicycle=yes cycleway=no oneway=no", "", "436", "43655"], ["27371024", "44573357", "21", "130", "1550", "0", "77", "0", "0", "reversedirection=yes highway=residential surface=unpaved", "", "463", "46334"], ["27372571", "44573741", "19", "130", "1150", "0", "74", "0", "0", "highway=residential", "highway=crossing crossing=uncontrolled", "480", "48014"], ["27374148", "44574110", "18", "132", "1150", "0", "0", "0", "0", "highway=residential", "highway=crossing crossing=uncontrolled", "496", "49607"], ["27375575", "44574457", "18", "119", "1150", "0", "0", "0", "0", "highway=residential", "highway=crossing crossing=uncontrolled", "515", "51558"], ["27375919", "44574538", "16", "29", "1150", "0", "0", "0", "0", "highway=residential", "", "520", "52024"]], "times": [0, 0.336, 3.024, 20.082, 22.656, 23.341, 36.345, 42.007, 48.664, 56.228, 63.453, 65.81, 67.758, 69.371, 71.615, 74.2, 75.499, 78.712, 83.203, 103.571, 114.191, 128.132, 155.414, 221.174, 231.243, 231.915, 237.944, 245.936, 246.636, 252.013, 278.976, 290.174, 291.174, 307.944, 318.316, 350.618, 355.02, 376.035, 389.922, 418.665, 434.992, 436.51, 437.451, 439.504, 458.308, 463.301, 478.85, 480.092, 496.023, 498.109, 507.641, 515.526, 518.554, 520.19]}, "geometry": {"type": "LineString", "coordinates": [[27.351611, 44.562401, 26.25], [27.351583, 44.562398, 26.25], [27.351513, 44.562533, 26.25], [27.352889, 44.5624, 25.75], [27.352917, 44.562532, 26.0], [27.352869, 44.562537, 26.0], [27.352102, 44.562614, 27.0], [27.351896, 44.562911, 26.0], [27.351568, 44.563406, 23.75], [27.351294, 44.563868, 24.0], [27.35104, 44.56434, 23.25], [27.350964, 44.564475, 23.5], [27.350898, 44.564586, 23.5], [27.350877, 44.564671, 23.75], [27.350834, 44.564788, 24.0], [27.350804, 44.564933, 23.75], [27.350804, 44.565008, 23.75], [27.350804, 44.565257, 22.0], [27.350822, 44.565534, 22.75], [27.350898, 44.566359, 24.75], [27.350961, 44.567203, 21.5], [27.351008, 44.568017, 22.0], [27.353113, 44.568036, 22.0], [27.35813, 44.568068, 21.75], [27.35888, 44.568073, 21.75], [27.358868, 44.568105, 21.75], [27.358714, 44.568446, 21.25], [27.358461, 44.568964, 20.25], [27.358498, 44.568995, 20.25], [27.358819, 44.569262, 20.0], [27.36029, 44.569632, 22.25], [27.361321, 44.569878, 20.25], [27.361407, 44.569898, 20.25], [27.36222, 44.570093, 22.75], [27.362848, 44.570243, 22.5], [27.364355, 44.570589, 24.75], [27.364765, 44.570686, 22.75], [27.366404, 44.57107, 20.0], [27.367757, 44.571394, 18.0], [27.369983, 44.571916, 21.0], [27.371165, 44.572192, 21.0], [27.371271, 44.572196, 21.5], [27.371277, 44.572238, 21.5], [27.371267, 44.572339, 21.5], [27.371099, 44.573033, 23.0], [27.371024, 44.573357, 21.25], [27.372461, 44.573715, 20.0], [27.372571, 44.573741, 19.75], [27.374148, 44.57411, 18.0], [27.374354, 44.574162, 17.25], [27.375062, 44.574333, 18.25], [27.375575, 44.574457, 18.75], [27.375788, 44.574508, 18.5], [27.375919, 44.574538, 16.5]]}}]}