{"type": "FeatureCollection", "features": [{"type": "Feature", "properties": {"creator": "BRouter-1.7.10", "name": "brouter_trekking_0", "track-length": "1357", "filtered ascend": "1", "plain-ascend": "-4", "total-time": "215", "total-energy": "21552", "cost": "2212", "messages": [["Longitude", "Latitude", "Elevation", "Distance", "CostPerKm", "ElevCost", "TurnCost", "NodeCost", "InitialCost", "WayTags", "NodeTags", "Time", "Energy"], ["27360930", "44564932", "27", "26", "1150", "0", "0", "0", "0", "highway=residential", "", "5", "524"], ["27360995", "44564727", "27", "24", "1450", "0", "82", "0", "0", "highway=tertiary surface=asphalt oneway=yes", "highway=crossing", "10", "1072"], ["27360974", "44564329", "27", "45", "1450", "0", "5", "0", "0", "highway=tertiary surface=asphalt", "highway=crossing", "19", "1980"], ["27360893", "44562252", "25", "230", "1450", "0", "0", "0", "0", "highway=tertiary surface=asphalt", "highway=crossing crossing=zebra", "54", "5420"], ["27360890", "44562148", "26", "12", "1450", "0", "0", "0", "0", "highway=tertiary surface=asphalt", "estimated_crossing_class=5", "56", "5642"], ["27360887", "44562026", "27", "14", "1450", "0", "0", "0", "0", "highway=tertiary surface=asphalt", "highway=crossing crossing=uncontrolled", "59", "5954"], ["27360845", "44561073", "26", "106", "1450", "0", "0", "0", "0", "highway=tertiary surface=asphalt", "", "78", "7873"], ["27359132", "44561114", "25", "136", "1150", "0", "90", "0", "0", "highway=residential surface=asphalt oneway=no", "", "99", "9980"], ["27359097", "44560339", "25", "87", "1150", "0", "90", "0", "0", "highway=residential surface=asphalt", "highway=crossing crossing=uncontrolled", "113", "11357"], ["27355068", "44557811", "26", "565", "1150", "0", "164", "0", "0", "highway=residential surface=asphalt", "", "198", "19805"], ["27355540", "44556862", "21", "112", "1150", "0", "92", "0", "0", "highway=residential", "", "215", "21552"]], "times": [0, 5.247, 7.485, 10.723, 15.856, 17.843, 19.798, 39.249, 41.218, 47.736, 48.828, 52.69, 54.205, 56.426, 59.545, 78.73, 91.704, 93.991, 99.798, 104.877, 113.566, 138.634, 147.124, 148.539, 149.725, 151.289, 174.028, 178.053, 198.029, 215.494]}, "geometry": {"type": "LineString", "coordinates": [[27.360604, 44.564922, 26.25], [27.36093, 44.564932, 27.0], [27.360946, 44.564846, 27.5], [27.360995, 44.564727, 27.75], [27.360981, 44.564502, 27.5], [27.360975, 44.564415, 27.5], [27.360974, 44.564329, 27.5], [27.360931, 44.563248, 26.75], [27.360924, 44.563112, 25.75], [27.360912, 44.562653, 25.25], [27.360907, 44.56258, 25.25], [27.360899, 44.562345, 25.5], [27.360893, 44.562252, 25.5], [27.36089, 44.562148, 26.25], [27.360887, 44.562026, 27.0], [27.360845, 44.561073, 26.5], [27.3599, 44.561097, 26.5], [27.359698, 44.561102, 25.75], [27.359132, 44.561114, 25.0], [27.359117, 44.560776, 24.75], [27.359097, 44.560339, 25.75], [27.359029, 44.5588, 24.5], [27.359017, 44.558277, 24.0], [27.358897, 44.558234, 23.25], [27.358832, 44.558164, 23.25], [27.358822, 44.558065, 23.5], [27.356804, 44.558137, 22.75], [27.356461, 44.558143, 22.5], [27.355068, 44.557811, 26.0], [27.35554, 44.556862, 21.0]]}}]}