{"type": "FeatureCollection", "features": [{"type": "Feature", "properties": {"creator": "BRouter-1.7.10", "name": "brouter_trekking_0", "track-length": "1462", "filtered ascend": "3", "plain-ascend": "0", "total-time": "265", "total-energy": "26529", "cost": "2281", "messages": [["Longitude", "Latitude", "Elevation", "Distance", "CostPerKm", "ElevCost", "TurnCost", "NodeCost", "InitialCost", "WayTags", "NodeTags", "Time", "Energy"], ["27375054", "44563480", "21", "11", "1150", "0", "0", "0", "0", "highway=residential surface=asphalt", "", "1", "184"], ["27372722", "44564791", "22", "237", "1150", "0", "36", "0", "0", "reversedirection=yes highway=residential surface=asphalt", "", "46", "4653"], ["27371698", "44564065", "22", "115", "1150", "0", "71", "0", "0", "highway=residential surface=asphalt oneway=yes", "highway=crossing", "65", "6592"], ["27371605", "44563996", "22", "11", "1150", "0", "0", "0", "0", "highway=residential surface=asphalt oneway=yes", "", "67", "6778"], ["27371528", "44564077", "21", "11", "1450", "0", "108", "0", "0", "reversedirection=yes highway=tertiary surface=asphalt", "highway=crossing", "69", "6941"], ["27371283", "44564355", "20", "36", "1450", "0", "0", "0", "0", "reversedirection=yes highway=tertiary surface=asphalt", "", "73", "7373"], ["27371201", "44564348", "21", "7", "1450", "0", "53", "0", "0", "reversedirection=yes highway=tertiary surface=asphalt oneway=no", "highway=crossing", "74", "7472"], ["27370268", "44564264", "23", "75", "1450", "0", "0", "0", "0", "reversedirection=yes highway=tertiary surface=asphalt oneway=no", "", "91", "9120"], ["27366338", "44564030", "24", "313", "1050", "0", "0", "0", "0", "highway=tertiary surface=asphalt foot=yes bicycle=yes oneway=yes", "", "153", "15392"], ["27366337", "44564076", "24", "5", "1150", "0", "91", "0", "0", "reversedirection=yes highway=residential surface=asphalt", "highway=crossing crossing=uncontrolled", "154", "15484"], ["27366151", "44565173", "22", "123", "1150", "0", "2", "0", "0", "reversedirection=yes highway=residential surface=asphalt", "", "173", "17319"], ["27364439", "44566868", "23", "233", "1150", "0", "9", "0", "0", "highway=residential surface=asphalt", "", "211", "21155"], ["27364259", "44567120", "24", "31", "1150", "0", "0", "0", "0", "reversedirection=yes highway=residential surface=asphalt", "", "218", "21899"], ["27364876", "44567790", "23", "113", "1150", "0", "130", "0", "0", "highway=residential surface=asphalt oneway=yes", "", "238", "23859"], ["27363917", "44568393", "21", "141", "1150", "0", "89", "0", "0", "reversedirection=yes highway=residential surface=asphalt oneway=no", "", "265", "26529"]], "times": [0, 1.848, 10.402, 19.009, 36.378, 46.528, 65.926, 67.778, 69.415, 72.731, 73.728, 74.721, 91.198, 116.35, 131.177, 132.598, 135.007, 153.906, 154.826, 165.06, 170.733, 173.173, 185.09, 189.205, 190.424, 191.931, 211.532, 214.738, 218.971, 222.973, 224.319, 227.684, 228.207, 228.868, 238.568, 250.3, 251.873, 259.394, 264.085, 265.264]}, "geometry": {"type": "LineString", "coordinates": [[27.375186, 44.563491, 21.25], [27.375054, 44.56348, 21.25], [27.374674, 44.563757, 22.0], [27.374256, 44.564044, 22.0], [27.373248, 44.564546, 22.0], [27.372722, 44.564791, 22.75], [27.371698, 44.564065, 22.25], [27.371605, 44.563996, 22.25], [27.371528, 44.564077, 21.75], [27.371338, 44.56429, 20.5], [27.371283, 44.564355, 20.5], [27.371201, 44.564348, 21.0], [27.370268, 44.564264, 23.0], [27.368982, 44.564151, 24.5], [27.367874, 44.564071, 23.75], [27.367757, 44.564065, 23.5], [27.367542, 44.564058, 23.0], [27.366338, 44.56403, 24.5], [27.366337, 44.564076, 24.5], [27.366321, 44.564618, 24.25], [27.366235, 44.565019, 22.75], [27.366151, 44.565173, 22.75], [27.36543, 44.565809, 22.0], [27.365166, 44.566055, 21.0], [27.365123, 44.566138, 20.75], [27.365053, 44.566232, 20.75], [27.364439, 44.566868, 23.5], [27.364352, 44.566978, 24.0], [27.364259, 44.56712, 24.5], [27.364436, 44.567193, 24.75], [27.364502, 44.56721, 24.5], [27.364822, 44.56721, 22.5], [27.364862, 44.56723, 22.25], [27.364874, 44.567274, 22.25], [27.364876, 44.56779, 23.25], [27.364882, 44.568291, 24.25], [27.364886, 44.568365, 24.25], [27.36445, 44.56838, 24.75], [27.36403, 44.568391, 23.25], [27.363917, 44.568393, 21.5]]}}]}