{"type": "FeatureCollection", "features": [{"type": "Feature", "properties": {"creator": "BRouter-1.7.10", "name": "brouter_trekking_0", "track-length": "1402", "filtered ascend": "2", "plain-ascend": "0", "total-time": "244", "total-energy": "24368", "cost": "2424", "messages": [["Longitude", "Latitude", "Elevation", "Distance", "CostPerKm", "ElevCost", "TurnCost", "NodeCost", "InitialCost", "WayTags", "NodeTags", "Time", "Energy"], ["27369488", "44562139", "24", "3", "3050", "0", "0", "0", "0", "highway=primary surface=asphalt smoothness=excellent oneway=no", "estimated_crossing_class=4", "0", "53"], ["27369579", "44562222", "25", "12", "1150", "0", "34", "0", "0", "reversedirection=yes highway=residential surface=asphalt", "highway=crossing", "2", "298"], ["27369896", "44562528", "24", "42", "1150", "0", "0", "0", "0", "reversedirection=yes highway=residential surface=asphalt", "highway=crossing", "10", "1029"], ["27370043", "44562660", "24", "19", "1150", "0", "0", "0", "0", "reversedirection=yes highway=residential surface=asphalt", "highway=crossing", "13", "1328"], ["27371506", "44563919", "22", "182", "1150", "0", "0", "0", "0", "reversedirection=yes highway=residential surface=asphalt", "highway=crossing", "37", "3736"], ["27371605", "44563996", "22", "12", "1150", "0", "0", "0", "0", "reversedirection=yes highway=residential surface=asphalt", "", "39", "3910"], ["27371679", "44563908", "22", "11", "1450", "0", "115", "0", "0", "highway=tertiary surface=asphalt", "highway=crossing", "40", "4093"], ["27373256", "44562983", "24", "162", "1450", "0", "0", "0", "0", "highway=tertiary surface=asphalt", "", "70", "7088"], ["27373353", "44563105", "24", "16", "1150", "0", "91", "0", "0", "highway=residential surface=asphalt oneway=yes", "highway=crossing crossing=uncontrolled", "74", "7412"], ["27374256", "44564044", "22", "127", "1150", "0", "0", "0", "0", "highway=residential surface=asphalt oneway=yes", "", "93", "9313"], ["27375054", "44563480", "21", "89", "1150", "0", "95", "0", "0", "highway=residential surface=asphalt", "", "105", "10542"], ["27375466", "44563516", "22", "33", "1150", "0", "35", "0", "0", "reversedirection=yes highway=residential surface=asphalt", "", "110", "11091"], ["27376136", "44563593", "24", "54", "1150", "0", "0", "0", "0", "highway=residential surface=asphalt", "highway=crossing crossing=uncontrolled", "124", "12478"], ["27376475", "44563634", "24", "27", "1150", "0", "0", "0", "0", "highway=residential surface=asphalt", "highway=crossing crossing=uncontrolled", "130", "13079"], ["27377406", "44563916", "23", "82", "1150", "0", "1", "0", "0", "highway=residential surface=asphalt", "highway=crossing crossing=uncontrolled", "146", "14669"], ["27380657", "44565849", "26", "336", "1150", "0", "0", "0", "0", "highway=residential surface=asphalt", "highway=crossing crossing=uncontrolled", "215", "21564"], ["27380771", "44565919", "26", "12", "1150", "0", "0", "0", "0", "highway=residential surface=asphalt", "", "218", "21812"], ["27380874", "44565830", "26", "13", "1150", "0", "91", "0", "0", "highway=residential surface=asphalt oneway=yes", "highway=crossing crossing=uncontrolled", "220", "22093"], ["27381765", "44565117", "24", "106", "1150", "0", "0", "0", "0", "highway=residential surface=asphalt oneway=yes", "highway=crossing crossing=uncontrolled", "234", "23428"], ["27381898", "44565011", "24", "16", "1150", "0", "0", "0", "0", "highway=residential surface=asphalt oneway=yes", "estimated_crossing_class=4", "236", "23658"], ["27381778", "44564920", "23", "14", "3050", "0", "82", "0", "0", "reversedirection=yes highway=primary surface=asphalt smoothness=excellent oneway=no", "estimated_crossing_class=4", "238", "23852"], ["27381570", "44564772", "24", "23", "3050", "0", "0", "0", "0", "reversedirection=yes highway=primary surface=asphalt smoothness=excellent oneway=no", "highway=crossing estimated_crossing_class=4", "241", "24199"], ["27381486", "44564845", "24", "11", "5050", "0", "98", "0", "0", "reversedirection=yes highway=footway", "", "243", "24368"]], "times": [0, 0.539, 2.988, 10.297, 11.916, 13.289, 16.053, 18.494, 25.5, 37.36, 39.1, 40.933, 43.066, 47.609, 50.913, 54.887, 62.25, 70.88, 74.121, 78.819, 85.719, 88.549, 93.129, 99.761, 105.41, 110.902, 124.768, 130.776, 134.969, 138.2, 140.37, 146.668, 157.632, 162.706, 176.134, 215.61, 218.093, 220.897, 234.25, 236.546, 238.485, 241.956, 243.644]}, "geometry": {"type": "LineString", "coordinates": [[27.369455, 44.562138, 24.5], [27.369488, 44.562139, 24.75], [27.369579, 44.562222, 25.25], [27.369896, 44.562528, 24.75], [27.36997, 44.562598, 24.5], [27.370043, 44.56266, 24.25], [27.370208, 44.562797, 23.75], [27.370361, 44.562923, 23.25], [27.370796, 44.563287, 23.0], [27.371506, 44.563919, 22.25], [27.371605, 44.563996, 22.25], [27.371679, 44.563908, 22.75], [27.371771, 44.563821, 23.0], [27.372021, 44.563625, 22.5], [27.372219, 44.563486, 22.25], [27.372446, 44.563353, 22.75], [27.372822, 44.563165, 23.5], [27.373256, 44.562983, 24.0], [27.373353, 44.563105, 24.0], [27.373506, 44.563296, 24.0], [27.373823, 44.563659, 22.75], [27.373975, 44.56381, 22.25], [27.374256, 44.564044, 22.0], [27.374674, 44.563757, 22.0], [27.375054, 44.56348, 21.25], [27.375466, 44.563516, 22.0], [27.376136, 44.563593, 24.0], [27.376475, 44.563634, 24.0], [27.376719, 44.563674, 24.0], [27.376907, 44.563713, 24.0], [27.377033, 44.563749, 24.0], [27.377406, 44.563916, 23.75], [27.378092, 44.564292, 23.25], [27.378415, 44.564484, 23.0], [27.379119, 44.564902, 23.75], [27.380657, 44.565849, 26.25], [27.380771, 44.565919, 26.5], [27.380874, 44.56583, 26.75], [27.381765, 44.565117, 24.0], [27.381898, 44.565011, 24.0], [27.381778, 44.56492, 23.75], [27.38157, 44.564772, 24.0], [27.381486, 44.564845, 24.0]]}}]}