{"type": "FeatureCollection", "features": [{"type": "Feature", "properties": {"creator": "BRouter-1.7.10", "name": "brouter_trekking_0", "track-length": "1711", "filtered ascend": "1", "plain-ascend": "0", "total-time": "289", "total-energy": "28938", "cost": "2451", "messages": [["Longitude", "Latitude", "Elevation", "Distance", "CostPerKm", "ElevCost", "TurnCost", "NodeCost", "InitialCost", "WayTags", "NodeTags", "Time", "Energy"], ["27350804", "44564933", "23", "20", "1350", "0", "0", "0", "0", "reversedirection=yes highway=service", "", "3", "380"], ["27350804", "44565008", "23", "8", "1150", "0", "58", "0", "0", "highway=residential surface=asphalt", "highway=crossing crossing=uncontrolled", "5", "530"], ["27358880", "44568073", "21", "962", "1150", "0", "85", "0", "0", "highway=residential surface=asphalt", "", "163", "16313"], ["27358461", "44568964", "20", "105", "1050", "0", "112", "0", "0", "reversedirection=yes highway=tertiary surface=asphalt foot=yes bicycle=yes cycleway=no oneway=no", "", "177", "17783"], ["27358498", "44568995", "20", "5", "1050", "0", "44", "0", "0", "highway=tertiary surface=asphalt access=yes foot=yes bicycle=yes cycleway=no oneway=no", "highway=crossing", "178", "17853"], ["27361321", "44569878", "20", "249", "1050", "0", "12", "0", "0", "highway=tertiary surface=asphalt access=yes foot=yes bicycle=yes cycleway=no oneway=no", "highway=crossing", "222", "22207"], ["27361407", "44569898", "20", "7", "1050", "0", "0", "0", "0", "highway=tertiary surface=asphalt access=yes foot=yes bicycle=yes cycleway=no oneway=no", "", "223", "22307"], ["27363406", "44569751", "22", "160", "1150", "0", "28", "0", "0", "highway=residential surface=asphalt", "", "255", "25556"], ["27363370", "44568936", "21", "90", "1150", "0", "87", "0", "0", "highway=residential surface=asphalt oneway=yes", "", "270", "27006"], ["27363338", "44568406", "21", "59", "1150", "0", "0", "0", "0", "highway=residential surface=asphalt", "", "279", "27948"], ["27363917", "44568393", "23", "46", "1150", "0", "91", "0", "0", "highway=residential surface=asphalt oneway=no", "", "289", "28938"]], "times": [0, 3.807, 5.305, 8.819, 13.697, 35.131, 45.899, 59.942, 87.285, 153.06, 163.129, 163.8, 169.83, 177.821, 178.522, 183.899, 210.862, 222.06, 223.06, 225.679, 238.192, 255.549, 265.293, 270.043, 279.46, 289.362]}, "geometry": {"type": "LineString", "coordinates": [[27.350573, 44.56487, 23.25], [27.350804, 44.564933, 23.75], [27.350804, 44.565008, 23.75], [27.350804, 44.565257, 22.0], [27.350822, 44.565534, 22.75], [27.350898, 44.566359, 24.75], [27.350961, 44.567203, 21.5], [27.351008, 44.568017, 22.0], [27.353113, 44.568036, 22.0], [27.35813, 44.568068, 21.75], [27.35888, 44.568073, 21.75], [27.358868, 44.568105, 21.75], [27.358714, 44.568446, 21.25], [27.358461, 44.568964, 20.25], [27.358498, 44.568995, 20.25], [27.358819, 44.569262, 20.0], [27.36029, 44.569632, 22.25], [27.361321, 44.569878, 20.25], [27.361407, 44.569898, 20.25], [27.361592, 44.569838, 20.75], [27.362287, 44.569797, 22.25], [27.363406, 44.569751, 22.25], [27.363386, 44.569236, 22.0], [27.36337, 44.568936, 21.25], [27.363338, 44.568406, 21.5], [27.363917, 44.568393, 23.25]]}}]}