{"type": "FeatureCollection", "features": [{"type": "Feature", "properties": {"creator": "BRouter-1.7.10", "name": "brouter_trekking_0", "track-length": "1045", "filtered ascend": "1", "plain-ascend": "-4", "total-time": "169", "total-energy": "16923", "cost": "1728", "messages": [["Longitude", "Latitude", "Elevation", "Distance", "CostPerKm", "ElevCost", "TurnCost", "NodeCost", "InitialCost", "WayTags", "NodeTags", "Time", "Energy"], ["27360887", "44562026", "27", "12", "1450", "0", "0", "0", "0", "reversedirection=yes highway=tertiary surface=asphalt", "highway=crossing crossing=uncontrolled", "2", "215"], ["27360890", "44562148", "26", "14", "1450", "0", "0", "0", "0", "reversedirection=yes highway=tertiary surface=asphalt", "estimated_crossing_class=5", "4", "421"], ["27360893", "44562252", "25", "12", "1450", "0", "0", "0", "0", "reversedirection=yes highway=tertiary surface=asphalt", "highway=crossing crossing=zebra", "5", "574"], ["27360974", "44564329", "27", "230", "1450", "0", "0", "0", "0", "reversedirection=yes highway=tertiary surface=asphalt", "highway=crossing", "47", "4788"], ["27360995", "44564727", "27", "45", "1450", "0", "0", "0", "0", "reversedirection=yes highway=tertiary surface=asphalt", "highway=crossing", "56", "5648"], ["27361090", "44565020", "26", "34", "1450", "0", "8", "0", "0", "highway=tertiary surface=asphalt oneway=yes", "highway=crossing", "62", "6207"], ["27361092", "44566062", "23", "116", "1450", "0", "0", "0", "0", "highway=tertiary surface=asphalt oneway=yes", "highway=crossing", "80", "8010"], ["27361092", "44566127", "23", "7", "1450", "0", "0", "0", "0", "highway=tertiary surface=asphalt oneway=yes", "", "81", "8123"], ["27361213", "44566162", "24", "10", "1150", "0", "56", "0", "0", "reversedirection=yes highway=residential surface=asphalt oneway=no", "highway=crossing", "82", "8217"], ["27362046", "44566412", "22", "75", "1150", "0", "17", "0", "0", "reversedirection=yes highway=residential surface=asphalt oneway=no", "", "89", "8983"], ["27364341", "44566819", "23", "195", "1150", "0", "5", "0", "0", "highway=residential surface=asphalt", "highway=crossing crossing=uncontrolled", "118", "11826"], ["27364439", "44566868", "23", "10", "1150", "0", "0", "0", "0", "highway=residential surface=asphalt", "", "119", "11984"], ["27364259", "44567120", "24", "31", "1150", "0", "81", "0", "0", "reversedirection=yes highway=residential surface=asphalt", "", "125", "12581"], ["27364876", "44567790", "23", "113", "1150", "0", "130", "0", "0", "highway=residential surface=asphalt oneway=yes", "", "143", "14341"], ["27363917", "44568393", "21", "141", "1150", "0", "89", "0", "0", "reversedirection=yes highway=residential surface=asphalt oneway=no", "", "169", "16923"]], "times": [0, 2.15, 4.219, 5.743, 7.048, 10.398, 11.47, 19.408, 22.489, 47.876, 49.755, 51.614, 56.478, 58.964, 60.453, 62.065, 80.094, 81.224, 82.173, 86.346, 88.182, 89.83, 99.628, 100.942, 103.246, 109.2, 118.256, 119.832, 122.353, 125.801, 129.165, 130.315, 133.346, 133.826, 134.432, 143.405, 154.599, 156.12, 163.438, 168.053, 169.218]}, "geometry": {"type": "LineString", "coordinates": [[27.360882, 44.561922, 26.75], [27.360887, 44.562026, 27.0], [27.36089, 44.562148, 26.25], [27.360893, 44.562252, 25.5], [27.360899, 44.562345, 25.5], [27.360907, 44.56258, 25.25], [27.360912, 44.562653, 25.25], [27.360924, 44.563112, 25.75], [27.360931, 44.563248, 26.75], [27.360974, 44.564329, 27.5], [27.360975, 44.564415, 27.5], [27.360981, 44.564502, 27.5], [27.360995, 44.564727, 27.75], [27.361066, 44.564847, 27.5], [27.36109, 44.564925, 27.25], [27.36109, 44.56502, 26.75], [27.361092, 44.566062, 23.75], [27.361092, 44.566127, 23.75], [27.361213, 44.566162, 24.0], [27.36165, 44.566332, 24.0], [27.361837, 44.56642, 23.25], [27.362046, 44.566412, 22.5], [27.362874, 44.566382, 21.25], [27.362972, 44.566381, 21.5], [27.36323, 44.566419, 22.5], [27.363719, 44.566533, 23.5], [27.364341, 44.566819, 23.5], [27.364439, 44.566868, 23.5], [27.364352, 44.566978, 24.0], [27.364259, 44.56712, 24.5], [27.364436, 44.567193, 24.75], [27.364502, 44.56721, 24.5], [27.364822, 44.56721, 22.5], [27.364862, 44.56723, 22.25], [27.364874, 44.567274, 22.25], [27.364876, 44.56779, 23.25], [27.364882, 44.568291, 24.25], [27.364886, 44.568365, 24.25], [27.36445, 44.56838, 24.75], [27.36403, 44.568391, 23.25], [27.363917, 44.568393, 21.5]]}}]}