{"type": "FeatureCollection", "features": [{"type": "Feature", "properties": {"creator": "BRouter-1.7.10", "name": "brouter_trekking_0", "track-length": "2475", "filtered ascend": "3", "plain-ascend": "-1", "total-time": "431", "total-energy": "43174", "cost": "4496", "messages": [["Longitude", "Latitude", "Elevation", "Distance", "CostPerKm", "ElevCost", "TurnCost", "NodeCost", "InitialCost", "WayTags", "NodeTags", "Time", "Energy"], ["27384571", "44567749", "23", "14", "5050", "0", "28", "0", "0", "highway=footway", "estimated_crossing_class=4", "3", "393"], ["27384372", "44567555", "25", "27", "3050", "0", "82", "0", "0", "reversedirection=yes highway=primary surface=asphalt oneway=no", "highway=crossing estimated_crossing_class=4", "8", "875"], ["27384220", "44567400", "25", "21", "3050", "0", "0", "0", "0", "reversedirection=yes highway=primary surface=asphalt oneway=no", "estimated_crossing_class=4", "13", "1323"], ["27383498", "44566664", "25", "100", "3050", "0", "0", "0", "0", "reversedirection=yes highway=primary surface=asphalt oneway=no", "highway=crossing estimated_crossing_class=4", "30", "3009"], ["27382104", "44565186", "24", "198", "3050", "0", "0", "0", "0", "reversedirection=yes highway=primary surface=asphalt oneway=no", "estimated_crossing_class=4", "72", "7255"], ["27381962", "44565258", "24", "14", "1150", "0", "89", "0", "0", "highway=residential surface=asphalt oneway=yes", "highway=crossing crossing=uncontrolled", "75", "7563"], ["27380897", "44565847", "26", "107", "1150", "0", "0", "0", "0", "highway=residential surface=asphalt oneway=yes", "highway=crossing crossing=uncontrolled", "103", "10387"], ["27380771", "44565919", "26", "13", "1150", "0", "0", "0", "0", "highway=residential surface=asphalt oneway=yes", "", "106", "10664"], ["27380657", "44565849", "26", "12", "1150", "0", "73", "0", "0", "reversedirection=yes highway=residential surface=asphalt", "highway=crossing crossing=uncontrolled", "108", "10896"], ["27377406", "44563916", "23", "336", "1150", "0", "0", "0", "0", "reversedirection=yes highway=residential surface=asphalt", "highway=crossing crossing=uncontrolled", "157", "15745"], ["27376475", "44563634", "24", "82", "1150", "0", "1", "0", "0", "reversedirection=yes highway=residential surface=asphalt", "highway=crossing crossing=uncontrolled", "172", "17227"], ["27376136", "44563593", "24", "27", "1150", "0", "0", "0", "0", "reversedirection=yes highway=residential surface=asphalt", "highway=crossing crossing=uncontrolled", "176", "17700"], ["27375492", "44563379", "22", "69", "1150", "0", "87", "0", "0", "reversedirection=yes highway=residential surface=asphalt", "highway=crossing crossing=uncontrolled", "185", "18562"], ["27375548", "44563086", "23", "33", "1150", "0", "0", "0", "0", "reversedirection=yes highway=residential surface=asphalt", "", "192", "19223"], ["27375941", "44562480", "26", "75", "1150", "0", "10", "0", "0", "highway=residential surface=asphalt", "highway=crossing crossing=uncontrolled", "212", "21221"], ["27375962", "44562392", "26", "10", "1150", "0", "0", "0", "0", "highway=residential surface=asphalt", "estimated_crossing_class=4", "214", "21475"], ["27375801", "44561746", "25", "81", "1150", "0", "18", "0", "0", "highway=residential surface=asphalt oneway=yes", "", "231", "23139"], ["27369207", "44561244", "23", "568", "1150", "0", "243", "0", "0", "reversedirection=yes highway=residential surface=asphalt oneway=no", "", "319", "31958"], ["27368883", "44560542", "23", "100", "1350", "0", "129", "0", "0", "reversedirection=yes highway=service", "", "335", "33594"], ["27368486", "44560547", "23", "32", "1150", "0", "0", "0", "0", "reversedirection=yes highway=residential", "", "341", "34158"], ["27368381", "44560550", "23", "8", "1150", "0", "0", "0", "0", "highway=residential", "", "343", "34318"], ["27364219", "44560216", "22", "335", "1150", "0", "5", "0", "0", "highway=residential oneway=yes", "", "402", "40269"], ["27364477", "44558983", "21", "138", "1150", "0", "53", "0", "0", "reversedirection=yes highway=residential", "", "421", "42182"], ["27365368", "44559196", "21", "75", "1150", "0", "95", "0", "0", "highway=residential surface=asphalt", "", "431", "43174"]], "times": [0.238, 3.93, 8.758, 13.237, 30.092, 61.091, 72.546, 75.621, 103.853, 106.622, 108.946, 130.035, 140.008, 145.182, 157.433, 163.869, 165.854, 168.715, 172.254, 176.98, 183.415, 185.602, 192.21, 195.505, 204.181, 212.182, 214.717, 224.72, 226.15, 227.655, 231.363, 232.462, 233.374, 235.126, 235.606, 236.208, 251.034, 273.003, 274.602, 289.762, 291.508, 292.985, 297.977, 300.296, 301.075, 302.328, 304.292, 305.353, 306.328, 309.103, 310.567, 313.119, 319.541, 331.322, 332.251, 333.246, 335.903, 341.55, 343.15, 355.994, 358.317, 367.987, 373.908, 377.473, 386.551, 395.249, 397.189, 402.647, 414.285, 417.108, 419.537, 420.583, 421.778, 431.703]}, "geometry": {"type": "LineString", "coordinates": [[27.38444, 44.567831, 22.75], [27.384571, 44.567749, 23.25], [27.384372, 44.567555, 25.0], [27.38422, 44.5674, 25.75], [27.383498, 44.566664, 25.0], [27.38252, 44.565597, 23.75], [27.382104, 44.565186, 24.25], [27.381962, 44.565258, 24.75], [27.380897, 44.565847, 26.5], [27.380771, 44.565919, 26.5], [27.380657, 44.565849, 26.25], [27.379119, 44.564902, 23.75], [27.378415, 44.564484, 23.0], [27.378092, 44.564292, 23.25], [27.377406, 44.563916, 23.75], [27.377033, 44.563749, 24.0], [27.376907, 44.563713, 24.0], [27.376719, 44.563674, 24.0], [27.376475, 44.563634, 24.0], [27.376136, 44.563593, 24.0], [27.375466, 44.563516, 22.0], [27.375492, 44.563379, 22.5], [27.375548, 44.563086, 23.75], [27.375648, 44.562976, 24.25], [27.375854, 44.562713, 25.25], [27.375941, 44.56248, 26.25], [27.375962, 44.562392, 26.0], [27.376069, 44.561988, 25.75], [27.376041, 44.561927, 25.75], [27.375996, 44.561865, 25.5], [27.375801, 44.561746, 25.5], [27.375754, 44.561708, 25.5], [27.375726, 44.561671, 25.5], [27.375714, 44.561568, 25.0], [27.375688, 44.561547, 25.0], [27.375642, 44.561541, 24.75], [27.374702, 44.561552, 26.0], [27.372849, 44.561588, 24.75], [27.372721, 44.561588, 24.75], [27.371229, 44.561585, 23.0], [27.371137, 44.561495, 23.0], [27.371009, 44.561491, 23.0], [27.370599, 44.56148, 23.0], [27.370581, 44.561345, 23.0], [27.370542, 44.561307, 23.0], [27.370455, 44.561277, 23.0], [27.370294, 44.561238, 22.5], [27.370224, 44.561201, 22.75], [27.370156, 44.561177, 23.0], [27.369973, 44.56117, 23.5], [27.369882, 44.561192, 23.5], [27.369711, 44.561246, 23.25], [27.369207, 44.561244, 23.0], [27.369203, 44.5606, 23.0], [27.369161, 44.560553, 22.75], [27.369085, 44.560536, 23.0], [27.368883, 44.560542, 23.0], [27.368486, 44.560547, 23.25], [27.368381, 44.56055, 23.75], [27.367739, 44.560519, 25.0], [27.367621, 44.560511, 25.5], [27.366973, 44.560467, 24.5], [27.366503, 44.560454, 24.0], [27.366222, 44.560443, 24.0], [27.365455, 44.560425, 23.5], [27.364824, 44.560419, 24.0], [27.364677, 44.56039, 23.75], [27.364219, 44.560216, 22.75], [27.364278, 44.559531, 23.0], [27.364336, 44.559344, 22.25], [27.364412, 44.559154, 21.0], [27.364442, 44.559074, 21.0], [27.364477, 44.558983, 21.0], [27.365368, 44.559196, 21.0]]}}]}