{"type": "FeatureCollection", "features": [{"type": "Feature", "properties": {"creator": "BRouter-1.7.10", "name": "brouter_trekking_0", "track-length": "2557", "filtered ascend": "5", "plain-ascend": "0", "total-time": "437", "total-energy": "43666", "cost": "6537", "messages": [["Longitude", "Latitude", "Elevation", "Distance", "CostPerKm", "ElevCost", "TurnCost", "NodeCost", "InitialCost", "WayTags", "NodeTags", "Time", "Energy"], ["27371011", "44560989", "24", "14", "5050", "0", "0", "0", "0", "reversedirection=yes highway=footway", "", "2", "235"], ["27371009", "44561491", "23", "56", "5050", "0", "90", "0", "0", "highway=footway", "", "9", "945"], ["27375801", "44561746", "25", "402", "1150", "0", "202", "0", "0", "highway=residential surface=asphalt oneway=no", "", "84", "8487"], ["27375962", "44562392", "26", "81", "5150", "0", "19", "0", "0", "reversedirection=yes highway=residential surface=asphalt oneway=yes", "estimated_crossing_class=4", "100", "10025"], ["27375941", "44562480", "26", "10", "1150", "0", "0", "0", "0", "reversedirection=yes highway=residential surface=asphalt", "highway=crossing crossing=uncontrolled", "102", "10225"], ["27375548", "44563086", "23", "75", "1150", "0", "2", "0", "0", "reversedirection=yes highway=residential surface=asphalt", "", "112", "11244"], ["27375492", "44563379", "22", "33", "1150", "0", "8", "0", "0", "highway=residential surface=asphalt", "highway=crossing crossing=uncontrolled", "115", "11591"], ["27376136", "44563593", "24", "69", "1150", "0", "87", "0", "0", "highway=residential surface=asphalt", "highway=crossing crossing=uncontrolled", "126", "12661"], ["27376475", "44563634", "24", "27", "1150", "0", "0", "0", "0", "highway=residential surface=asphalt", "highway=crossing crossing=uncontrolled", "131", "13117"], ["27377406", "44563916", "23", "82", "1150", "0", "1", "0", "0", "highway=residential surface=asphalt", "highway=crossing crossing=uncontrolled", "144", "14466"], ["27380657", "44565849", "26", "336", "1150", "0", "0", "0", "0", "highway=residential surface=asphalt", "highway=crossing crossing=uncontrolled", "211", "21195"], ["27380771", "44565919", "26", "12", "1150", "0", "0", "0", "0", "highway=residential surface=asphalt", "", "214", "21442"], ["27380874", "44565830", "26", "13", "1150", "0", "91", "0", "0", "highway=residential surface=asphalt oneway=yes", "highway=crossing crossing=uncontrolled", "217", "21722"], ["27381765", "44565117", "24", "106", "1150", "0", "0", "0", "0", "highway=residential surface=asphalt oneway=yes", "highway=crossing crossing=uncontrolled", "230", "23055"], ["27381898", "44565011", "24", "16", "1150", "0", "0", "0", "0", "highway=residential surface=asphalt oneway=yes", "estimated_crossing_class=4", "232", "23285"], ["27381778", "44564920", "23", "14", "3050", "0", "82", "0", "0", "reversedirection=yes highway=primary surface=asphalt smoothness=excellent oneway=no", "estimated_crossing_class=4", "234", "23479"], ["27381811", "44564816", "23", "12", "1350", "0", "40", "0", "0", "highway=unclassified surface=asphalt", "highway=crossing", "236", "23639"], ["27381764", "44563818", "19", "111", "1350", "0", "3", "0", "0", "highway=unclassified surface=asphalt", "", "250", "25056"], ["27381691", "44563779", "19", "7", "10050", "0", "33", "0", "0", "highway=trunk surface=asphalt smoothness=good oneway=no", "highway=crossing crossing=zebra", "251", "25151"], ["27381734", "44563726", "19", "7", "5050", "0", "79", "0", "0", "reversedirection=yes highway=footway", "", "252", "25254"], ["27382047", "44563910", "20", "32", "5050", "0", "104", "0", "0", "highway=footway", "", "255", "25577"], ["27382235", "44564010", "21", "19", "40000", "0", "0", "0", "0", "highway=steps foot=yes", "", "258", "25830"], ["27383036", "44563116", "21", "118", "1050", "0", "96", "0", "0", "highway=footway surface=asphalt foot=yes bicycle=yes", "", "276", "27642"], ["27383694", "44562356", "25", "99", "5050", "0", "2", "0", "0", "highway=footway", "estimated_crossing_class=4", "303", "30383"], ["27383485", "44562119", "26", "31", "3050", "0", "48", "0", "0", "highway=primary surface=asphalt smoothness=good oneway=no", "estimated_crossing_class=4", "309", "30911"], ["27383799", "44562085", "27", "25", "1650", "0", "126", "0", "0", "reversedirection=yes highway=secondary surface=asphalt smoothness=excellent oneway=no", "estimated_crossing_class=3", "314", "31422"], ["27384561", "44562004", "27", "61", "1650", "0", "0", "0", "0", "reversedirection=yes highway=secondary surface=asphalt smoothness=excellent oneway=no", "estimated_crossing_class=3", "327", "32717"], ["27385474", "44561910", "24", "73", "1650", "0", "0", "0", "0", "reversedirection=yes highway=secondary surface=asphalt smoothness=excellent oneway=no", "estimated_crossing_class=3", "339", "33910"], ["27386085", "44561804", "25", "50", "1650", "0", "0", "0", "0", "reversedirection=yes highway=secondary surface=asphalt smoothness=excellent oneway=no", "estimated_crossing_class=3", "349", "34999"], ["27387577", "44561443", "24", "126", "1650", "0", "0", "0", "0", "reversedirection=yes highway=secondary surface=asphalt smoothness=excellent oneway=no", "estimated_crossing_class=3", "371", "37116"], ["27388129", "44561087", "23", "59", "1650", "0", "5", "0", "0", "reversedirection=yes highway=secondary surface=asphalt smoothness=excellent oneway=no", "estimated_crossing_class=3", "379", "37971"], ["27389797", "44560007", "22", "179", "1650", "0", "0", "0", "0", "reversedirection=yes highway=secondary surface=asphalt smoothness=excellent oneway=no", "estimated_crossing_class=3", "403", "40311"], ["27389939", "44559910", "22", "16", "1650", "0", "0", "0", "0", "reversedirection=yes highway=secondary surface=asphalt smoothness=excellent oneway=no", "estimated_crossing_class=3", "405", "40557"], ["27391336", "44559042", "22", "147", "1650", "0", "0", "0", "0", "reversedirection=yes highway=secondary surface=asphalt smoothness=excellent oneway=no", "estimated_crossing_class=3", "428", "42880"], ["27391640", "44558901", "22", "29", "1650", "0", "1", "0", "0", "reversedirection=yes highway=secondary surface=asphalt smoothness=excellent oneway=no", "estimated_crossing_class=3", "434", "43467"], ["27391617", "44558814", "23", "10", "1350", "0", "58", "0", "0", "highway=service", "", "436", "43666"]], "times": [0, 2.352, 9.452, 10.819, 12.492, 36.244, 38.071, 69.003, 79.717, 80.359, 80.842, 82.86, 83.771, 84.859, 88.453, 89.977, 91.297, 100.237, 102.239, 106.377, 110.596, 112.424, 115.891, 117.465, 126.595, 131.15, 134.522, 137.217, 139.07, 144.639, 154.859, 159.728, 172.799, 211.919, 214.393, 217.188, 230.524, 232.818, 234.755, 236.362, 250.529, 251.483, 252.507, 255.732, 258.269, 276.384, 280.111, 284.241, 303.787, 309.07, 314.177, 327.121, 339.059, 349.949, 367.214, 371.112, 379.654, 403.053, 405.514, 421.623, 428.746, 430.118, 434.617, 436.602]}, "geometry": {"type": "LineString", "coordinates": [[27.370839, 44.560989, 24.5], [27.371011, 44.560989, 24.5], [27.371009, 44.561491, 23.0], [27.371137, 44.561495, 23.0], [27.371229, 44.561585, 23.0], [27.372721, 44.561588, 24.75], [27.372849, 44.561588, 24.75], [27.374702, 44.561552, 26.0], [27.375642, 44.561541, 24.75], [27.375688, 44.561547, 25.0], [27.375714, 44.561568, 25.0], [27.375726, 44.561671, 25.5], [27.375754, 44.561708, 25.5], [27.375801, 44.561746, 25.5], [27.375996, 44.561865, 25.5], [27.376041, 44.561927, 25.75], [27.376069, 44.561988, 25.75], [27.375962, 44.562392, 26.0], [27.375941, 44.56248, 26.25], [27.375854, 44.562713, 25.25], [27.375648, 44.562976, 24.25], [27.375548, 44.563086, 23.75], [27.375492, 44.563379, 22.5], [27.375466, 44.563516, 22.0], [27.376136, 44.563593, 24.0], [27.376475, 44.563634, 24.0], [27.376719, 44.563674, 24.0], [27.376907, 44.563713, 24.0], [27.377033, 44.563749, 24.0], [27.377406, 44.563916, 23.75], [27.378092, 44.564292, 23.25], [27.378415, 44.564484, 23.0], [27.379119, 44.564902, 23.75], [27.380657, 44.565849, 26.25], [27.380771, 44.565919, 26.5], [27.380874, 44.56583, 26.75], [27.381765, 44.565117, 24.0], [27.381898, 44.565011, 24.0], [27.381778, 44.56492, 23.75], [27.381811, 44.564816, 23.5], [27.381764, 44.563818, 19.5], [27.381691, 44.563779, 19.25], [27.381734, 44.563726, 19.5], [27.382047, 44.56391, 20.25], [27.382235, 44.56401, 21.25], [27.383036, 44.563116, 21.5], [27.383153, 44.562976, 22.5], [27.383291, 44.562858, 23.25], [27.383694, 44.562356, 25.0], [27.383485, 44.562119, 26.5], [27.383799, 44.562085, 27.25], [27.384561, 44.562004, 27.75], [27.385474, 44.56191, 24.0], [27.386085, 44.561804, 25.25], [27.387268, 44.561535, 24.75], [27.387577, 44.561443, 24.0], [27.388129, 44.561087, 23.75], [27.389797, 44.560007, 22.0], [27.389939, 44.55991, 22.0], [27.390964, 44.559257, 21.5], [27.391336, 44.559042, 22.25], [27.391405, 44.559002, 22.5], [27.39164, 44.558901, 22.75], [27.391617, 44.558814, 23.75]]}}]}