{"type": "FeatureCollection", "features": [{"type": "Feature", "properties": {"creator": "BRouter-1.7.10", "name": "brouter_trekking_0", "track-length": "1823", "filtered ascend": "2", "plain-ascend": "-4", "total-time": "308", "total-energy": "30807", "cost": "3707", "messages": [["Longitude", "Latitude", "Elevation", "Distance", "CostPerKm", "ElevCost", "TurnCost", "NodeCost", "InitialCost", "WayTags", "NodeTags", "Time", "Energy"], ["27351583", "44562398", "26", "2", "5050", "0", "0", "0", "0", "highway=footway", "", "0", "33"], ["27351513", "44562533", "26", "16", "5050", "0", "72", "0", "0", "reversedirection=yes highway=footway", "", "3", "302"], ["27352889", "44562400", "25", "110", "5050", "0", "132", "0", "0", "highway=footway", "", "20", "2008"], ["27352832", "44561974", "25", "48", "1150", "0", "86", "0", "0", "highway=residential surface=asphalt oneway=yes", "", "26", "2678"], ["27354938", "44561957", "25", "186", "1350", "0", "270", "0", "0", "highway=service surface=asphalt", "", "64", "6488"], ["27354971", "44562201", "25", "27", "1150", "0", "90", "0", "0", "reversedirection=yes highway=residential surface=asphalt", "highway=crossing", "68", "6830"], ["27354998", "44562336", "25", "15", "1150", "0", "0", "0", "0", "reversedirection=yes highway=residential surface=asphalt", "estimated_crossing_class=5", "70", "7040"], ["27355016", "44562420", "25", "9", "1150", "0", "0", "0", "0", "highway=residential surface=asphalt oneway=yes", "highway=crossing crossing=zebra", "71", "7176"], ["27355226", "44563373", "24", "107", "1150", "0", "0", "0", "0", "highway=residential surface=asphalt oneway=yes", "", "86", "8683"], ["27359906", "44563260", "24", "373", "1150", "0", "79", "0", "0", "highway=residential oneway=yes", "", "148", "14891"], ["27360931", "44563248", "26", "82", "1150", "0", "0", "0", "0", "reversedirection=yes highway=residential surface=asphalt oneway=no", "", "169", "16941"], ["27360893", "44562252", "25", "110", "1450", "0", "91", "0", "0", "highway=tertiary surface=asphalt", "highway=crossing crossing=zebra", "187", "18719"], ["27360890", "44562148", "26", "12", "1450", "0", "0", "0", "0", "highway=tertiary surface=asphalt", "estimated_crossing_class=5", "189", "18965"], ["27360887", "44562026", "27", "14", "1450", "0", "0", "0", "0", "highway=tertiary surface=asphalt", "highway=crossing crossing=uncontrolled", "193", "19306"], ["27360917", "44560179", "24", "206", "1450", "0", "0", "0", "0", "highway=tertiary surface=asphalt", "highway=crossing crossing=uncontrolled", "226", "22635"], ["27361945", "44558363", "25", "219", "1450", "0", "0", "0", "0", "highway=tertiary surface=asphalt", "", "264", "26444"], ["27362097", "44558403", "24", "13", "1150", "0", "83", "0", "0", "highway=residential surface=asphalt", "highway=crossing", "266", "26637"], ["27362884", "44558594", "21", "66", "1150", "0", "0", "0", "0", "highway=residential surface=asphalt", "highway=crossing", "275", "27563"], ["27364352", "44558955", "21", "123", "1150", "0", "0", "0", "0", "highway=residential surface=asphalt", "highway=crossing", "294", "29429"], ["27365368", "44559196", "21", "85", "1150", "0", "0", "0", "0", "highway=residential surface=asphalt", "", "308", "30807"]], "times": [0, 0.336, 3.024, 20.082, 26.78, 35.05, 54.485, 59.619, 61.937, 64.876, 68.286, 70.388, 71.752, 86.818, 104.135, 107.496, 120.876, 132.144, 132.871, 139.102, 148.882, 152.583, 169.376, 171.958, 179.82, 181.081, 185.469, 187.156, 189.618, 193.03, 213.229, 217.377, 219.465, 226.304, 228.3, 231.06, 232.555, 240.15, 250.306, 264.39, 266.316, 269.873, 275.58, 277.289, 288.253, 294.239, 295.837, 308.017]}, "geometry": {"type": "LineString", "coordinates": [[27.351611, 44.562401, 26.25], [27.351583, 44.562398, 26.25], [27.351513, 44.562533, 26.25], [27.352889, 44.5624, 25.75], [27.352832, 44.561974, 25.0], [27.353246, 44.561937, 27.25], [27.354135, 44.561858, 28.5], [27.354605, 44.561812, 26.25], [27.354628, 44.561979, 25.5], [27.354938, 44.561957, 25.0], [27.354971, 44.562201, 25.0], [27.354998, 44.562336, 25.25], [27.355016, 44.56242, 25.5], [27.355226, 44.563373, 24.75], [27.35695, 44.563325, 23.0], [27.357186, 44.563319, 23.75], [27.357923, 44.563299, 25.0], [27.358677, 44.563274, 24.75], [27.358725, 44.563273, 24.75], [27.359242, 44.563266, 24.0], [27.359906, 44.56326, 24.75], [27.360115, 44.563264, 25.5], [27.360931, 44.563248, 26.75], [27.360924, 44.563112, 25.75], [27.360912, 44.562653, 25.25], [27.360907, 44.56258, 25.25], [27.360899, 44.562345, 25.5], [27.360893, 44.562252, 25.5], [27.36089, 44.562148, 26.25], [27.360887, 44.562026, 27.0], [27.360845, 44.561073, 26.5], [27.36084, 44.560756, 24.5], [27.36085, 44.560598, 24.0], [27.360917, 44.560179, 24.75], [27.360954, 44.560056, 24.5], [27.361022, 44.559877, 24.0], [27.361067, 44.55978, 24.0], [27.361332, 44.559345, 24.0], [27.361587, 44.558927, 25.25], [27.361945, 44.558363, 25.75], [27.362097, 44.558403, 24.75], [27.362458, 44.558495, 23.5], [27.362884, 44.558594, 21.5], [27.36303, 44.558622, 21.0], [27.363894, 44.558843, 21.0], [27.364352, 44.558955, 21.0], [27.364477, 44.558983, 21.0], [27.365368, 44.559196, 21.0]]}}]}