{"type": "FeatureCollection", "features": [{"type": "Feature", "properties": {"creator": "BRouter-1.7.10", "name": "brouter_trekking_0", "track-length": "979", "filtered ascend": "3", "plain-ascend": "3", "total-time": "180", "total-energy": "17971", "cost": "1386", "messages": [["Longitude", "Latitude", "Elevation", "Distance", "CostPerKm", "ElevCost", "TurnCost", "NodeCost", "InitialCost", "WayTags", "NodeTags", "Time", "Energy"], ["27375054", "44563480", "21", "11", "1150", "0", "0", "0", "0", "highway=residential surface=asphalt", "", "1", "184"], ["27372722", "44564791", "22", "237", "1150", "0", "36", "0", "0", "reversedirection=yes highway=residential surface=asphalt", "", "46", "4653"], ["27371698", "44564065", "22", "115", "1150", "0", "71", "0", "0", "highway=residential surface=asphalt oneway=yes", "highway=crossing", "65", "6592"], ["27371605", "44563996", "22", "11", "1150", "0", "0", "0", "0", "highway=residential surface=asphalt oneway=yes", "", "67", "6778"], ["27371528", "44564077", "21", "11", "1450", "0", "108", "0", "0", "reversedirection=yes highway=tertiary surface=asphalt", "highway=crossing", "69", "6941"], ["27371283", "44564355", "20", "36", "1450", "0", "0", "0", "0", "reversedirection=yes highway=tertiary surface=asphalt", "", "73", "7373"], ["27371201", "44564348", "21", "7", "1450", "0", "53", "0", "0", "reversedirection=yes highway=tertiary surface=asphalt oneway=no", "highway=crossing", "74", "7472"], ["27370268", "44564264", "23", "75", "1450", "0", "0", "0", "0", "reversedirection=yes highway=tertiary surface=asphalt oneway=no", "", "91", "9120"], ["27364273", "44564006", "23", "476", "1050", "0", "0", "0", "0", "highway=tertiary surface=asphalt foot=yes bicycle=yes oneway=yes", "", "179", "17971"]], "times": [0, 1.848, 10.402, 19.009, 36.378, 46.528, 65.926, 67.778, 69.415, 72.731, 73.728, 74.721, 91.198, 116.35, 131.177, 132.598, 135.007, 153.906, 159.009, 169.261, 171.702, 178.911, 179.695]}, "geometry": {"type": "LineString", "coordinates": [[27.375186, 44.563491, 21.25], [27.375054, 44.56348, 21.25], [27.374674, 44.563757, 22.0], [27.374256, 44.564044, 22.0], [27.373248, 44.564546, 22.0], [27.372722, 44.564791, 22.75], [27.371698, 44.564065, 22.25], [27.371605, 44.563996, 22.25], [27.371528, 44.564077, 21.75], [27.371338, 44.56429, 20.5], [27.371283, 44.564355, 20.5], [27.371201, 44.564348, 21.0], [27.370268, 44.564264, 23.0], [27.368982, 44.564151, 24.5], [27.367874, 44.564071, 23.75], [27.367757, 44.564065, 23.5], [27.367542, 44.564058, 23.0], [27.366338, 44.56403, 24.5], [27.365986, 44.564023, 24.5], [27.365175, 44.564009, 24.0], [27.36498, 44.564008, 24.0], [27.364338, 44.564006, 23.25], [27.364273, 44.564006, 23.75]]}}]}