{"type": "FeatureCollection", "features": [{"type": "Feature", "properties": {"creator": "BRouter-1.7.10", "name": "brouter_trekking_0", "track-length": "709", "filtered ascend": "3", "plain-ascend": "-1", "total-time": "119", "total-energy": "11949", "cost": "2303", "messages": [["Longitude", "Latitude", "Elevation", "Distance", "CostPerKm", "ElevCost", "TurnCost", "NodeCost", "InitialCost", "WayTags", "NodeTags", "Time", "Energy"], ["27350804", "44564933", "23", "20", "1350", "0", "0", "0", "0", "reversedirection=yes highway=service", "", "3", "380"], ["27350877", "44564671", "23", "29", "1150", "0", "109", "0", "0", "reversedirection=yes highway=residential surface=asphalt", "", "9", "935"], ["27350964", "44564475", "23", "23", "1450", "0", "2", "0", "0", "reversedirection=yes highway=tertiary surface=asphalt", "highway=crossing", "13", "1324"], ["27351896", "44562911", "26", "189", "1450", "0", "0", "0", "0", "reversedirection=yes highway=tertiary surface=asphalt", "highway=crossing", "52", "5238"], ["27352102", "44562614", "27", "37", "1450", "0", "0", "0", "0", "reversedirection=yes highway=tertiary surface=asphalt", "estimated_crossing_class=5", "62", "6282"], ["27350782", "44562739", "24", "105", "3050", "0", "140", "0", "0", "reversedirection=yes highway=primary surface=asphalt oneway=no", "railway=level_crossing", "77", "7719"], ["27350307", "44562790", "25", "38", "3050", "0", "0", "0", "0", "reversedirection=yes highway=primary surface=asphalt oneway=no", "", "84", "8407"], ["27349730", "44562832", "24", "46", "3050", "0", "2", "0", "0", "highway=primary surface=asphalt oneway=yes", "highway=give_way direction=forward", "91", "9128"], ["27349583", "44562801", "24", "12", "3050", "0", "1", "0", "0", "highway=primary surface=asphalt oneway=yes", "", "93", "9303"], ["27349137", "44562630", "23", "61", "10050", "0", "0", "0", "0", "highway=trunk surface=asphalt foot=no smoothness=good junction=roundabout", "", "101", "10176"], ["27349005", "44562429", "22", "25", "1350", "0", "18", "0", "0", "highway=service surface=asphalt oneway=yes", "", "104", "10483"], ["27348918", "44562180", "21", "29", "1350", "0", "5", "0", "0", "highway=service surface=asphalt", "", "108", "10817"], ["27347883", "44562320", "21", "95", "1350", "0", "181", "0", "0", "reversedirection=yes highway=service", "", "119", "11949"]], "times": [0, 3.807, 6.99, 9.356, 11.047, 13.243, 15.783, 26.355, 35.893, 52.376, 62.811, 72.417, 77.179, 77.947, 84.062, 89.199, 90.264, 91.272, 93.023, 93.465, 94.354, 95.198, 96.05, 96.766, 97.777, 98.798, 99.828, 100.808, 101.745, 103.847, 104.817, 105.642, 106.677, 108.154, 109.641, 118.033, 119.473]}, "geometry": {"type": "LineString", "coordinates": [[27.350573, 44.56487, 23.25], [27.350804, 44.564933, 23.75], [27.350834, 44.564788, 24.0], [27.350877, 44.564671, 23.75], [27.350898, 44.564586, 23.5], [27.350964, 44.564475, 23.5], [27.35104, 44.56434, 23.25], [27.351294, 44.563868, 24.0], [27.351568, 44.563406, 23.75], [27.351896, 44.562911, 26.0], [27.352102, 44.562614, 27.0], [27.35121, 44.562695, 24.25], [27.350782, 44.562739, 24.0], [27.350715, 44.562748, 24.25], [27.350307, 44.56279, 25.0], [27.349906, 44.56284, 24.5], [27.349812, 44.56284, 24.25], [27.34973, 44.562832, 24.0], [27.349583, 44.562801, 24.0], [27.34956, 44.562821, 24.0], [27.349503, 44.562853, 24.0], [27.349435, 44.562873, 23.75], [27.349362, 44.562878, 23.75], [27.349301, 44.56287, 23.75], [27.349226, 44.562844, 23.75], [27.349167, 44.562802, 23.75], [27.34913, 44.562748, 23.75], [27.34912, 44.562688, 23.5], [27.349137, 44.56263, 23.25], [27.349045, 44.562492, 22.75], [27.349005, 44.562429, 22.5], [27.348958, 44.562374, 22.25], [27.348929, 44.562295, 22.0], [27.348918, 44.56218, 21.75], [27.348773, 44.562186, 22.0], [27.347873, 44.562222, 21.0], [27.347883, 44.56232, 21.0]]}}]}