{"type": "FeatureCollection", "features": [{"type": "Feature", "properties": {"creator": "BRouter-1.7.10", "name": "brouter_trekking_0", "track-length": "1837", "filtered ascend": "6", "plain-ascend": "0", "total-time": "327", "total-energy": "32656", "cost": "4822", "messages": [["Longitude", "Latitude", "Elevation", "Distance", "CostPerKm", "ElevCost", "TurnCost", "NodeCost", "InitialCost", "WayTags", "NodeTags", "Time", "Energy"], ["27364352", "44558955", "21", "85", "1150", "0", "0", "0", "0", "reversedirection=yes highway=residential surface=asphalt", "highway=crossing", "14", "1428"], ["27362884", "44558594", "21", "123", "1150", "0", "0", "0", "0", "reversedirection=yes highway=residential surface=asphalt", "highway=crossing", "35", "3522"], ["27362097", "44558403", "24", "66", "1150", "0", "0", "0", "0", "reversedirection=yes highway=residential surface=asphalt", "highway=crossing", "55", "5587"], ["27361945", "44558363", "25", "13", "1150", "0", "0", "0", "0", "reversedirection=yes highway=residential surface=asphalt", "", "58", "5816"], ["27360917", "44560179", "24", "219", "1450", "0", "83", "0", "0", "reversedirection=yes highway=tertiary surface=asphalt", "highway=crossing crossing=uncontrolled", "104", "10430"], ["27360845", "44561073", "26", "100", "1450", "0", "0", "0", "0", "reversedirection=yes highway=tertiary surface=asphalt", "", "125", "12540"], ["27359132", "44561114", "25", "136", "1150", "0", "88", "0", "0", "highway=residential surface=asphalt oneway=no", "", "151", "15202"], ["27359190", "44562189", "26", "118", "1350", "0", "90", "0", "0", "highway=service access=no foot=yes bicycle=yes", "estimated_crossing_class=5", "175", "17542"], ["27358795", "44562198", "26", "31", "3050", "0", "92", "0", "0", "reversedirection=yes highway=primary surface=asphalt smoothness=excellent oneway=no", "highway=crossing estimated_crossing_class=5 crossing=uncontrolled", "180", "18050"], ["27356442", "44562255", "26", "187", "3050", "0", "0", "0", "0", "reversedirection=yes highway=primary surface=asphalt smoothness=excellent oneway=no", "highway=crossing estimated_crossing_class=5", "212", "21212"], ["27355169", "44562322", "25", "101", "3050", "0", "0", "0", "0", "reversedirection=yes highway=primary surface=asphalt smoothness=excellent oneway=no", "highway=crossing estimated_crossing_class=0 crossing=zebra", "226", "22665"], ["27354998", "44562336", "25", "14", "3050", "0", "0", "0", "0", "reversedirection=yes highway=primary surface=asphalt smoothness=excellent oneway=no", "estimated_crossing_class=5", "228", "22887"], ["27354854", "44562347", "25", "12", "3050", "0", "0", "0", "0", "reversedirection=yes highway=primary surface=asphalt smoothness=excellent oneway=no", "highway=crossing estimated_crossing_class=0 crossing=zebra", "230", "23091"], ["27352994", "44562526", "26", "149", "3050", "0", "0", "0", "0", "reversedirection=yes highway=primary surface=asphalt smoothness=excellent oneway=no", "highway=crossing estimated_crossing_class=5", "257", "25796"], ["27352917", "44562532", "26", "6", "3050", "0", "0", "0", "0", "reversedirection=yes highway=primary surface=asphalt smoothness=excellent oneway=no", "estimated_crossing_class=5", "258", "25900"], ["27352869", "44562537", "26", "4", "3050", "0", "0", "0", "0", "reversedirection=yes highway=primary surface=asphalt smoothness=excellent oneway=no", "estimated_crossing_class=5", "259", "25969"], ["27352102", "44562614", "27", "62", "3050", "0", "0", "0", "0", "reversedirection=yes highway=primary surface=asphalt smoothness=excellent oneway=no", "estimated_crossing_class=5", "272", "27282"], ["27350782", "44562739", "24", "105", "3050", "0", "0", "0", "0", "reversedirection=yes highway=primary surface=asphalt oneway=no", "railway=level_crossing", "285", "28547"], ["27350307", "44562790", "25", "38", "3050", "0", "0", "0", "0", "reversedirection=yes highway=primary surface=asphalt oneway=no", "", "291", "29185"], ["27349730", "44562832", "24", "46", "3050", "0", "2", "0", "0", "highway=primary surface=asphalt oneway=yes", "highway=give_way direction=forward", "298", "29873"], ["27349583", "44562801", "24", "12", "3050", "0", "1", "0", "0", "highway=primary surface=asphalt oneway=yes", "", "300", "30043"], ["27349137", "44562630", "23", "61", "10050", "0", "0", "0", "0", "highway=trunk surface=asphalt foot=no smoothness=good junction=roundabout", "", "308", "30895"], ["27349005", "44562429", "22", "25", "1350", "0", "18", "0", "0", "highway=service surface=asphalt oneway=yes", "", "311", "31199"], ["27348918", "44562180", "21", "29", "1350", "0", "5", "0", "0", "highway=service surface=asphalt", "", "315", "31529"], ["27347883", "44562320", "21", "95", "1350", "0", "181", "0", "0", "reversedirection=yes highway=service", "", "326", "32656"]], "times": [0, 12.6, 14.28, 20.664, 32.929, 35.225, 45.851, 55.864, 58.156, 77.874, 86.602, 95.605, 97.468, 101.491, 104.294, 111.924, 115.268, 125.382, 142.792, 145.498, 151.996, 156.995, 159.592, 166.992, 170.443, 172.741, 175.39, 180.479, 193.982, 212.089, 216.12, 226.617, 228.839, 230.88, 257.929, 258.97, 259.663, 272.783, 281.082, 285.431, 286.139, 291.815, 296.7, 297.722, 298.694, 300.389, 300.817, 301.681, 302.502, 303.332, 304.031, 305.019, 306.019, 307.028, 307.99, 308.912, 310.986, 311.945, 312.762, 313.787, 315.252, 316.727, 325.077, 326.512]}, "geometry": {"type": "LineString", "coordinates": [[27.365368, 44.559196, 21.0], [27.364477, 44.558983, 21.0], [27.364352, 44.558955, 21.0], [27.363894, 44.558843, 21.0], [27.36303, 44.558622, 21.0], [27.362884, 44.558594, 21.5], [27.362458, 44.558495, 23.5], [27.362097, 44.558403, 24.75], [27.361945, 44.558363, 25.75], [27.361587, 44.558927, 25.25], [27.361332, 44.559345, 24.0], [27.361067, 44.55978, 24.0], [27.361022, 44.559877, 24.0], [27.360954, 44.560056, 24.5], [27.360917, 44.560179, 24.75], [27.36085, 44.560598, 24.0], [27.36084, 44.560756, 24.5], [27.360845, 44.561073, 26.5], [27.3599, 44.561097, 26.5], [27.359698, 44.561102, 25.75], [27.359132, 44.561114, 25.0], [27.359148, 44.561415, 25.0], [27.359154, 44.561536, 26.0], [27.359169, 44.561824, 26.75], [27.359177, 44.561972, 26.75], [27.359181, 44.562074, 26.75], [27.35919, 44.562189, 26.75], [27.358795, 44.562198, 26.0], [27.357867, 44.562225, 26.5], [27.356442, 44.562255, 26.0], [27.356111, 44.562267, 25.75], [27.355169, 44.562322, 25.0], [27.354998, 44.562336, 25.25], [27.354854, 44.562347, 25.5], [27.352994, 44.562526, 26.0], [27.352917, 44.562532, 26.0], [27.352869, 44.562537, 26.0], [27.352102, 44.562614, 27.0], [27.35121, 44.562695, 24.25], [27.350782, 44.562739, 24.0], [27.350715, 44.562748, 24.25], [27.350307, 44.56279, 25.0], [27.349906, 44.56284, 24.5], [27.349812, 44.56284, 24.25], [27.34973, 44.562832, 24.0], [27.349583, 44.562801, 24.0], [27.34956, 44.562821, 24.0], [27.349503, 44.562853, 24.0], [27.349435, 44.562873, 23.75], [27.349362, 44.562878, 23.75], [27.349301, 44.56287, 23.75], [27.349226, 44.562844, 23.75], [27.349167, 44.562802, 23.75], [27.34913, 44.562748, 23.75], [27.34912, 44.562688, 23.5], [27.349137, 44.56263, 23.25], [27.349045, 44.562492, 22.75], [27.349005, 44.562429, 22.5], [27.348958, 44.562374, 22.25], [27.348929, 44.562295, 22.0], [27.348918, 44.56218, 21.75], [27.348773, 44.562186, 22.0], [27.347873, 44.562222, 21.0], [27.347883, 44.56232, 21.0]]}}]}