{"type": "FeatureCollection", "features": [{"type": "Feature", "properties": {"creator": "BRouter-1.7.10", "name": "brouter_trekking_0", "track-length": "1427", "filtered ascend": "7", "plain-ascend": "-2", "total-time": "243", "total-energy": "24267", "cost": "2235", "messages": [["Longitude", "Latitude", "Elevation", "Distance", "CostPerKm", "ElevCost", "TurnCost", "NodeCost", "InitialCost", "WayTags", "NodeTags", "Time", "Energy"], ["27355483", "44564645", "24", "107", "1450", "0", "0", "0", "0", "highway=tertiary surface=asphalt oneway=yes", "highway=crossing crossing=uncontrolled", "18", "1874"], ["27357365", "44564651", "25", "149", "1450", "0", "0", "0", "0", "highway=tertiary surface=asphalt oneway=yes", "highway=crossing", "47", "4708"], ["27358286", "44564654", "30", "73", "1450", "0", "0", "0", "0", "highway=tertiary surface=asphalt oneway=yes", "highway=crossing", "65", "6592"], ["27359762", "44564654", "24", "118", "1450", "0", "0", "0", "0", "highway=tertiary surface=asphalt oneway=yes", "highway=crossing", "83", "8389"], ["27361170", "44564399", "28", "117", "1450", "0", "2", "0", "0", "highway=tertiary surface=asphalt oneway=yes", "highway=crossing", "108", "10875"], ["27363536", "44564052", "23", "194", "1450", "0", "0", "0", "0", "highway=tertiary surface=asphalt oneway=yes", "highway=crossing", "135", "13518"], ["27363887", "44563848", "24", "37", "1450", "0", "0", "0", "0", "highway=tertiary surface=asphalt oneway=yes", "", "140", "14077"], ["27363897", "44563794", "23", "6", "1450", "0", "20", "0", "0", "reversedirection=yes highway=tertiary surface=asphalt oneway=no", "highway=crossing", "141", "14164"], ["27364128", "44562198", "28", "177", "1450", "0", "0", "0", "0", "reversedirection=yes highway=tertiary surface=asphalt oneway=no", "highway=crossing", "177", "17801"], ["27364130", "44562122", "28", "8", "1450", "0", "0", "0", "0", "reversedirection=yes highway=tertiary surface=asphalt oneway=no", "estimated_crossing_class=5", "180", "18085"], ["27364129", "44562004", "27", "13", "1150", "0", "0", "0", "0", "highway=residential surface=asphalt", "highway=crossing", "184", "18471"], ["27364020", "44560210", "21", "199", "1150", "0", "0", "0", "0", "highway=residential surface=asphalt", "", "214", "21442"], ["27364219", "44560216", "22", "16", "1150", "0", "95", "0", "0", "highway=residential", "", "216", "21619"], ["27364477", "44558983", "21", "138", "1150", "0", "89", "0", "0", "reversedirection=yes highway=residential", "", "233", "23311"], ["27365368", "44559196", "21", "75", "1150", "0", "95", "0", "0", "highway=residential surface=asphalt", "", "242", "24267"]], "times": [0, 17.194, 18.743, 45.192, 47.087, 49.861, 50.98, 65.919, 68.701, 78.559, 83.883, 85.051, 86.436, 87.8, 101.097, 104.39, 108.741, 122.148, 123.807, 127.185, 128.58, 131.216, 132.566, 135.167, 136.957, 138.467, 140.759, 141.629, 145.564, 149.455, 154.233, 162.022, 174.072, 177.984, 180.825, 184.682, 188.908, 191.186, 192.894, 194.786, 196.103, 214.394, 216.157, 226.071, 228.654, 230.948, 231.94, 233.077, 242.636]}, "geometry": {"type": "LineString", "coordinates": [[27.354137, 44.564633, 24.25], [27.355374, 44.564644, 24.5], [27.355483, 44.564645, 24.5], [27.357238, 44.564649, 25.25], [27.357365, 44.564651, 25.5], [27.357525, 44.564651, 26.0], [27.357592, 44.564651, 26.25], [27.358286, 44.564654, 30.5], [27.358421, 44.564655, 30.75], [27.359213, 44.564657, 26.0], [27.359762, 44.564654, 24.5], [27.359871, 44.564654, 24.5], [27.360002, 44.564637, 24.25], [27.360122, 44.564613, 24.5], [27.36081, 44.564436, 26.75], [27.360975, 44.564415, 27.5], [27.36117, 44.564399, 28.0], [27.362201, 44.564337, 26.25], [27.362346, 44.564327, 25.5], [27.362732, 44.564283, 24.0], [27.362891, 44.564252, 23.5], [27.363187, 44.564178, 23.0], [27.363323, 44.564135, 23.0], [27.363536, 44.564052, 23.75], [27.363657, 44.563993, 24.0], [27.36375, 44.563939, 24.0], [27.363887, 44.563848, 24.0], [27.363897, 44.563794, 23.75], [27.363953, 44.563541, 23.5], [27.363999, 44.563291, 23.25], [27.36404, 44.563082, 24.75], [27.364082, 44.562787, 25.5], [27.364118, 44.5624, 26.75], [27.364128, 44.562198, 28.5], [27.36413, 44.562122, 28.25], [27.364129, 44.562004, 27.75], [27.364116, 44.56168, 24.0], [27.364086, 44.561519, 24.0], [27.364062, 44.561402, 24.0], [27.36405, 44.561276, 24.0], [27.364049, 44.561195, 24.25], [27.36402, 44.56021, 21.75], [27.364219, 44.560216, 22.75], [27.364278, 44.559531, 23.0], [27.364336, 44.559344, 22.25], [27.364412, 44.559154, 21.0], [27.364442, 44.559074, 21.0], [27.364477, 44.558983, 21.0], [27.365368, 44.559196, 21.0]]}}]}