{"type": "FeatureCollection", "features": [{"type": "Feature", "properties": {"creator": "BRouter-1.7.10", "name": "brouter_trekking_0", "track-length": "1198", "filtered ascend": "5", "plain-ascend": "4", "total-time": "222", "total-energy": "22224", "cost": "2256", "messages": [["Longitude", "Latitude", "Elevation", "Distance", "CostPerKm", "ElevCost", "TurnCost", "NodeCost", "InitialCost", "WayTags", "NodeTags", "Time", "Energy"], ["27355068", "44557811", "26", "112", "1150", "0", "0", "0", "0", "reversedirection=yes highway=residential", "", "20", "2043"], ["27359097", "44560339", "25", "565", "1150", "0", "256", "0", "0", "reversedirection=yes highway=residential surface=asphalt", "highway=crossing crossing=uncontrolled", "128", "12897"], ["27359132", "44561114", "25", "87", "1150", "0", "0", "0", "0", "reversedirection=yes highway=residential surface=asphalt", "", "142", "14232"], ["27360845", "44561073", "26", "136", "1150", "0", "90", "0", "0", "reversedirection=yes highway=residential surface=asphalt oneway=no", "", "169", "16997"], ["27360917", "44560179", "24", "100", "1450", "0", "88", "0", "0", "highway=tertiary surface=asphalt", "highway=crossing crossing=uncontrolled", "183", "18343"], ["27361587", "44558927", "25", "150", "1450", "0", "0", "0", "0", "highway=tertiary surface=asphalt", "", "207", "20767"], ["27361518", "44558659", "26", "48", "5050", "0", "181", "0", "0", "reversedirection=yes highway=footway", "", "222", "22224"]], "times": [0, 20.433, 39.078, 43.774, 74.207, 76.019, 77.504, 79.718, 92.053, 128.959, 136.147, 142.315, 151.041, 154.668, 169.957, 174.259, 176.404, 183.416, 185.448, 188.246, 189.759, 197.425, 207.645, 219.535, 222.217]}, "geometry": {"type": "LineString", "coordinates": [[27.35554, 44.556862, 22.5], [27.355068, 44.557811, 26.0], [27.356461, 44.558143, 22.5], [27.356804, 44.558137, 22.75], [27.358822, 44.558065, 23.5], [27.358832, 44.558164, 23.25], [27.358897, 44.558234, 23.25], [27.359017, 44.558277, 24.0], [27.359029, 44.5588, 24.5], [27.359097, 44.560339, 25.75], [27.359117, 44.560776, 24.75], [27.359132, 44.561114, 25.0], [27.359698, 44.561102, 25.75], [27.3599, 44.561097, 26.5], [27.360845, 44.561073, 26.5], [27.36084, 44.560756, 24.5], [27.36085, 44.560598, 24.0], [27.360917, 44.560179, 24.75], [27.360954, 44.560056, 24.5], [27.361022, 44.559877, 24.0], [27.361067, 44.55978, 24.0], [27.361332, 44.559345, 24.0], [27.361587, 44.558927, 25.25], [27.361373, 44.558639, 27.75], [27.361518, 44.558659, 26.0]]}}]}