{"type": "FeatureCollection", "features": [{"type": "Feature", "properties": {"creator": "BRouter-1.7.10", "name": "brouter_trekking_0", "track-length": "2921", "filtered ascend": "8", "plain-ascend": "2", "total-time": "522", "total-energy": "52237", "cost": "5102", "messages": [["Longitude", "Latitude", "Elevation", "Distance", "CostPerKm", "ElevCost", "TurnCost", "NodeCost", "InitialCost", "WayTags", "NodeTags", "Time", "Energy"], ["27384571", "44567749", "23", "14", "5050", "0", "28", "0", "0", "highway=footway", "estimated_crossing_class=4", "3", "393"], ["27384372", "44567555", "25", "27", "3050", "0", "82", "0", "0", "reversedirection=yes highway=primary surface=asphalt oneway=no", "highway=crossing estimated_crossing_class=4", "8", "875"], ["27384220", "44567400", "25", "21", "3050", "0", "0", "0", "0", "reversedirection=yes highway=primary surface=asphalt oneway=no", "estimated_crossing_class=4", "13", "1323"], ["27383498", "44566664", "25", "100", "3050", "0", "0", "0", "0", "reversedirection=yes highway=primary surface=asphalt oneway=no", "highway=crossing estimated_crossing_class=4", "30", "3009"], ["27382104", "44565186", "24", "198", "3050", "0", "0", "0", "0", "reversedirection=yes highway=primary surface=asphalt oneway=no", "estimated_crossing_class=4", "72", "7255"], ["27381962", "44565258", "24", "14", "1150", "0", "89", "0", "0", "highway=residential surface=asphalt oneway=yes", "highway=crossing crossing=uncontrolled", "75", "7563"], ["27380897", "44565847", "26", "107", "1150", "0", "0", "0", "0", "highway=residential surface=asphalt oneway=yes", "highway=crossing crossing=uncontrolled", "103", "10387"], ["27380771", "44565919", "26", "13", "1150", "0", "0", "0", "0", "highway=residential surface=asphalt oneway=yes", "", "106", "10664"], ["27380657", "44565849", "26", "12", "1150", "0", "73", "0", "0", "reversedirection=yes highway=residential surface=asphalt", "highway=crossing crossing=uncontrolled", "108", "10896"], ["27377406", "44563916", "23", "336", "1150", "0", "0", "0", "0", "reversedirection=yes highway=residential surface=asphalt", "highway=crossing crossing=uncontrolled", "157", "15745"], ["27376475", "44563634", "24", "82", "1150", "0", "1", "0", "0", "reversedirection=yes highway=residential surface=asphalt", "highway=crossing crossing=uncontrolled", "172", "17227"], ["27376136", "44563593", "24", "27", "1150", "0", "0", "0", "0", "reversedirection=yes highway=residential surface=asphalt", "highway=crossing crossing=uncontrolled", "176", "17700"], ["27375466", "44563516", "22", "54", "1150", "0", "0", "0", "0", "reversedirection=yes highway=residential surface=asphalt", "", "183", "18343"], ["27375054", "44563480", "21", "33", "1150", "0", "0", "0", "0", "highway=residential surface=asphalt", "", "187", "18727"], ["27372722", "44564791", "22", "237", "1150", "0", "36", "0", "0", "reversedirection=yes highway=residential surface=asphalt", "", "226", "22634"], ["27371698", "44564065", "22", "115", "1150", "0", "71", "0", "0", "highway=residential surface=asphalt oneway=yes", "highway=crossing", "245", "24536"], ["27371605", "44563996", "22", "11", "1150", "0", "0", "0", "0", "highway=residential surface=asphalt oneway=yes", "", "247", "24719"], ["27371528", "44564077", "21", "11", "1450", "0", "108", "0", "0", "reversedirection=yes highway=tertiary surface=asphalt", "highway=crossing", "248", "24881"], ["27371283", "44564355", "20", "36", "1450", "0", "0", "0", "0", "reversedirection=yes highway=tertiary surface=asphalt", "", "253", "25310"], ["27371201", "44564348", "21", "7", "1450", "0", "53", "0", "0", "reversedirection=yes highway=tertiary surface=asphalt oneway=no", "highway=crossing", "254", "25409"], ["27370268", "44564264", "23", "75", "1450", "0", "0", "0", "0", "reversedirection=yes highway=tertiary surface=asphalt oneway=no", "", "270", "27051"], ["27364209", "44564006", "23", "481", "1050", "0", "0", "0", "0", "highway=tertiary surface=asphalt foot=yes bicycle=yes oneway=yes", "highway=crossing", "359", "35985"], ["27363843", "44564050", "24", "30", "1050", "0", "3", "0", "0", "highway=tertiary surface=asphalt foot=yes bicycle=yes oneway=yes", "highway=crossing", "365", "36515"], ["27363750", "44564052", "24", "7", "1050", "0", "0", "0", "0", "highway=tertiary surface=asphalt foot=yes bicycle=yes oneway=yes", "", "366", "36638"], ["27363606", "44564121", "23", "14", "1450", "0", "13", "0", "0", "highway=tertiary surface=asphalt oneway=yes", "highway=crossing", "368", "36869"], ["27361167", "44564483", "28", "200", "1450", "0", "0", "0", "0", "highway=tertiary surface=asphalt oneway=yes", "highway=crossing", "407", "40716"], ["27359766", "44564773", "25", "116", "1450", "0", "3", "0", "0", "highway=tertiary surface=asphalt oneway=yes", "highway=crossing", "430", "43034"], ["27358283", "44564763", "30", "118", "1450", "0", "0", "0", "0", "highway=tertiary surface=asphalt oneway=yes", "highway=crossing", "457", "45713"], ["27357360", "44564756", "25", "73", "1450", "0", "0", "0", "0", "highway=tertiary surface=asphalt oneway=yes", "highway=crossing", "467", "46760"], ["27355483", "44564736", "25", "149", "1450", "0", "0", "0", "0", "highway=tertiary surface=asphalt oneway=yes", "highway=crossing crossing=uncontrolled", "489", "48934"], ["27353786", "44564718", "24", "135", "1450", "0", "0", "0", "0", "highway=tertiary surface=asphalt oneway=yes", "highway=crossing crossing=uncontrolled", "512", "51302"], ["27353782", "44564631", "24", "10", "5050", "0", "86", "0", "0", "highway=footway", "highway=crossing crossing=uncontrolled", "514", "51432"], ["27354506", "44564636", "24", "58", "1450", "0", "94", "0", "0", "highway=tertiary surface=asphalt oneway=yes", "", "522", "52237"]], "times": [0.238, 3.93, 8.758, 13.237, 30.092, 61.091, 72.546, 75.621, 103.853, 106.622, 108.946, 130.035, 140.008, 145.182, 157.433, 163.869, 165.854, 168.715, 172.254, 176.98, 183.415, 187.253, 193.653, 200.796, 216.615, 226.316, 245.335, 247.168, 248.791, 252.089, 253.081, 254.069, 270.48, 295.59, 310.407, 311.828, 314.236, 333.131, 338.234, 348.485, 350.926, 358.135, 359.808, 360.31, 362.985, 365.109, 366.342, 368.646, 371.584, 373.531, 377.993, 380.726, 387.581, 391.198, 407.12, 412.192, 416.01, 426.226, 427.783, 429.037, 430.297, 440.14, 457.077, 465.782, 467.543, 489.262, 490.686, 508.492, 512.941, 514.239, 522.286]}, "geometry": {"type": "LineString", "coordinates": [[27.38444, 44.567831, 22.75], [27.384571, 44.567749, 23.25], [27.384372, 44.567555, 25.0], [27.38422, 44.5674, 25.75], [27.383498, 44.566664, 25.0], [27.38252, 44.565597, 23.75], [27.382104, 44.565186, 24.25], [27.381962, 44.565258, 24.75], [27.380897, 44.565847, 26.5], [27.380771, 44.565919, 26.5], [27.380657, 44.565849, 26.25], [27.379119, 44.564902, 23.75], [27.378415, 44.564484, 23.0], [27.378092, 44.564292, 23.25], [27.377406, 44.563916, 23.75], [27.377033, 44.563749, 24.0], [27.376907, 44.563713, 24.0], [27.376719, 44.563674, 24.0], [27.376475, 44.563634, 24.0], [27.376136, 44.563593, 24.0], [27.375466, 44.563516, 22.0], [27.375054, 44.56348, 21.25], [27.374674, 44.563757, 22.0], [27.374256, 44.564044, 22.0], [27.373248, 44.564546, 22.0], [27.372722, 44.564791, 22.75], [27.371698, 44.564065, 22.25], [27.371605, 44.563996, 22.25], [27.371528, 44.564077, 21.75], [27.371338, 44.56429, 20.5], [27.371283, 44.564355, 20.5], [27.371201, 44.564348, 21.0], [27.370268, 44.564264, 23.0], [27.368982, 44.564151, 24.5], [27.367874, 44.564071, 23.75], [27.367757, 44.564065, 23.5], [27.367542, 44.564058, 23.0], [27.366338, 44.56403, 24.5], [27.365986, 44.564023, 24.5], [27.365175, 44.564009, 24.0], [27.36498, 44.564008, 24.0], [27.364338, 44.564006, 23.25], [27.364209, 44.564006, 23.75], [27.364172, 44.564007, 23.75], [27.36399, 44.564039, 24.0], [27.363843, 44.56405, 24.0], [27.36375, 44.564052, 24.0], [27.363606, 44.564121, 23.75], [27.363381, 44.564211, 23.25], [27.36323, 44.56426, 23.25], [27.362917, 44.564341, 23.75], [27.36274, 44.564377, 24.0], [27.362372, 44.56442, 25.0], [27.36221, 44.564431, 26.0], [27.361167, 44.564483, 28.0], [27.360981, 44.564502, 27.5], [27.360822, 44.564529, 27.25], [27.360095, 44.56474, 25.25], [27.359974, 44.564762, 25.0], [27.359869, 44.564774, 25.0], [27.359766, 44.564773, 25.0], [27.359215, 44.564768, 26.5], [27.358283, 44.564763, 30.25], [27.357526, 44.564758, 25.75], [27.35736, 44.564756, 25.25], [27.355483, 44.564736, 25.0], [27.355373, 44.564735, 25.0], [27.354216, 44.564722, 26.0], [27.353786, 44.564718, 24.5], [27.353782, 44.564631, 24.25], [27.354506, 44.564636, 24.5]]}}]}