{"type": "FeatureCollection", "features": [{"type": "Feature", "properties": {"creator": "BRouter-1.7.10", "name": "brouter_trekking_0", "track-length": "3689", "filtered ascend": "6", "plain-ascend": "-2", "total-time": "625", "total-energy": "62518", "cost": "7675", "messages": [["Longitude", "Latitude", "Elevation", "Distance", "CostPerKm", "ElevCost", "TurnCost", "NodeCost", "InitialCost", "WayTags", "NodeTags", "Time", "Energy"], ["27360887", "44562026", "27", "12", "1450", "0", "0", "0", "0", "reversedirection=yes highway=tertiary surface=asphalt", "highway=crossing crossing=uncontrolled", "2", "215"], ["27360890", "44562148", "26", "14", "1450", "0", "0", "0", "0", "reversedirection=yes highway=tertiary surface=asphalt", "estimated_crossing_class=5", "4", "421"], ["27360893", "44562252", "25", "12", "1450", "0", "0", "0", "0", "reversedirection=yes highway=tertiary surface=asphalt", "highway=crossing crossing=zebra", "5", "574"], ["27360974", "44564329", "27", "230", "1450", "0", "0", "0", "0", "reversedirection=yes highway=tertiary surface=asphalt", "highway=crossing", "47", "4788"], ["27360975", "44564415", "27", "10", "1450", "0", "0", "0", "0", "reversedirection=yes highway=tertiary surface=asphalt", "", "49", "4976"], ["27361170", "44564399", "28", "16", "1450", "0", "99", "0", "0", "highway=tertiary surface=asphalt oneway=yes", "highway=crossing", "53", "5313"], ["27363536", "44564052", "23", "194", "1450", "0", "0", "0", "0", "highway=tertiary surface=asphalt oneway=yes", "highway=crossing", "77", "7719"], ["27363887", "44563848", "24", "37", "1450", "0", "0", "0", "0", "highway=tertiary surface=asphalt oneway=yes", "", "82", "8264"], ["27363897", "44563794", "23", "6", "1450", "0", "20", "0", "0", "reversedirection=yes highway=tertiary surface=asphalt oneway=no", "highway=crossing", "83", "8350"], ["27364040", "44563082", "24", "79", "1450", "0", "0", "0", "0", "reversedirection=yes highway=tertiary surface=asphalt oneway=no", "", "95", "9594"], ["27366509", "44563194", "23", "197", "1150", "0", "86", "0", "0", "highway=residential surface=asphalt oneway=yes", "highway=crossing crossing=uncontrolled", "125", "12566"], ["27368156", "44563199", "25", "130", "1150", "0", "0", "0", "0", "highway=residential surface=asphalt oneway=yes", "highway=crossing crossing=uncontrolled", "154", "15428"], ["27368764", "44563418", "24", "55", "1150", "0", "13", "0", "0", "highway=residential surface=asphalt oneway=yes", "", "163", "16358"], ["27369512", "44562865", "23", "85", "1150", "0", "68", "0", "0", "highway=residential surface=asphalt", "", "175", "17576"], ["27371338", "44564290", "20", "217", "1150", "0", "112", "0", "0", "reversedirection=yes highway=residential", "", "204", "20480"], ["27370870", "44564832", "20", "70", "1450", "0", "64", "0", "0", "reversedirection=yes highway=tertiary surface=asphalt", "", "214", "21464"], ["27375054", "44563480", "21", "421", "1150", "0", "143", "0", "0", "highway=residential surface=asphalt", "", "288", "28861"], ["27375466", "44563516", "22", "33", "1150", "0", "35", "0", "0", "reversedirection=yes highway=residential surface=asphalt", "", "294", "29447"], ["27376136", "44563593", "24", "54", "1150", "0", "0", "0", "0", "highway=residential surface=asphalt", "highway=crossing crossing=uncontrolled", "308", "30892"], ["27376475", "44563634", "24", "27", "1150", "0", "0", "0", "0", "highway=residential surface=asphalt", "highway=crossing crossing=uncontrolled", "315", "31511"], ["27377406", "44563916", "23", "82", "1150", "0", "1", "0", "0", "highway=residential surface=asphalt", "highway=crossing crossing=uncontrolled", "331", "33128"], ["27380657", "44565849", "26", "336", "1150", "0", "0", "0", "0", "highway=residential surface=asphalt", "highway=crossing crossing=uncontrolled", "400", "40041"], ["27380771", "44565919", "26", "12", "1150", "0", "0", "0", "0", "highway=residential surface=asphalt", "", "402", "40290"], ["27380874", "44565830", "26", "13", "1150", "0", "91", "0", "0", "highway=residential surface=asphalt oneway=yes", "highway=crossing crossing=uncontrolled", "405", "40570"], ["27381765", "44565117", "24", "106", "1150", "0", "0", "0", "0", "highway=residential surface=asphalt oneway=yes", "highway=crossing crossing=uncontrolled", "418", "41906"], ["27381898", "44565011", "24", "16", "1150", "0", "0", "0", "0", "highway=residential surface=asphalt oneway=yes", "estimated_crossing_class=4", "421", "42136"], ["27381778", "44564920", "23", "14", "3050", "0", "82", "0", "0", "reversedirection=yes highway=primary surface=asphalt smoothness=excellent oneway=no", "estimated_crossing_class=4", "423", "42330"], ["27381811", "44564816", "23", "12", "1350", "0", "40", "0", "0", "highway=unclassified surface=asphalt", "highway=crossing", "424", "42490"], ["27381764", "44563818", "19", "111", "1350", "0", "3", "0", "0", "highway=unclassified surface=asphalt", "", "439", "43908"], ["27381691", "44563779", "19", "7", "10050", "0", "33", "0", "0", "highway=trunk surface=asphalt smoothness=good oneway=no", "highway=crossing crossing=zebra", "439", "44003"], ["27381734", "44563726", "19", "7", "5050", "0", "79", "0", "0", "reversedirection=yes highway=footway", "", "440", "44105"], ["27382047", "44563910", "20", "32", "5050", "0", "104", "0", "0", "highway=footway", "", "444", "44428"], ["27382235", "44564010", "21", "19", "40000", "0", "0", "0", "0", "highway=steps foot=yes", "", "446", "44682"], ["27383036", "44563116", "21", "118", "1050", "0", "96", "0", "0", "highway=footway surface=asphalt foot=yes bicycle=yes", "", "464", "46493"], ["27383694", "44562356", "25", "99", "5050", "0", "2", "0", "0", "highway=footway", "estimated_crossing_class=4", "492", "49235"], ["27383485", "44562119", "26", "31", "3050", "0", "48", "0", "0", "highway=primary surface=asphalt smoothness=good oneway=no", "estimated_crossing_class=4", "497", "49763"], ["27383799", "44562085", "27", "25", "1650", "0", "126", "0", "0", "reversedirection=yes highway=secondary surface=asphalt smoothness=excellent oneway=no", "estimated_crossing_class=3", "502", "50274"], ["27384561", "44562004", "27", "61", "1650", "0", "0", "0", "0", "reversedirection=yes highway=secondary surface=asphalt smoothness=excellent oneway=no", "estimated_crossing_class=3", "515", "51568"], ["27385474", "44561910", "24", "73", "1650", "0", "0", "0", "0", "reversedirection=yes highway=secondary surface=asphalt smoothness=excellent oneway=no", "estimated_crossing_class=3", "527", "52762"], ["27386085", "44561804", "25", "50", "1650", "0", "0", "0", "0", "reversedirection=yes highway=secondary surface=asphalt smoothness=excellent oneway=no", "estimated_crossing_class=3", "538", "53851"], ["27387577", "44561443", "24", "126", "1650", "0", "0", "0", "0", "reversedirection=yes highway=secondary surface=asphalt smoothness=excellent oneway=no", "estimated_crossing_class=3", "559", "55968"], ["27388129", "44561087", "23", "59", "1650", "0", "5", "0", "0", "reversedirection=yes highway=secondary surface=asphalt smoothness=excellent oneway=no", "estimated_crossing_class=3", "568", "56823"], ["27389797", "44560007", "22", "179", "1650", "0", "0", "0", "0", "reversedirection=yes highway=secondary surface=asphalt smoothness=excellent oneway=no", "estimated_crossing_class=3", "591", "59163"], ["27389939", "44559910", "22", "16", "1650", "0", "0", "0", "0", "reversedirection=yes highway=secondary surface=asphalt smoothness=excellent oneway=no", "estimated_crossing_class=3", "593", "59409"], ["27391336", "44559042", "22", "147", "1650", "0", "0", "0", "0", "reversedirection=yes highway=secondary surface=asphalt smoothness=excellent oneway=no", "estimated_crossing_class=3", "617", "61732"], ["27391640", "44558901", "22", "29", "1650", "0", "1", "0", "0", "reversedirection=yes highway=secondary surface=asphalt smoothness=excellent oneway=no", "estimated_crossing_class=3", "623", "62319"], ["27391617", "44558814", "23", "10", "1350", "0", "58", "0", "0", "highway=service", "", "625", "62518"]], "times": [0, 2.15, 4.219, 5.743, 7.048, 10.398, 11.47, 19.408, 22.489, 47.876, 49.755, 53.133, 64.711, 66.242, 69.457, 70.798, 73.351, 74.663, 77.185, 78.924, 80.395, 82.635, 83.489, 87.36, 91.203, 95.927, 98.344, 108.762, 119.225, 125.647, 127.512, 139.377, 154.259, 156.271, 163.564, 168.39, 175.745, 189.186, 192.585, 194.621, 195.883, 204.776, 205.786, 214.602, 229.464, 238.3, 250.848, 258.794, 274.811, 282.439, 288.566, 294.424, 308.879, 315.062, 319.351, 322.645, 324.851, 331.232, 342.278, 347.373, 360.839, 400.351, 402.835, 405.64, 418.995, 421.291, 423.23, 424.838, 439.01, 439.964, 440.988, 444.214, 446.751, 464.867, 468.594, 472.724, 492.271, 497.554, 502.661, 515.605, 527.543, 538.432, 555.698, 559.596, 568.137, 591.536, 593.997, 610.107, 617.23, 618.602, 623.101, 625.086]}, "geometry": {"type": "LineString", "coordinates": [[27.360882, 44.561922, 26.75], [27.360887, 44.562026, 27.0], [27.36089, 44.562148, 26.25], [27.360893, 44.562252, 25.5], [27.360899, 44.562345, 25.5], [27.360907, 44.56258, 25.25], [27.360912, 44.562653, 25.25], [27.360924, 44.563112, 25.75], [27.360931, 44.563248, 26.75], [27.360974, 44.564329, 27.5], [27.360975, 44.564415, 27.5], [27.36117, 44.564399, 28.0], [27.362201, 44.564337, 26.25], [27.362346, 44.564327, 25.5], [27.362732, 44.564283, 24.0], [27.362891, 44.564252, 23.5], [27.363187, 44.564178, 23.0], [27.363323, 44.564135, 23.0], [27.363536, 44.564052, 23.75], [27.363657, 44.563993, 24.0], [27.36375, 44.563939, 24.0], [27.363887, 44.563848, 24.0], [27.363897, 44.563794, 23.75], [27.363953, 44.563541, 23.5], [27.363999, 44.563291, 23.25], [27.36404, 44.563082, 24.75], [27.3642, 44.563093, 24.5], [27.36519, 44.563182, 22.75], [27.365992, 44.563194, 23.25], [27.366509, 44.563194, 23.0], [27.366652, 44.563194, 23.25], [27.367411, 44.563191, 24.0], [27.368156, 44.563199, 25.5], [27.368275, 44.5632, 25.5], [27.368764, 44.563418, 24.25], [27.36908, 44.563198, 23.5], [27.369512, 44.562865, 23.5], [27.370253, 44.563517, 23.0], [27.370431, 44.563665, 23.0], [27.370575, 44.563714, 23.0], [27.370652, 44.563754, 23.0], [27.371338, 44.56429, 20.5], [27.371283, 44.564355, 20.5], [27.37087, 44.564832, 20.75], [27.371624, 44.565304, 21.75], [27.372063, 44.565092, 22.5], [27.372722, 44.564791, 22.75], [27.373248, 44.564546, 22.0], [27.374256, 44.564044, 22.0], [27.374674, 44.563757, 22.0], [27.375054, 44.56348, 21.25], [27.375466, 44.563516, 22.0], [27.376136, 44.563593, 24.0], [27.376475, 44.563634, 24.0], [27.376719, 44.563674, 24.0], [27.376907, 44.563713, 24.0], [27.377033, 44.563749, 24.0], [27.377406, 44.563916, 23.75], [27.378092, 44.564292, 23.25], [27.378415, 44.564484, 23.0], [27.379119, 44.564902, 23.75], [27.380657, 44.565849, 26.25], [27.380771, 44.565919, 26.5], [27.380874, 44.56583, 26.75], [27.381765, 44.565117, 24.0], [27.381898, 44.565011, 24.0], [27.381778, 44.56492, 23.75], [27.381811, 44.564816, 23.5], [27.381764, 44.563818, 19.5], [27.381691, 44.563779, 19.25], [27.381734, 44.563726, 19.5], [27.382047, 44.56391, 20.25], [27.382235, 44.56401, 21.25], [27.383036, 44.563116, 21.5], [27.383153, 44.562976, 22.5], [27.383291, 44.562858, 23.25], [27.383694, 44.562356, 25.0], [27.383485, 44.562119, 26.5], [27.383799, 44.562085, 27.25], [27.384561, 44.562004, 27.75], [27.385474, 44.56191, 24.0], [27.386085, 44.561804, 25.25], [27.387268, 44.561535, 24.75], [27.387577, 44.561443, 24.0], [27.388129, 44.561087, 23.75], [27.389797, 44.560007, 22.0], [27.389939, 44.55991, 22.0], [27.390964, 44.559257, 21.5], [27.391336, 44.559042, 22.25], [27.391405, 44.559002, 22.5], [27.39164, 44.558901, 22.75], [27.391617, 44.558814, 23.75]]}}]}