{"type": "FeatureCollection", "features": [{"type": "Feature", "properties": {"creator": "BRouter-1.7.10", "name": "brouter_trekking_0", "track-length": "1368", "filtered ascend": "8", "plain-ascend": "7", "total-time": "274", "total-energy": "27391", "cost": "2483", "messages": [["Longitude", "Latitude", "Elevation", "Distance", "CostPerKm", "ElevCost", "TurnCost", "NodeCost", "InitialCost", "WayTags", "NodeTags", "Time", "Energy"], ["27358225", "44569653", "19", "2", "5050", "0", "0", "0", "0", "highway=footway", "highway=crossing", "0", "33"], ["27358819", "44569262", "20", "64", "1150", "0", "13", "0", "0", "highway=residential surface=asphalt access=yes foot=yes bicycle=yes cycleway=no oneway=no", "", "13", "1354"], ["27358498", "44568995", "20", "39", "1050", "0", "87", "0", "0", "reversedirection=yes highway=tertiary surface=asphalt access=yes foot=yes bicycle=yes cycleway=no oneway=no", "highway=crossing", "21", "2137"], ["27358461", "44568964", "20", "5", "1050", "0", "0", "0", "0", "reversedirection=yes highway=tertiary surface=asphalt access=yes foot=yes bicycle=yes cycleway=no oneway=no", "", "22", "2234"], ["27358922", "44567988", "22", "115", "1050", "0", "44", "0", "0", "highway=tertiary surface=asphalt foot=yes bicycle=yes cycleway=no oneway=no", "highway=crossing crossing=uncontrolled", "48", "4873"], ["27359669", "44566461", "25", "180", "1050", "0", "0", "0", "0", "highway=tertiary surface=asphalt foot=yes bicycle=yes cycleway=no oneway=no", "", "98", "9824"], ["27359768", "44566263", "24", "23", "1450", "0", "0", "0", "0", "highway=tertiary surface=asphalt oneway=yes", "highway=crossing", "102", "10266"], ["27359874", "44564970", "25", "144", "1450", "0", "1", "0", "0", "highway=tertiary surface=asphalt oneway=yes", "highway=crossing", "129", "12998"], ["27359869", "44564774", "25", "21", "1450", "0", "0", "0", "0", "highway=tertiary surface=asphalt oneway=yes", "", "133", "13363"], ["27359871", "44564654", "24", "13", "1450", "0", "0", "0", "0", "highway=tertiary surface=asphalt", "", "135", "13558"], ["27360975", "44564415", "27", "92", "1450", "0", "74", "0", "0", "highway=tertiary surface=asphalt oneway=yes", "", "156", "15691"], ["27360974", "44564329", "27", "10", "1450", "0", "75", "0", "0", "highway=tertiary surface=asphalt", "highway=crossing", "159", "15949"], ["27360893", "44562252", "25", "230", "1450", "0", "0", "0", "0", "highway=tertiary surface=asphalt", "highway=crossing crossing=zebra", "197", "19764"], ["27360890", "44562148", "26", "12", "1450", "0", "0", "0", "0", "highway=tertiary surface=asphalt", "estimated_crossing_class=5", "199", "19992"], ["27360887", "44562026", "27", "14", "1450", "0", "0", "0", "0", "highway=tertiary surface=asphalt", "highway=crossing crossing=uncontrolled", "203", "20311"], ["27360917", "44560179", "24", "206", "1450", "0", "0", "0", "0", "highway=tertiary surface=asphalt", "highway=crossing crossing=uncontrolled", "235", "23548"], ["27361587", "44558927", "25", "150", "1450", "0", "0", "0", "0", "highway=tertiary surface=asphalt", "", "259", "25940"], ["27361518", "44558659", "26", "48", "5050", "0", "181", "0", "0", "reversedirection=yes highway=footway", "", "273", "27391"]], "times": [0, 0.336, 13.541, 21.375, 22.343, 36.371, 45.469, 46.324, 48.728, 57.844, 75.937, 98.22, 102.644, 107.036, 109.65, 129.958, 131.235, 133.609, 135.557, 137.131, 138.673, 153.366, 156.888, 159.465, 182.055, 184.147, 190.949, 192.078, 196.058, 197.612, 199.889, 203.077, 222.502, 226.596, 228.663, 235.441, 237.425, 240.17, 241.659, 249.228, 259.359, 271.193, 273.863]}, "geometry": {"type": "LineString", "coordinates": [[27.358216, 44.569674, 19.0], [27.358225, 44.569653, 19.0], [27.358819, 44.569262, 20.0], [27.358498, 44.568995, 20.25], [27.358461, 44.568964, 20.25], [27.358714, 44.568446, 21.25], [27.358868, 44.568105, 21.75], [27.35888, 44.568073, 21.75], [27.358922, 44.567988, 22.25], [27.359035, 44.567759, 24.0], [27.359285, 44.567243, 24.5], [27.359669, 44.566461, 25.0], [27.359768, 44.566263, 24.75], [27.359848, 44.566042, 24.5], [27.359869, 44.565909, 24.5], [27.359874, 44.56497, 25.25], [27.359873, 44.564903, 25.25], [27.359869, 44.564774, 25.0], [27.359871, 44.564654, 24.5], [27.360002, 44.564637, 24.25], [27.360122, 44.564613, 24.5], [27.36081, 44.564436, 26.75], [27.360975, 44.564415, 27.5], [27.360974, 44.564329, 27.5], [27.360931, 44.563248, 26.75], [27.360924, 44.563112, 25.75], [27.360912, 44.562653, 25.25], [27.360907, 44.56258, 25.25], [27.360899, 44.562345, 25.5], [27.360893, 44.562252, 25.5], [27.36089, 44.562148, 26.25], [27.360887, 44.562026, 27.0], [27.360845, 44.561073, 26.5], [27.36084, 44.560756, 24.5], [27.36085, 44.560598, 24.0], [27.360917, 44.560179, 24.75], [27.360954, 44.560056, 24.5], [27.361022, 44.559877, 24.0], [27.361067, 44.55978, 24.0], [27.361332, 44.559345, 24.0], [27.361587, 44.558927, 25.25], [27.361373, 44.558639, 27.75], [27.361518, 44.558659, 26.0]]}}]}