{"type": "FeatureCollection", "features": [{"type": "Feature", "properties": {"creator": "BRouter-1.7.10", "name": "brouter_trekking_0", "track-length": "1503", "filtered ascend": "5", "plain-ascend": "6", "total-time": "284", "total-energy": "28426", "cost": "4031", "messages": [["Longitude", "Latitude", "Elevation", "Distance", "CostPerKm", "ElevCost", "TurnCost", "NodeCost", "InitialCost", "WayTags", "NodeTags", "Time", "Energy"], ["27364352", "44558955", "21", "85", "1150", "0", "0", "0", "0", "reversedirection=yes highway=residential surface=asphalt", "highway=crossing", "14", "1428"], ["27362884", "44558594", "21", "123", "1150", "0", "0", "0", "0", "reversedirection=yes highway=residential surface=asphalt", "highway=crossing", "35", "3522"], ["27362097", "44558403", "24", "66", "1150", "0", "0", "0", "0", "reversedirection=yes highway=residential surface=asphalt", "highway=crossing", "55", "5587"], ["27361945", "44558363", "25", "13", "1150", "0", "0", "0", "0", "reversedirection=yes highway=residential surface=asphalt", "", "58", "5816"], ["27360917", "44560179", "24", "219", "1450", "0", "83", "0", "0", "reversedirection=yes highway=tertiary surface=asphalt", "highway=crossing crossing=uncontrolled", "104", "10430"], ["27360845", "44561073", "26", "100", "1450", "0", "0", "0", "0", "reversedirection=yes highway=tertiary surface=asphalt", "", "125", "12540"], ["27359132", "44561114", "25", "136", "1150", "0", "88", "0", "0", "highway=residential surface=asphalt oneway=no", "", "151", "15202"], ["27359190", "44562189", "26", "118", "1350", "0", "90", "0", "0", "highway=service access=no foot=yes bicycle=yes", "estimated_crossing_class=5", "175", "17542"], ["27358795", "44562198", "26", "31", "3050", "0", "92", "0", "0", "reversedirection=yes highway=primary surface=asphalt smoothness=excellent oneway=no", "highway=crossing estimated_crossing_class=5 crossing=uncontrolled", "180", "18050"], ["27356442", "44562255", "26", "187", "3050", "0", "0", "0", "0", "reversedirection=yes highway=primary surface=asphalt smoothness=excellent oneway=no", "highway=crossing estimated_crossing_class=5", "212", "21212"], ["27355169", "44562322", "25", "101", "3050", "0", "0", "0", "0", "reversedirection=yes highway=primary surface=asphalt smoothness=excellent oneway=no", "highway=crossing estimated_crossing_class=0 crossing=zebra", "226", "22665"], ["27354998", "44562336", "25", "14", "3050", "0", "0", "0", "0", "reversedirection=yes highway=primary surface=asphalt smoothness=excellent oneway=no", "estimated_crossing_class=5", "228", "22887"], ["27354854", "44562347", "25", "12", "3050", "0", "0", "0", "0", "reversedirection=yes highway=primary surface=asphalt smoothness=excellent oneway=no", "highway=crossing estimated_crossing_class=0 crossing=zebra", "230", "23091"], ["27352994", "44562526", "26", "149", "3050", "0", "0", "0", "0", "reversedirection=yes highway=primary surface=asphalt smoothness=excellent oneway=no", "highway=crossing estimated_crossing_class=5", "257", "25796"], ["27352917", "44562532", "26", "6", "3050", "0", "0", "0", "0", "reversedirection=yes highway=primary surface=asphalt smoothness=excellent oneway=no", "estimated_crossing_class=5", "258", "25900"], ["27352889", "44562400", "25", "15", "1150", "0", "86", "0", "0", "highway=residential surface=asphalt oneway=yes", "", "261", "26144"], ["27351513", "44562533", "26", "110", "5050", "0", "88", "0", "0", "reversedirection=yes highway=footway", "", "281", "28113"], ["27351583", "44562398", "26", "16", "5050", "0", "132", "0", "0", "highway=footway", "", "283", "28391"], ["27351611", "44562401", "26", "2", "5050", "0", "72", "0", "0", "reversedirection=yes highway=footway", "", "284", "28426"]], "times": [0, 12.6, 14.28, 20.664, 32.929, 35.225, 45.851, 55.864, 58.156, 77.874, 86.602, 95.605, 97.468, 101.491, 104.294, 111.924, 115.268, 125.382, 142.792, 145.498, 151.996, 156.995, 159.592, 166.992, 170.443, 172.741, 175.39, 180.479, 193.982, 212.089, 216.12, 226.617, 228.839, 230.88, 257.929, 258.97, 261.408, 281.103, 283.878, 284.224]}, "geometry": {"type": "LineString", "coordinates": [[27.365368, 44.559196, 21.0], [27.364477, 44.558983, 21.0], [27.364352, 44.558955, 21.0], [27.363894, 44.558843, 21.0], [27.36303, 44.558622, 21.0], [27.362884, 44.558594, 21.5], [27.362458, 44.558495, 23.5], [27.362097, 44.558403, 24.75], [27.361945, 44.558363, 25.75], [27.361587, 44.558927, 25.25], [27.361332, 44.559345, 24.0], [27.361067, 44.55978, 24.0], [27.361022, 44.559877, 24.0], [27.360954, 44.560056, 24.5], [27.360917, 44.560179, 24.75], [27.36085, 44.560598, 24.0], [27.36084, 44.560756, 24.5], [27.360845, 44.561073, 26.5], [27.3599, 44.561097, 26.5], [27.359698, 44.561102, 25.75], [27.359132, 44.561114, 25.0], [27.359148, 44.561415, 25.0], [27.359154, 44.561536, 26.0], [27.359169, 44.561824, 26.75], [27.359177, 44.561972, 26.75], [27.359181, 44.562074, 26.75], [27.35919, 44.562189, 26.75], [27.358795, 44.562198, 26.0], [27.357867, 44.562225, 26.5], [27.356442, 44.562255, 26.0], [27.356111, 44.562267, 25.75], [27.355169, 44.562322, 25.0], [27.354998, 44.562336, 25.25], [27.354854, 44.562347, 25.5], [27.352994, 44.562526, 26.0], [27.352917, 44.562532, 26.0], [27.352889, 44.5624, 25.75], [27.351513, 44.562533, 26.25], [27.351583, 44.562398, 26.25], [27.351611, 44.562401, 26.5]]}}]}