{"type": "FeatureCollection", "features": [{"type": "Feature", "properties": {"creator": "BRouter-1.7.10", "name": "brouter_trekking_0", "track-length": "638", "filtered ascend": "4", "plain-ascend": "4", "total-time": "126", "total-energy": "12584", "cost": "985", "messages": [["Longitude", "Latitude", "Elevation", "Distance", "CostPerKm", "ElevCost", "TurnCost", "NodeCost", "InitialCost", "WayTags", "NodeTags", "Time", "Energy"], ["27358225", "44569653", "19", "2", "5050", "0", "0", "0", "0", "highway=footway", "highway=crossing", "0", "33"], ["27358819", "44569262", "20", "64", "1150", "0", "13", "0", "0", "highway=residential surface=asphalt access=yes foot=yes bicycle=yes cycleway=no oneway=no", "", "13", "1354"], ["27361321", "44569878", "20", "210", "1050", "0", "47", "0", "0", "highway=tertiary surface=asphalt access=yes foot=yes bicycle=yes cycleway=no oneway=no", "highway=crossing", "57", "5778"], ["27361407", "44569898", "20", "7", "1050", "0", "0", "0", "0", "highway=tertiary surface=asphalt access=yes foot=yes bicycle=yes cycleway=no oneway=no", "", "58", "5882"], ["27363406", "44569751", "22", "160", "1150", "0", "28", "0", "0", "highway=residential surface=asphalt", "", "91", "9192"], ["27363370", "44568936", "21", "90", "1150", "0", "87", "0", "0", "highway=residential surface=asphalt oneway=yes", "", "106", "10649"], ["27363338", "44568406", "21", "59", "1150", "0", "0", "0", "0", "highway=residential surface=asphalt", "", "115", "11592"], ["27363917", "44568393", "23", "46", "1150", "0", "91", "0", "0", "highway=residential surface=asphalt oneway=no", "", "125", "12584"]], "times": [0, 0.336, 13.541, 45.98, 57.772, 58.807, 61.514, 74.336, 91.906, 101.704, 106.469, 115.907, 125.823]}, "geometry": {"type": "LineString", "coordinates": [[27.358216, 44.569674, 19.0], [27.358225, 44.569653, 19.0], [27.358819, 44.569262, 20.0], [27.36029, 44.569632, 22.25], [27.361321, 44.569878, 20.25], [27.361407, 44.569898, 20.25], [27.361592, 44.569838, 20.75], [27.362287, 44.569797, 22.25], [27.363406, 44.569751, 22.25], [27.363386, 44.569236, 22.0], [27.36337, 44.568936, 21.25], [27.363338, 44.568406, 21.5], [27.363917, 44.568393, 23.25]]}}]}