{"type": "FeatureCollection", "features": [{"type": "Feature", "properties": {"creator": "BRouter-1.7.10", "name": "brouter_trekking_0", "track-length": "1195", "filtered ascend": "6", "plain-ascend": "1", "total-time": "212", "total-energy": "21164", "cost": "2470", "messages": [["Longitude", "Latitude", "Elevation", "Distance", "CostPerKm", "ElevCost", "TurnCost", "NodeCost", "InitialCost", "WayTags", "NodeTags", "Time", "Energy"], ["27363916", "44562005", "26", "75", "5050", "0", "90", "0", "0", "highway=footway", "", "16", "1625"], ["27364129", "44562004", "27", "17", "5050", "0", "0", "0", "0", "reversedirection=yes highway=footway", "highway=crossing", "19", "1919"], ["27364130", "44562122", "28", "13", "1150", "0", "90", "0", "0", "reversedirection=yes highway=residential surface=asphalt", "estimated_crossing_class=5", "21", "2174"], ["27364128", "44562198", "28", "8", "1450", "0", "0", "0", "0", "highway=tertiary surface=asphalt oneway=no", "highway=crossing", "23", "2340"], ["27363897", "44563794", "23", "177", "1450", "0", "0", "0", "0", "highway=tertiary surface=asphalt oneway=no", "highway=crossing", "52", "5236"], ["27363887", "44563848", "24", "6", "1450", "0", "0", "0", "0", "highway=tertiary surface=asphalt oneway=no", "", "53", "5329"], ["27363606", "44564121", "23", "40", "1450", "0", "9", "0", "0", "highway=tertiary surface=asphalt oneway=yes", "highway=crossing", "59", "5951"], ["27361167", "44564483", "28", "200", "1450", "0", "0", "0", "0", "highway=tertiary surface=asphalt oneway=yes", "highway=crossing", "96", "9668"], ["27359766", "44564773", "25", "116", "1450", "0", "3", "0", "0", "highway=tertiary surface=asphalt oneway=yes", "highway=crossing", "119", "11969"], ["27358283", "44564763", "30", "118", "1450", "0", "0", "0", "0", "highway=tertiary surface=asphalt oneway=yes", "highway=crossing", "146", "14642"], ["27357360", "44564756", "25", "73", "1450", "0", "0", "0", "0", "highway=tertiary surface=asphalt oneway=yes", "highway=crossing", "156", "15689"], ["27355483", "44564736", "25", "149", "1450", "0", "0", "0", "0", "highway=tertiary surface=asphalt oneway=yes", "highway=crossing crossing=uncontrolled", "178", "17862"], ["27353786", "44564718", "24", "135", "1450", "0", "0", "0", "0", "highway=tertiary surface=asphalt oneway=yes", "highway=crossing crossing=uncontrolled", "202", "20230"], ["27353782", "44564631", "24", "10", "5050", "0", "86", "0", "0", "highway=footway", "highway=crossing crossing=uncontrolled", "203", "20360"], ["27354506", "44564636", "24", "58", "1450", "0", "94", "0", "0", "highway=tertiary surface=asphalt oneway=yes", "", "211", "21164"]], "times": [0, 1.848, 4.368, 10.16, 16.256, 19.196, 21.746, 23.4, 29.426, 37.196, 42.116, 44.73, 48.327, 52.351, 53.291, 54.549, 55.814, 57.403, 59.51, 62.25, 64.083, 68.309, 70.921, 77.528, 81.045, 96.67, 101.694, 105.478, 115.628, 117.179, 118.427, 119.683, 129.496, 146.404, 155.102, 156.861, 178.575, 179.999, 197.804, 202.252, 203.55, 211.597]}, "geometry": {"type": "LineString", "coordinates": [[27.363097, 44.561909, 24.0], [27.3631, 44.562007, 24.0], [27.363294, 44.562004, 24.0], [27.363639, 44.562005, 25.0], [27.363916, 44.562005, 26.25], [27.364129, 44.562004, 27.75], [27.36413, 44.562122, 28.25], [27.364128, 44.562198, 28.5], [27.364118, 44.5624, 26.75], [27.364082, 44.562787, 25.5], [27.36404, 44.563082, 24.75], [27.363999, 44.563291, 23.25], [27.363953, 44.563541, 23.5], [27.363897, 44.563794, 23.75], [27.363887, 44.563848, 24.0], [27.363864, 44.563915, 24.0], [27.363827, 44.563979, 24.0], [27.36375, 44.564052, 24.0], [27.363606, 44.564121, 23.75], [27.363381, 44.564211, 23.25], [27.36323, 44.56426, 23.25], [27.362917, 44.564341, 23.75], [27.36274, 44.564377, 24.0], [27.362372, 44.56442, 25.0], [27.36221, 44.564431, 26.0], [27.361167, 44.564483, 28.0], [27.360981, 44.564502, 27.5], [27.360822, 44.564529, 27.25], [27.360095, 44.56474, 25.25], [27.359974, 44.564762, 25.0], [27.359869, 44.564774, 25.0], [27.359766, 44.564773, 25.0], [27.359215, 44.564768, 26.5], [27.358283, 44.564763, 30.25], [27.357526, 44.564758, 25.75], [27.35736, 44.564756, 25.25], [27.355483, 44.564736, 25.0], [27.355373, 44.564735, 25.0], [27.354216, 44.564722, 26.0], [27.353786, 44.564718, 24.5], [27.353782, 44.564631, 24.25], [27.354506, 44.564636, 24.5]]}}]}