{"type": "FeatureCollection", "features": [{"type": "Feature", "properties": {"creator": "BRouter-1.7.10", "name": "brouter_trekking_0", "track-length": "418", "filtered ascend": "2", "plain-ascend": "1", "total-time": "79", "total-energy": "7870", "cost": "1435", "messages": [["Longitude", "Latitude", "Elevation", "Distance", "CostPerKm", "ElevCost", "TurnCost", "NodeCost", "InitialCost", "WayTags", "NodeTags", "Time", "Energy"], ["27363294", "44562004", "24", "26", "5050", "0", "90", "0", "0", "highway=footway", "", "4", "436"], ["27363291", "44562116", "24", "12", "1150", "0", "93", "0", "0", "highway=residential", "estimated_crossing_class=5", "6", "638"], ["27361151", "44562144", "25", "171", "3050", "0", "87", "0", "0", "reversedirection=yes highway=primary surface=asphalt smoothness=excellent oneway=no", "highway=crossing estimated_crossing_class=0 crossing=zebra", "41", "4151"], ["27360890", "44562148", "26", "21", "3050", "0", "0", "0", "0", "reversedirection=yes highway=primary surface=asphalt smoothness=excellent oneway=no", "estimated_crossing_class=5", "46", "4608"], ["27360893", "44562252", "25", "12", "1450", "0", "90", "0", "0", "reversedirection=yes highway=tertiary surface=asphalt", "highway=crossing crossing=zebra", "48", "4813"], ["27360931", "44563248", "26", "110", "1450", "0", "0", "0", "0", "reversedirection=yes highway=tertiary surface=asphalt", "", "68", "6805"], ["27360110", "44563263", "24", "66", "1150", "0", "91", "0", "0", "highway=residential surface=asphalt oneway=no", "", "78", "7870"]], "times": [0, 1.848, 4.368, 6.384, 36.388, 41.514, 46.076, 48.133, 49.843, 54.023, 55.318, 64.587, 68.046, 78.546, 78.699]}, "geometry": {"type": "LineString", "coordinates": [[27.363097, 44.561909, 24.0], [27.3631, 44.562007, 24.0], [27.363294, 44.562004, 24.0], [27.363291, 44.562116, 24.0], [27.361497, 44.562135, 25.5], [27.361151, 44.562144, 25.5], [27.36089, 44.562148, 26.25], [27.360893, 44.562252, 25.5], [27.360899, 44.562345, 25.5], [27.360907, 44.56258, 25.25], [27.360912, 44.562653, 25.25], [27.360924, 44.563112, 25.75], [27.360931, 44.563248, 26.75], [27.360115, 44.563264, 25.5], [27.36011, 44.563263, 24.75]]}}]}