{"type": "FeatureCollection", "features": [{"type": "Feature", "properties": {"creator": "BRouter-1.7.10", "name": "brouter_trekking_0", "track-length": "3807", "filtered ascend": "13", "plain-ascend": "5", "total-time": "678", "total-energy": "67774", "cost": "7149", "messages": [["Longitude", "Latitude", "Elevation", "Distance", "CostPerKm", "ElevCost", "TurnCost", "NodeCost", "InitialCost", "WayTags", "NodeTags", "Time", "Energy"], ["27358225", "44569653", "19", "2", "5050", "0", "0", "0", "0", "highway=footway", "highway=crossing", "0", "33"], ["27358819", "44569262", "20", "64", "1150", "0", "13", "0", "0", "highway=residential surface=asphalt access=yes foot=yes bicycle=yes cycleway=no oneway=no", "", "13", "1354"], ["27361321", "44569878", "20", "210", "1050", "0", "47", "0", "0", "highway=tertiary surface=asphalt access=yes foot=yes bicycle=yes cycleway=no oneway=no", "highway=crossing", "57", "5778"], ["27371271", "44572196", "21", "831", "1050", "0", "3", "0", "0", "highway=tertiary surface=asphalt access=yes foot=yes bicycle=yes cycleway=no oneway=no", "", "204", "20501"], ["27371917", "44570971", "22", "146", "1450", "0", "33", "0", "0", "highway=tertiary surface=asphalt", "highway=crossing crossing=uncontrolled", "233", "23374"], ["27373376", "44568913", "22", "257", "1450", "0", "0", "0", "0", "highway=tertiary surface=asphalt", "", "276", "27646"], ["27374726", "44567222", "21", "216", "1150", "0", "0", "0", "0", "highway=residential surface=asphalt", "highway=crossing crossing=uncontrolled", "309", "30980"], ["27376877", "44564860", "23", "315", "1150", "0", "0", "0", "0", "highway=residential surface=asphalt", "", "370", "37011"], ["27379777", "44566570", "23", "299", "1150", "0", "77", "0", "0", "highway=residential", "", "421", "42176"], ["27380694", "44565970", "26", "99", "1150", "0", "77", "0", "0", "reversedirection=yes highway=residential", "highway=crossing crossing=uncontrolled", "447", "44805"], ["27380771", "44565919", "26", "8", "1150", "0", "0", "0", "0", "reversedirection=yes highway=residential", "", "450", "45047"], ["27380874", "44565830", "26", "13", "1150", "0", "0", "0", "0", "highway=residential surface=asphalt oneway=yes", "highway=crossing crossing=uncontrolled", "454", "45442"], ["27381765", "44565117", "24", "106", "1150", "0", "0", "0", "0", "highway=residential surface=asphalt oneway=yes", "highway=crossing crossing=uncontrolled", "470", "47027"], ["27381898", "44565011", "24", "16", "1150", "0", "0", "0", "0", "highway=residential surface=asphalt oneway=yes", "estimated_crossing_class=4", "472", "47280"], ["27381778", "44564920", "23", "14", "3050", "0", "82", "0", "0", "reversedirection=yes highway=primary surface=asphalt smoothness=excellent oneway=no", "estimated_crossing_class=4", "474", "47490"], ["27381811", "44564816", "23", "12", "1350", "0", "40", "0", "0", "highway=unclassified surface=asphalt", "highway=crossing", "476", "47662"], ["27381764", "44563818", "19", "111", "1350", "0", "3", "0", "0", "highway=unclassified surface=asphalt", "", "491", "49132"], ["27381691", "44563779", "19", "7", "10050", "0", "33", "0", "0", "highway=trunk surface=asphalt smoothness=good oneway=no", "highway=crossing crossing=zebra", "492", "49229"], ["27381734", "44563726", "19", "7", "5050", "0", "79", "0", "0", "reversedirection=yes highway=footway", "", "493", "49334"], ["27382047", "44563910", "20", "32", "5050", "0", "104", "0", "0", "highway=footway", "", "496", "49660"], ["27382235", "44564010", "21", "19", "40000", "0", "0", "0", "0", "highway=steps foot=yes", "", "499", "49916"], ["27383036", "44563116", "21", "118", "1050", "0", "96", "0", "0", "highway=footway surface=asphalt foot=yes bicycle=yes", "", "517", "51741"], ["27383694", "44562356", "25", "99", "5050", "0", "2", "0", "0", "highway=footway", "estimated_crossing_class=4", "544", "54488"], ["27383485", "44562119", "26", "31", "3050", "0", "48", "0", "0", "highway=primary surface=asphalt smoothness=good oneway=no", "estimated_crossing_class=4", "550", "55017"], ["27383799", "44562085", "27", "25", "1650", "0", "126", "0", "0", "reversedirection=yes highway=secondary surface=asphalt smoothness=excellent oneway=no", "estimated_crossing_class=3", "555", "55529"], ["27384561", "44562004", "27", "61", "1650", "0", "0", "0", "0", "reversedirection=yes highway=secondary surface=asphalt smoothness=excellent oneway=no", "estimated_crossing_class=3", "568", "56824"], ["27385474", "44561910", "24", "73", "1650", "0", "0", "0", "0", "reversedirection=yes highway=secondary surface=asphalt smoothness=excellent oneway=no", "estimated_crossing_class=3", "580", "58018"], ["27386085", "44561804", "25", "50", "1650", "0", "0", "0", "0", "reversedirection=yes highway=secondary surface=asphalt smoothness=excellent oneway=no", "estimated_crossing_class=3", "591", "59107"], ["27387577", "44561443", "24", "126", "1650", "0", "0", "0", "0", "reversedirection=yes highway=secondary surface=asphalt smoothness=excellent oneway=no", "estimated_crossing_class=3", "612", "61224"], ["27388129", "44561087", "23", "59", "1650", "0", "5", "0", "0", "reversedirection=yes highway=secondary surface=asphalt smoothness=excellent oneway=no", "estimated_crossing_class=3", "620", "62079"], ["27389797", "44560007", "22", "179", "1650", "0", "0", "0", "0", "reversedirection=yes highway=secondary surface=asphalt smoothness=excellent oneway=no", "estimated_crossing_class=3", "644", "64419"], ["27389939", "44559910", "22", "16", "1650", "0", "0", "0", "0", "reversedirection=yes highway=secondary surface=asphalt smoothness=excellent oneway=no", "estimated_crossing_class=3", "646", "64665"], ["27391336", "44559042", "22", "147", "1650", "0", "0", "0", "0", "reversedirection=yes highway=secondary surface=asphalt smoothness=excellent oneway=no", "estimated_crossing_class=3", "669", "66988"], ["27391640", "44558901", "22", "29", "1650", "0", "1", "0", "0", "reversedirection=yes highway=secondary surface=asphalt smoothness=excellent oneway=no", "estimated_crossing_class=3", "675", "67576"], ["27391617", "44558814", "23", "10", "1350", "0", "58", "0", "0", "highway=service", "", "677", "67774"]], "times": [0, 0.336, 13.541, 45.98, 57.772, 58.807, 76.026, 86.552, 119.052, 123.464, 144.502, 158.393, 187.138, 203.465, 204.983, 206.487, 207.606, 229.549, 232.153, 233.71, 243.32, 246.85, 250.462, 268.054, 276.423, 288.806, 307.251, 309.769, 316.987, 323.872, 350.446, 355.092, 357.741, 370.069, 388.278, 392.905, 404.406, 421.721, 430.333, 438.895, 447.998, 450.414, 454.363, 470.217, 472.745, 474.845, 476.566, 491.264, 492.237, 493.282, 496.543, 499.11, 517.354, 521.095, 525.237, 544.82, 550.11, 555.222, 568.175, 580.116, 591.007, 608.275, 612.173, 620.714, 644.113, 646.574, 662.684, 669.807, 671.179, 675.678, 677.663]}, "geometry": {"type": "LineString", "coordinates": [[27.358216, 44.569674, 19.0], [27.358225, 44.569653, 19.0], [27.358819, 44.569262, 20.0], [27.36029, 44.569632, 22.25], [27.361321, 44.569878, 20.25], [27.361407, 44.569898, 20.25], [27.36222, 44.570093, 22.75], [27.362848, 44.570243, 22.5], [27.364355, 44.570589, 24.75], [27.364765, 44.570686, 22.75], [27.366404, 44.57107, 20.0], [27.367757, 44.571394, 18.0], [27.369983, 44.571916, 21.0], [27.371165, 44.572192, 21.0], [27.371271, 44.572196, 21.5], [27.371347, 44.572144, 21.5], [27.371383, 44.572096, 21.5], [27.37182, 44.571172, 22.25], [27.37188, 44.571048, 22.0], [27.371917, 44.570971, 22.0], [27.372159, 44.570502, 22.0], [27.372272, 44.57032, 21.75], [27.37239, 44.570155, 22.0], [27.37308, 44.569271, 21.5], [27.373376, 44.568913, 22.0], [27.37393, 44.568193, 20.5], [27.374631, 44.567335, 21.0], [27.374726, 44.567222, 21.0], [27.374989, 44.566888, 21.0], [27.375246, 44.566564, 21.0], [27.37609, 44.565498, 22.0], [27.376265, 44.5653, 22.0], [27.376386, 44.565195, 22.0], [27.376877, 44.56486, 23.25], [27.377928, 44.565457, 22.5], [27.378204, 44.565634, 22.25], [27.378915, 44.56606, 22.0], [27.379777, 44.56657, 23.0], [27.380149, 44.566327, 23.75], [27.380425, 44.566146, 25.25], [27.380694, 44.56597, 26.25], [27.380771, 44.565919, 26.5], [27.380874, 44.56583, 26.75], [27.381765, 44.565117, 24.0], [27.381898, 44.565011, 24.0], [27.381778, 44.56492, 23.75], [27.381811, 44.564816, 23.5], [27.381764, 44.563818, 19.5], [27.381691, 44.563779, 19.25], [27.381734, 44.563726, 19.5], [27.382047, 44.56391, 20.25], [27.382235, 44.56401, 21.25], [27.383036, 44.563116, 21.5], [27.383153, 44.562976, 22.5], [27.383291, 44.562858, 23.25], [27.383694, 44.562356, 25.0], [27.383485, 44.562119, 26.5], [27.383799, 44.562085, 27.25], [27.384561, 44.562004, 27.75], [27.385474, 44.56191, 24.0], [27.386085, 44.561804, 25.25], [27.387268, 44.561535, 24.75], [27.387577, 44.561443, 24.0], [27.388129, 44.561087, 23.75], [27.389797, 44.560007, 22.0], [27.389939, 44.55991, 22.0], [27.390964, 44.559257, 21.5], [27.391336, 44.559042, 22.25], [27.391405, 44.559002, 22.5], [27.39164, 44.558901, 22.75], [27.391617, 44.558814, 23.75]]}}]}