{"type": "FeatureCollection", "features": [{"type": "Feature", "properties": {"creator": "BRouter-1.7.10", "name": "brouter_trekking_0", "track-length": "3201", "filtered ascend": "6", "plain-ascend": "0", "total-time": "553", "total-energy": "55264", "cost": "6912", "messages": [["Longitude", "Latitude", "Elevation", "Distance", "CostPerKm", "ElevCost", "TurnCost", "NodeCost", "InitialCost", "WayTags", "NodeTags", "Time", "Energy"], ["27364209", "44564006", "23", "5", "1050", "0", "0", "0", "0", "highway=tertiary surface=asphalt foot=yes bicycle=yes oneway=yes", "highway=crossing", "0", "89"], ["27364172", "44564007", "23", "3", "1050", "0", "0", "0", "0", "highway=tertiary surface=asphalt foot=yes bicycle=yes oneway=yes", "", "1", "143"], ["27363986", "44563903", "24", "19", "1450", "0", "21", "0", "0", "highway=tertiary surface=asphalt oneway=yes", "highway=crossing", "5", "503"], ["27363887", "44563848", "24", "10", "1450", "0", "0", "0", "0", "highway=tertiary surface=asphalt oneway=yes", "", "6", "690"], ["27363897", "44563794", "23", "6", "1450", "0", "44", "0", "0", "reversedirection=yes highway=tertiary surface=asphalt oneway=no", "highway=crossing", "7", "793"], ["27364040", "44563082", "24", "79", "1450", "0", "0", "0", "0", "reversedirection=yes highway=tertiary surface=asphalt oneway=no", "", "22", "2206"], ["27366509", "44563194", "23", "197", "1150", "0", "86", "0", "0", "highway=residential surface=asphalt oneway=yes", "highway=crossing crossing=uncontrolled", "52", "5288"], ["27368156", "44563199", "25", "130", "1150", "0", "0", "0", "0", "highway=residential surface=asphalt oneway=yes", "highway=crossing crossing=uncontrolled", "81", "8169"], ["27368764", "44563418", "24", "55", "1150", "0", "13", "0", "0", "highway=residential surface=asphalt oneway=yes", "", "91", "9102"], ["27369512", "44562865", "23", "85", "1150", "0", "68", "0", "0", "highway=residential surface=asphalt", "", "103", "10322"], ["27371338", "44564290", "20", "217", "1150", "0", "112", "0", "0", "reversedirection=yes highway=residential", "", "132", "13227"], ["27370870", "44564832", "20", "70", "1450", "0", "64", "0", "0", "reversedirection=yes highway=tertiary surface=asphalt", "", "142", "14210"], ["27375054", "44563480", "21", "421", "1150", "0", "143", "0", "0", "highway=residential surface=asphalt", "", "216", "21607"], ["27375466", "44563516", "22", "33", "1150", "0", "35", "0", "0", "reversedirection=yes highway=residential surface=asphalt", "", "221", "22193"], ["27376136", "44563593", "24", "54", "1150", "0", "0", "0", "0", "highway=residential surface=asphalt", "highway=crossing crossing=uncontrolled", "236", "23639"], ["27376475", "44563634", "24", "27", "1150", "0", "0", "0", "0", "highway=residential surface=asphalt", "highway=crossing crossing=uncontrolled", "242", "24257"], ["27377406", "44563916", "23", "82", "1150", "0", "1", "0", "0", "highway=residential surface=asphalt", "highway=crossing crossing=uncontrolled", "258", "25875"], ["27380657", "44565849", "26", "336", "1150", "0", "0", "0", "0", "highway=residential surface=asphalt", "highway=crossing crossing=uncontrolled", "327", "32788"], ["27380771", "44565919", "26", "12", "1150", "0", "0", "0", "0", "highway=residential surface=asphalt", "", "330", "33036"], ["27380874", "44565830", "26", "13", "1150", "0", "91", "0", "0", "highway=residential surface=asphalt oneway=yes", "highway=crossing crossing=uncontrolled", "333", "33317"], ["27381765", "44565117", "24", "106", "1150", "0", "0", "0", "0", "highway=residential surface=asphalt oneway=yes", "highway=crossing crossing=uncontrolled", "346", "34652"], ["27381898", "44565011", "24", "16", "1150", "0", "0", "0", "0", "highway=residential surface=asphalt oneway=yes", "estimated_crossing_class=4", "348", "34882"], ["27381778", "44564920", "23", "14", "3050", "0", "82", "0", "0", "reversedirection=yes highway=primary surface=asphalt smoothness=excellent oneway=no", "estimated_crossing_class=4", "350", "35076"], ["27381811", "44564816", "23", "12", "1350", "0", "40", "0", "0", "highway=unclassified surface=asphalt", "highway=crossing", "352", "35237"], ["27381764", "44563818", "19", "111", "1350", "0", "3", "0", "0", "highway=unclassified surface=asphalt", "", "366", "36654"], ["27381691", "44563779", "19", "7", "10050", "0", "33", "0", "0", "highway=trunk surface=asphalt smoothness=good oneway=no", "highway=crossing crossing=zebra", "367", "36749"], ["27381734", "44563726", "19", "7", "5050", "0", "79", "0", "0", "reversedirection=yes highway=footway", "", "368", "36852"], ["27382047", "44563910", "20", "32", "5050", "0", "104", "0", "0", "highway=footway", "", "371", "37175"], ["27382235", "44564010", "21", "19", "40000", "0", "0", "0", "0", "highway=steps foot=yes", "", "374", "37428"], ["27383036", "44563116", "21", "118", "1050", "0", "96", "0", "0", "highway=footway surface=asphalt foot=yes bicycle=yes", "", "392", "39240"], ["27383694", "44562356", "25", "99", "5050", "0", "2", "0", "0", "highway=footway", "estimated_crossing_class=4", "419", "41981"], ["27383485", "44562119", "26", "31", "3050", "0", "48", "0", "0", "highway=primary surface=asphalt smoothness=good oneway=no", "estimated_crossing_class=4", "425", "42509"], ["27383799", "44562085", "27", "25", "1650", "0", "126", "0", "0", "reversedirection=yes highway=secondary surface=asphalt smoothness=excellent oneway=no", "estimated_crossing_class=3", "430", "43020"], ["27384561", "44562004", "27", "61", "1650", "0", "0", "0", "0", "reversedirection=yes highway=secondary surface=asphalt smoothness=excellent oneway=no", "estimated_crossing_class=3", "443", "44315"], ["27385474", "44561910", "24", "73", "1650", "0", "0", "0", "0", "reversedirection=yes highway=secondary surface=asphalt smoothness=excellent oneway=no", "estimated_crossing_class=3", "455", "45509"], ["27386085", "44561804", "25", "50", "1650", "0", "0", "0", "0", "reversedirection=yes highway=secondary surface=asphalt smoothness=excellent oneway=no", "estimated_crossing_class=3", "465", "46598"], ["27387577", "44561443", "24", "126", "1650", "0", "0", "0", "0", "reversedirection=yes highway=secondary surface=asphalt smoothness=excellent oneway=no", "estimated_crossing_class=3", "487", "48714"], ["27388129", "44561087", "23", "59", "1650", "0", "5", "0", "0", "reversedirection=yes highway=secondary surface=asphalt smoothness=excellent oneway=no", "estimated_crossing_class=3", "495", "49569"], ["27389797", "44560007", "22", "179", "1650", "0", "0", "0", "0", "reversedirection=yes highway=secondary surface=asphalt smoothness=excellent oneway=no", "estimated_crossing_class=3", "519", "51909"], ["27389939", "44559910", "22", "16", "1650", "0", "0", "0", "0", "reversedirection=yes highway=secondary surface=asphalt smoothness=excellent oneway=no", "estimated_crossing_class=3", "521", "52155"], ["27391336", "44559042", "22", "147", "1650", "0", "0", "0", "0", "reversedirection=yes highway=secondary surface=asphalt smoothness=excellent oneway=no", "estimated_crossing_class=3", "544", "54479"], ["27391640", "44558901", "22", "29", "1650", "0", "1", "0", "0", "reversedirection=yes highway=secondary surface=asphalt smoothness=excellent oneway=no", "estimated_crossing_class=3", "550", "55066"], ["27391617", "44558814", "23", "10", "1350", "0", "58", "0", "0", "highway=service", "", "552", "55264"]], "times": [0, 0.898, 1.435, 5.037, 6.901, 7.939, 12.485, 16.814, 22.063, 24.701, 35.617, 46.358, 52.876, 54.764, 66.733, 81.686, 83.705, 91.015, 95.848, 103.211, 116.658, 120.059, 122.095, 123.357, 132.251, 133.261, 142.077, 156.94, 165.776, 178.325, 186.27, 202.287, 209.915, 216.042, 221.9, 236.355, 242.539, 246.828, 250.121, 252.327, 258.708, 269.754, 274.849, 288.315, 327.828, 330.312, 333.116, 346.472, 348.768, 350.706, 352.314, 366.487, 367.44, 368.464, 371.69, 374.227, 392.344, 396.071, 400.201, 419.747, 425.03, 430.138, 443.082, 455.02, 465.909, 483.175, 487.072, 495.614, 519.013, 521.474, 537.584, 544.706, 546.078, 550.577, 552.562]}, "geometry": {"type": "LineString", "coordinates": [[27.364273, 44.564006, 23.5], [27.364209, 44.564006, 23.75], [27.364172, 44.564007, 23.75], [27.363986, 44.563903, 24.0], [27.363887, 44.563848, 24.0], [27.363897, 44.563794, 23.75], [27.363953, 44.563541, 23.5], [27.363999, 44.563291, 23.25], [27.36404, 44.563082, 24.75], [27.3642, 44.563093, 24.5], [27.36519, 44.563182, 22.75], [27.365992, 44.563194, 23.25], [27.366509, 44.563194, 23.0], [27.366652, 44.563194, 23.25], [27.367411, 44.563191, 24.0], [27.368156, 44.563199, 25.5], [27.368275, 44.5632, 25.5], [27.368764, 44.563418, 24.25], [27.36908, 44.563198, 23.5], [27.369512, 44.562865, 23.5], [27.370253, 44.563517, 23.0], [27.370431, 44.563665, 23.0], [27.370575, 44.563714, 23.0], [27.370652, 44.563754, 23.0], [27.371338, 44.56429, 20.5], [27.371283, 44.564355, 20.5], [27.37087, 44.564832, 20.75], [27.371624, 44.565304, 21.75], [27.372063, 44.565092, 22.5], [27.372722, 44.564791, 22.75], [27.373248, 44.564546, 22.0], [27.374256, 44.564044, 22.0], [27.374674, 44.563757, 22.0], [27.375054, 44.56348, 21.25], [27.375466, 44.563516, 22.0], [27.376136, 44.563593, 24.0], [27.376475, 44.563634, 24.0], [27.376719, 44.563674, 24.0], [27.376907, 44.563713, 24.0], [27.377033, 44.563749, 24.0], [27.377406, 44.563916, 23.75], [27.378092, 44.564292, 23.25], [27.378415, 44.564484, 23.0], [27.379119, 44.564902, 23.75], [27.380657, 44.565849, 26.25], [27.380771, 44.565919, 26.5], [27.380874, 44.56583, 26.75], [27.381765, 44.565117, 24.0], [27.381898, 44.565011, 24.0], [27.381778, 44.56492, 23.75], [27.381811, 44.564816, 23.5], [27.381764, 44.563818, 19.5], [27.381691, 44.563779, 19.25], [27.381734, 44.563726, 19.5], [27.382047, 44.56391, 20.25], [27.382235, 44.56401, 21.25], [27.383036, 44.563116, 21.5], [27.383153, 44.562976, 22.5], [27.383291, 44.562858, 23.25], [27.383694, 44.562356, 25.0], [27.383485, 44.562119, 26.5], [27.383799, 44.562085, 27.25], [27.384561, 44.562004, 27.75], [27.385474, 44.56191, 24.0], [27.386085, 44.561804, 25.25], [27.387268, 44.561535, 24.75], [27.387577, 44.561443, 24.0], [27.388129, 44.561087, 23.75], [27.389797, 44.560007, 22.0], [27.389939, 44.55991, 22.0], [27.390964, 44.559257, 21.5], [27.391336, 44.559042, 22.25], [27.391405, 44.559002, 22.5], [27.39164, 44.558901, 22.75], [27.391617, 44.558814, 23.75]]}}]}