{"type": "FeatureCollection", "features": [{"type": "Feature", "properties": {"creator": "BRouter-1.7.10", "name": "brouter_trekking_0", "track-length": "1506", "filtered ascend": "4", "plain-ascend": "-1", "total-time": "265", "total-energy": "26546", "cost": "2346", "messages": [["Longitude", "Latitude", "Elevation", "Distance", "CostPerKm", "ElevCost", "TurnCost", "NodeCost", "InitialCost", "WayTags", "NodeTags", "Time", "Energy"], ["27355068", "44557811", "26", "112", "1150", "0", "0", "0", "0", "reversedirection=yes highway=residential", "", "20", "2043"], ["27359097", "44560339", "25", "565", "1150", "0", "256", "0", "0", "reversedirection=yes highway=residential surface=asphalt", "highway=crossing crossing=uncontrolled", "128", "12897"], ["27359132", "44561114", "25", "87", "1150", "0", "0", "0", "0", "reversedirection=yes highway=residential surface=asphalt", "", "142", "14232"], ["27360845", "44561073", "26", "136", "1150", "0", "90", "0", "0", "reversedirection=yes highway=residential surface=asphalt oneway=no", "", "169", "16997"], ["27360917", "44560179", "24", "100", "1450", "0", "88", "0", "0", "highway=tertiary surface=asphalt", "highway=crossing crossing=uncontrolled", "183", "18343"], ["27361945", "44558363", "25", "219", "1450", "0", "0", "0", "0", "highway=tertiary surface=asphalt", "", "221", "22180"], ["27362097", "44558403", "24", "13", "1150", "0", "83", "0", "0", "highway=residential surface=asphalt", "highway=crossing", "223", "22373"], ["27362884", "44558594", "21", "66", "1150", "0", "0", "0", "0", "highway=residential surface=asphalt", "highway=crossing", "232", "23301"], ["27364352", "44558955", "21", "123", "1150", "0", "0", "0", "0", "highway=residential surface=asphalt", "highway=crossing", "251", "25168"], ["27365368", "44559196", "21", "85", "1150", "0", "0", "0", "0", "highway=residential surface=asphalt", "", "265", "26546"]], "times": [0, 20.433, 39.078, 43.774, 74.207, 76.019, 77.504, 79.718, 92.053, 128.959, 136.147, 142.315, 151.041, 154.668, 169.957, 174.259, 176.404, 183.416, 185.448, 188.246, 189.759, 197.425, 207.645, 221.778, 223.709, 227.271, 232.985, 234.696, 245.665, 251.654, 253.252, 265.435]}, "geometry": {"type": "LineString", "coordinates": [[27.35554, 44.556862, 22.5], [27.355068, 44.557811, 26.0], [27.356461, 44.558143, 22.5], [27.356804, 44.558137, 22.75], [27.358822, 44.558065, 23.5], [27.358832, 44.558164, 23.25], [27.358897, 44.558234, 23.25], [27.359017, 44.558277, 24.0], [27.359029, 44.5588, 24.5], [27.359097, 44.560339, 25.75], [27.359117, 44.560776, 24.75], [27.359132, 44.561114, 25.0], [27.359698, 44.561102, 25.75], [27.3599, 44.561097, 26.5], [27.360845, 44.561073, 26.5], [27.36084, 44.560756, 24.5], [27.36085, 44.560598, 24.0], [27.360917, 44.560179, 24.75], [27.360954, 44.560056, 24.5], [27.361022, 44.559877, 24.0], [27.361067, 44.55978, 24.0], [27.361332, 44.559345, 24.0], [27.361587, 44.558927, 25.25], [27.361945, 44.558363, 25.75], [27.362097, 44.558403, 24.75], [27.362458, 44.558495, 23.5], [27.362884, 44.558594, 21.5], [27.36303, 44.558622, 21.0], [27.363894, 44.558843, 21.0], [27.364352, 44.558955, 21.0], [27.364477, 44.558983, 21.0], [27.365368, 44.559196, 21.0]]}}]}