{"type": "FeatureCollection", "features": [{"type": "Feature", "properties": {"creator": "BRouter-1.7.10", "name": "brouter_trekking_0", "track-length": "963", "filtered ascend": "2", "plain-ascend": "-3", "total-time": "162", "total-energy": "16240", "cost": "1680", "messages": [["Longitude", "Latitude", "Elevation", "Distance", "CostPerKm", "ElevCost", "TurnCost", "NodeCost", "InitialCost", "WayTags", "NodeTags", "Time", "Energy"], ["27360931", "44563248", "26", "66", "1150", "0", "0", "0", "0", "reversedirection=yes highway=residential surface=asphalt oneway=no", "", "15", "1503"], ["27360974", "44564329", "27", "120", "1450", "0", "90", "0", "0", "reversedirection=yes highway=tertiary surface=asphalt", "highway=crossing", "40", "4089"], ["27360995", "44564727", "27", "45", "1450", "0", "0", "0", "0", "reversedirection=yes highway=tertiary surface=asphalt", "highway=crossing", "49", "4956"], ["27361090", "44565020", "26", "34", "1450", "0", "8", "0", "0", "highway=tertiary surface=asphalt oneway=yes", "highway=crossing", "55", "5518"], ["27361092", "44566062", "23", "116", "1450", "0", "0", "0", "0", "highway=tertiary surface=asphalt oneway=yes", "highway=crossing", "73", "7325"], ["27361092", "44566127", "23", "7", "1450", "0", "0", "0", "0", "highway=tertiary surface=asphalt oneway=yes", "", "74", "7438"], ["27361213", "44566162", "24", "10", "1150", "0", "56", "0", "0", "reversedirection=yes highway=residential surface=asphalt oneway=no", "highway=crossing", "75", "7533"], ["27362046", "44566412", "22", "75", "1150", "0", "17", "0", "0", "reversedirection=yes highway=residential surface=asphalt oneway=no", "", "82", "8299"], ["27364341", "44566819", "23", "195", "1150", "0", "5", "0", "0", "highway=residential surface=asphalt", "highway=crossing crossing=uncontrolled", "111", "11143"], ["27364439", "44566868", "23", "10", "1150", "0", "0", "0", "0", "highway=residential surface=asphalt", "", "112", "11300"], ["27364259", "44567120", "24", "31", "1150", "0", "81", "0", "0", "reversedirection=yes highway=residential surface=asphalt", "", "118", "11897"], ["27364876", "44567790", "23", "113", "1150", "0", "130", "0", "0", "highway=residential surface=asphalt oneway=yes", "", "136", "13658"], ["27363917", "44568393", "21", "141", "1150", "0", "89", "0", "0", "reversedirection=yes highway=residential surface=asphalt oneway=no", "", "162", "16240"]], "times": [0, 0.18, 15.035, 40.892, 42.788, 44.662, 49.56, 52.06, 53.555, 55.174, 73.245, 74.376, 75.326, 79.501, 81.338, 82.986, 92.788, 94.103, 96.407, 102.362, 111.418, 112.995, 115.516, 118.964, 122.328, 123.478, 126.51, 126.989, 127.596, 136.569, 147.762, 149.284, 156.602, 161.217, 162.381]}, "geometry": {"type": "LineString", "coordinates": [[27.36011, 44.563263, 25.25], [27.360115, 44.563264, 25.5], [27.360931, 44.563248, 26.75], [27.360974, 44.564329, 27.5], [27.360975, 44.564415, 27.5], [27.360981, 44.564502, 27.5], [27.360995, 44.564727, 27.75], [27.361066, 44.564847, 27.5], [27.36109, 44.564925, 27.25], [27.36109, 44.56502, 26.75], [27.361092, 44.566062, 23.75], [27.361092, 44.566127, 23.75], [27.361213, 44.566162, 24.0], [27.36165, 44.566332, 24.0], [27.361837, 44.56642, 23.25], [27.362046, 44.566412, 22.5], [27.362874, 44.566382, 21.25], [27.362972, 44.566381, 21.5], [27.36323, 44.566419, 22.5], [27.363719, 44.566533, 23.5], [27.364341, 44.566819, 23.5], [27.364439, 44.566868, 23.5], [27.364352, 44.566978, 24.0], [27.364259, 44.56712, 24.5], [27.364436, 44.567193, 24.75], [27.364502, 44.56721, 24.5], [27.364822, 44.56721, 22.5], [27.364862, 44.56723, 22.25], [27.364874, 44.567274, 22.25], [27.364876, 44.56779, 23.25], [27.364882, 44.568291, 24.25], [27.364886, 44.568365, 24.25], [27.36445, 44.56838, 24.75], [27.36403, 44.568391, 23.25], [27.363917, 44.568393, 21.5]]}}]}