{"type": "FeatureCollection", "features": [{"type": "Feature", "properties": {"creator": "BRouter-1.7.10", "name": "brouter_trekking_0", "track-length": "2451", "filtered ascend": "5", "plain-ascend": "0", "total-time": "420", "total-energy": "42031", "cost": "4935", "messages": [["Longitude", "Latitude", "Elevation", "Distance", "CostPerKm", "ElevCost", "TurnCost", "NodeCost", "InitialCost", "WayTags", "NodeTags", "Time", "Energy"], ["27363916", "44562005", "26", "75", "5050", "0", "90", "0", "0", "highway=footway", "", "16", "1625"], ["27364129", "44562004", "27", "17", "5050", "0", "0", "0", "0", "reversedirection=yes highway=footway", "highway=crossing", "19", "1919"], ["27364130", "44562122", "28", "13", "1150", "0", "90", "0", "0", "reversedirection=yes highway=residential surface=asphalt", "estimated_crossing_class=5", "21", "2174"], ["27364128", "44562198", "28", "8", "1450", "0", "0", "0", "0", "highway=tertiary surface=asphalt oneway=no", "highway=crossing", "23", "2340"], ["27364040", "44563082", "24", "98", "1450", "0", "0", "0", "0", "highway=tertiary surface=asphalt oneway=no", "", "42", "4212"], ["27366509", "44563194", "23", "197", "1150", "0", "90", "0", "0", "highway=residential surface=asphalt oneway=yes", "highway=crossing crossing=uncontrolled", "68", "6893"], ["27368156", "44563199", "25", "130", "1150", "0", "0", "0", "0", "highway=residential surface=asphalt oneway=yes", "highway=crossing crossing=uncontrolled", "96", "9695"], ["27368764", "44563418", "24", "55", "1150", "0", "13", "0", "0", "highway=residential surface=asphalt oneway=yes", "", "106", "10618"], ["27369512", "44562865", "23", "85", "1150", "0", "68", "0", "0", "highway=residential surface=asphalt", "", "118", "11832"], ["27371338", "44564290", "20", "217", "1150", "0", "112", "0", "0", "reversedirection=yes highway=residential", "", "147", "14733"], ["27370870", "44564832", "20", "70", "1450", "0", "64", "0", "0", "reversedirection=yes highway=tertiary surface=asphalt", "", "157", "15716"], ["27375054", "44563480", "21", "421", "1150", "0", "143", "0", "0", "highway=residential surface=asphalt", "", "231", "23113"], ["27375466", "44563516", "22", "33", "1150", "0", "35", "0", "0", "reversedirection=yes highway=residential surface=asphalt", "", "236", "23699"], ["27376136", "44563593", "24", "54", "1150", "0", "0", "0", "0", "highway=residential surface=asphalt", "highway=crossing crossing=uncontrolled", "251", "25145"], ["27376475", "44563634", "24", "27", "1150", "0", "0", "0", "0", "highway=residential surface=asphalt", "highway=crossing crossing=uncontrolled", "257", "25763"], ["27377406", "44563916", "23", "82", "1150", "0", "1", "0", "0", "highway=residential surface=asphalt", "highway=crossing crossing=uncontrolled", "273", "27380"], ["27380657", "44565849", "26", "336", "1150", "0", "0", "0", "0", "highway=residential surface=asphalt", "highway=crossing crossing=uncontrolled", "342", "34293"], ["27380845", "44565974", "26", "20", "1150", "0", "0", "0", "0", "highway=residential surface=asphalt", "highway=crossing crossing=uncontrolled", "346", "34693"], ["27383442", "44568700", "20", "366", "1150", "0", "1", "0", "0", "highway=residential surface=asphalt", "highway=crossing", "395", "39564"], ["27383984", "44568419", "21", "53", "5050", "0", "99", "0", "0", "highway=footway", "", "402", "40294"], ["27384364", "44568213", "21", "48", "5050", "0", "169", "0", "0", "reversedirection=yes highway=footway", "", "410", "41029"], ["27384440", "44567831", "22", "46", "5050", "0", "157", "0", "0", "highway=footway", "", "420", "42031"]], "times": [0, 1.848, 4.368, 10.16, 16.256, 19.196, 21.746, 23.4, 29.426, 37.196, 42.116, 43.988, 53.123, 62.794, 68.931, 70.729, 82.275, 96.942, 98.933, 106.171, 110.976, 118.308, 131.728, 135.125, 137.159, 138.42, 147.31, 148.32, 157.135, 171.995, 180.831, 193.379, 201.324, 217.341, 224.969, 231.095, 236.954, 251.409, 257.592, 261.881, 265.175, 267.381, 273.761, 284.807, 289.903, 303.369, 342.881, 345.365, 346.882, 350.857, 356.454, 366.623, 372.888, 383.931, 389.912, 392.006, 395.577, 396.329, 398.498, 402.879, 403.314, 403.751, 404.19, 404.631, 405.073, 405.517, 405.962, 406.409, 406.858, 410.229, 410.713, 411.036, 411.382, 411.727, 420.248]}, "geometry": {"type": "LineString", "coordinates": [[27.363097, 44.561909, 24.0], [27.3631, 44.562007, 24.0], [27.363294, 44.562004, 24.0], [27.363639, 44.562005, 25.0], [27.363916, 44.562005, 26.25], [27.364129, 44.562004, 27.75], [27.36413, 44.562122, 28.25], [27.364128, 44.562198, 28.5], [27.364118, 44.5624, 26.75], [27.364082, 44.562787, 25.5], [27.36404, 44.563082, 24.75], [27.3642, 44.563093, 24.5], [27.36519, 44.563182, 22.75], [27.365992, 44.563194, 23.25], [27.366509, 44.563194, 23.0], [27.366652, 44.563194, 23.25], [27.367411, 44.563191, 24.0], [27.368156, 44.563199, 25.5], [27.368275, 44.5632, 25.5], [27.368764, 44.563418, 24.25], [27.36908, 44.563198, 23.5], [27.369512, 44.562865, 23.5], [27.370253, 44.563517, 23.0], [27.370431, 44.563665, 23.0], [27.370575, 44.563714, 23.0], [27.370652, 44.563754, 23.0], [27.371338, 44.56429, 20.5], [27.371283, 44.564355, 20.5], [27.37087, 44.564832, 20.75], [27.371624, 44.565304, 21.75], [27.372063, 44.565092, 22.5], [27.372722, 44.564791, 22.75], [27.373248, 44.564546, 22.0], [27.374256, 44.564044, 22.0], [27.374674, 44.563757, 22.0], [27.375054, 44.56348, 21.25], [27.375466, 44.563516, 22.0], [27.376136, 44.563593, 24.0], [27.376475, 44.563634, 24.0], [27.376719, 44.563674, 24.0], [27.376907, 44.563713, 24.0], [27.377033, 44.563749, 24.0], [27.377406, 44.563916, 23.75], [27.378092, 44.564292, 23.25], [27.378415, 44.564484, 23.0], [27.379119, 44.564902, 23.75], [27.380657, 44.565849, 26.25], [27.380771, 44.565919, 26.5], [27.380845, 44.565974, 26.25], [27.381034, 44.566181, 25.25], [27.381404, 44.566583, 23.0], [27.381968, 44.567197, 22.75], [27.38226, 44.567515, 23.0], [27.382726, 44.567981, 23.5], [27.383084, 44.56834, 21.75], [27.383229, 44.56848, 20.75], [27.383442, 44.5687, 20.75], [27.383497, 44.568666, 20.75], [27.383663, 44.568581, 21.0], [27.383984, 44.568419, 21.0], [27.384012, 44.568435, 21.0], [27.384046, 44.568444, 21.0], [27.384082, 44.568444, 21.0], [27.384116, 44.568436, 21.0], [27.384144, 44.568421, 21.0], [27.384164, 44.568399, 21.0], [27.384173, 44.568375, 21.0], [27.38417, 44.568349, 21.0], [27.384156, 44.568326, 21.0], [27.384364, 44.568213, 21.25], [27.384364, 44.568182, 21.25], [27.384378, 44.568169, 21.25], [27.384398, 44.568161, 21.5], [27.384422, 44.568161, 21.5], [27.38444, 44.567831, 22.75]]}}]}