{"type": "FeatureCollection", "features": [{"type": "Feature", "properties": {"creator": "BRouter-1.7.10", "name": "brouter_trekking_0", "track-length": "1952", "filtered ascend": "3", "plain-ascend": "2", "total-time": "344", "total-energy": "34354", "cost": "5248", "messages": [["Longitude", "Latitude", "Elevation", "Distance", "CostPerKm", "ElevCost", "TurnCost", "NodeCost", "InitialCost", "WayTags", "NodeTags", "Time", "Energy"], ["27370599", "44561480", "23", "70", "5050", "0", "83", "0", "0", "highway=footway", "", "9", "948"], ["27369207", "44561244", "23", "133", "1150", "0", "227", "0", "0", "reversedirection=yes highway=residential surface=asphalt oneway=no", "", "29", "2953"], ["27368883", "44560542", "23", "100", "1350", "0", "129", "0", "0", "reversedirection=yes highway=service", "", "45", "4551"], ["27368486", "44560547", "23", "32", "1150", "0", "0", "0", "0", "reversedirection=yes highway=residential", "", "51", "5109"], ["27368381", "44560550", "23", "8", "1150", "0", "0", "0", "0", "highway=residential", "", "52", "5268"], ["27364219", "44560216", "22", "335", "1150", "0", "5", "0", "0", "highway=residential oneway=yes", "", "111", "11199"], ["27364020", "44560210", "21", "16", "1150", "0", "9", "0", "0", "reversedirection=yes highway=residential", "", "113", "11383"], ["27361092", "44560079", "24", "236", "1150", "0", "8", "0", "0", "highway=residential surface=asphalt", "highway=crossing crossing=uncontrolled", "160", "16072"], ["27360954", "44560056", "24", "11", "1150", "0", "1", "0", "0", "highway=residential surface=asphalt", "", "162", "16261"], ["27360917", "44560179", "24", "14", "1450", "0", "91", "0", "0", "reversedirection=yes highway=tertiary surface=asphalt", "highway=crossing crossing=uncontrolled", "165", "16517"], ["27360845", "44561073", "26", "100", "1450", "0", "0", "0", "0", "reversedirection=yes highway=tertiary surface=asphalt", "", "185", "18529"], ["27359132", "44561114", "25", "136", "1150", "0", "88", "0", "0", "highway=residential surface=asphalt oneway=no", "", "211", "21144"], ["27359190", "44562189", "26", "118", "1350", "0", "90", "0", "0", "highway=service access=no foot=yes bicycle=yes", "estimated_crossing_class=5", "234", "23474"], ["27358795", "44562198", "26", "31", "3050", "0", "92", "0", "0", "reversedirection=yes highway=primary surface=asphalt smoothness=excellent oneway=no", "highway=crossing estimated_crossing_class=5 crossing=uncontrolled", "239", "23981"], ["27356442", "44562255", "26", "187", "3050", "0", "0", "0", "0", "reversedirection=yes highway=primary surface=asphalt smoothness=excellent oneway=no", "highway=crossing estimated_crossing_class=5", "271", "27140"], ["27355169", "44562322", "25", "101", "3050", "0", "0", "0", "0", "reversedirection=yes highway=primary surface=asphalt smoothness=excellent oneway=no", "highway=crossing estimated_crossing_class=0 crossing=zebra", "285", "28593"], ["27354998", "44562336", "25", "14", "3050", "0", "0", "0", "0", "reversedirection=yes highway=primary surface=asphalt smoothness=excellent oneway=no", "estimated_crossing_class=5", "288", "28815"], ["27354854", "44562347", "25", "12", "3050", "0", "0", "0", "0", "reversedirection=yes highway=primary surface=asphalt smoothness=excellent oneway=no", "highway=crossing estimated_crossing_class=0 crossing=zebra", "290", "29019"], ["27352994", "44562526", "26", "149", "3050", "0", "0", "0", "0", "reversedirection=yes highway=primary surface=asphalt smoothness=excellent oneway=no", "highway=crossing estimated_crossing_class=5", "317", "31724"], ["27352917", "44562532", "26", "6", "3050", "0", "0", "0", "0", "reversedirection=yes highway=primary surface=asphalt smoothness=excellent oneway=no", "estimated_crossing_class=5", "318", "31828"], ["27352889", "44562400", "25", "15", "1150", "0", "86", "0", "0", "highway=residential surface=asphalt oneway=yes", "", "320", "32072"], ["27351513", "44562533", "26", "110", "5050", "0", "88", "0", "0", "reversedirection=yes highway=footway", "", "340", "34041"], ["27351583", "44562398", "26", "16", "5050", "0", "132", "0", "0", "highway=footway", "", "343", "34319"], ["27351611", "44562401", "26", "2", "5050", "0", "72", "0", "0", "reversedirection=yes highway=footway", "", "343", "34354"]], "times": [0, 2.52, 9.485, 11.541, 12.239, 13.368, 15.172, 16.148, 17.047, 19.615, 20.981, 23.385, 29.527, 41.002, 41.915, 42.894, 45.513, 51.092, 52.675, 65.425, 67.736, 77.366, 83.273, 86.831, 95.899, 104.59, 106.529, 111.985, 113.826, 117.421, 121.095, 122.939, 136.031, 142.782, 147.003, 152.282, 156.609, 160.709, 162.598, 165.156, 172.32, 175.506, 185.275, 202.306, 204.976, 211.417, 216.385, 218.969, 226.336, 229.775, 232.067, 234.708, 239.787, 253.273, 271.372, 275.401, 285.897, 288.118, 290.16, 317.208, 318.249, 320.686, 340.381, 343.157, 343.503]}, "geometry": {"type": "LineString", "coordinates": [[27.370839, 44.560989, 24.5], [27.370645, 44.56099, 24.5], [27.370599, 44.56148, 23.0], [27.370581, 44.561345, 23.0], [27.370542, 44.561307, 23.0], [27.370455, 44.561277, 23.0], [27.370294, 44.561238, 22.5], [27.370224, 44.561201, 22.75], [27.370156, 44.561177, 23.0], [27.369973, 44.56117, 23.5], [27.369882, 44.561192, 23.5], [27.369711, 44.561246, 23.25], [27.369207, 44.561244, 23.0], [27.369203, 44.5606, 23.0], [27.369161, 44.560553, 22.75], [27.369085, 44.560536, 23.0], [27.368883, 44.560542, 23.0], [27.368486, 44.560547, 23.25], [27.368381, 44.56055, 23.75], [27.367739, 44.560519, 25.0], [27.367621, 44.560511, 25.5], [27.366973, 44.560467, 24.5], [27.366503, 44.560454, 24.0], [27.366222, 44.560443, 24.0], [27.365455, 44.560425, 23.5], [27.364824, 44.560419, 24.0], [27.364677, 44.56039, 23.75], [27.364219, 44.560216, 22.75], [27.36402, 44.56021, 21.75], [27.363712, 44.560205, 19.75], [27.363366, 44.560169, 19.0], [27.363224, 44.560148, 19.5], [27.362389, 44.560018, 23.5], [27.362029, 44.560001, 24.5], [27.361832, 44.560044, 25.25], [27.361598, 44.560072, 25.75], [27.36137, 44.560088, 25.5], [27.361092, 44.560079, 24.75], [27.360954, 44.560056, 24.5], [27.360917, 44.560179, 24.75], [27.36085, 44.560598, 24.0], [27.36084, 44.560756, 24.5], [27.360845, 44.561073, 26.5], [27.3599, 44.561097, 26.5], [27.359698, 44.561102, 25.75], [27.359132, 44.561114, 25.0], [27.359148, 44.561415, 25.0], [27.359154, 44.561536, 26.0], [27.359169, 44.561824, 26.75], [27.359177, 44.561972, 26.75], [27.359181, 44.562074, 26.75], [27.35919, 44.562189, 26.75], [27.358795, 44.562198, 26.0], [27.357867, 44.562225, 26.5], [27.356442, 44.562255, 26.0], [27.356111, 44.562267, 25.75], [27.355169, 44.562322, 25.0], [27.354998, 44.562336, 25.25], [27.354854, 44.562347, 25.5], [27.352994, 44.562526, 26.0], [27.352917, 44.562532, 26.0], [27.352889, 44.5624, 25.75], [27.351513, 44.562533, 26.25], [27.351583, 44.562398, 26.25], [27.351611, 44.562401, 26.5]]}}]}