{"type": "FeatureCollection", "features": [{"type": "Feature", "properties": {"creator": "BRouter-1.7.10", "name": "brouter_trekking_0", "track-length": "1452", "filtered ascend": "7", "plain-ascend": "1", "total-time": "256", "total-energy": "25562", "cost": "2478", "messages": [["Longitude", "Latitude", "Elevation", "Distance", "CostPerKm", "ElevCost", "TurnCost", "NodeCost", "InitialCost", "WayTags", "NodeTags", "Time", "Energy"], ["27350804", "44564933", "23", "20", "1350", "0", "0", "0", "0", "reversedirection=yes highway=service", "", "3", "380"], ["27350877", "44564671", "23", "29", "1150", "0", "109", "0", "0", "reversedirection=yes highway=residential surface=asphalt", "", "9", "935"], ["27350898", "44564586", "23", "10", "1450", "0", "0", "0", "0", "reversedirection=yes highway=tertiary surface=asphalt", "", "11", "1104"], ["27351201", "44564605", "24", "24", "1450", "0", "83", "0", "0", "highway=tertiary surface=asphalt oneway=yes", "highway=crossing", "16", "1608"], ["27353782", "44564631", "24", "205", "1450", "0", "0", "0", "0", "highway=tertiary surface=asphalt oneway=yes", "highway=crossing crossing=uncontrolled", "50", "5077"], ["27355483", "44564645", "24", "136", "1450", "0", "0", "0", "0", "highway=tertiary surface=asphalt oneway=yes", "highway=crossing crossing=uncontrolled", "76", "7694"], ["27357365", "44564651", "25", "149", "1450", "0", "0", "0", "0", "highway=tertiary surface=asphalt oneway=yes", "highway=crossing", "105", "10588"], ["27358286", "44564654", "30", "73", "1450", "0", "0", "0", "0", "highway=tertiary surface=asphalt oneway=yes", "highway=crossing", "124", "12484"], ["27359762", "44564654", "24", "118", "1450", "0", "0", "0", "0", "highway=tertiary surface=asphalt oneway=yes", "highway=crossing", "142", "14285"], ["27361170", "44564399", "28", "117", "1450", "0", "2", "0", "0", "highway=tertiary surface=asphalt oneway=yes", "highway=crossing", "167", "16773"], ["27363536", "44564052", "23", "194", "1450", "0", "0", "0", "0", "highway=tertiary surface=asphalt oneway=yes", "highway=crossing", "194", "19416"], ["27363887", "44563848", "24", "37", "1450", "0", "0", "0", "0", "highway=tertiary surface=asphalt oneway=yes", "", "199", "19975"], ["27363897", "44563794", "23", "6", "1450", "0", "20", "0", "0", "reversedirection=yes highway=tertiary surface=asphalt oneway=no", "highway=crossing", "200", "20063"], ["27364040", "44563082", "24", "79", "1450", "0", "0", "0", "0", "reversedirection=yes highway=tertiary surface=asphalt oneway=no", "", "213", "21323"], ["27365190", "44563182", "22", "92", "1150", "0", "86", "0", "0", "highway=residential surface=asphalt oneway=yes", "", "226", "22614"], ["27365177", "44563955", "24", "86", "1150", "0", "80", "0", "0", "reversedirection=yes highway=residential surface=asphalt oneway=no", "highway=crossing crossing=uncontrolled", "243", "24397"], ["27365175", "44564009", "24", "6", "1150", "0", "0", "0", "0", "reversedirection=yes highway=residential surface=asphalt oneway=no", "", "244", "24498"], ["27364273", "44564006", "23", "71", "1050", "0", "88", "0", "0", "highway=tertiary surface=asphalt foot=yes bicycle=yes oneway=yes", "", "255", "25562"]], "times": [0, 3.807, 6.99, 9.356, 11.047, 13.718, 16.079, 17.341, 39.716, 50.776, 75.321, 76.936, 103.97, 105.882, 108.68, 109.808, 124.83, 127.623, 137.507, 142.838, 144.007, 145.394, 146.759, 160.066, 163.361, 167.714, 181.124, 182.783, 186.162, 187.557, 190.193, 191.543, 194.144, 195.934, 197.444, 199.736, 200.606, 204.541, 208.432, 213.21, 215.65, 226.12, 243.95, 244.952, 247.458, 254.792, 255.587]}, "geometry": {"type": "LineString", "coordinates": [[27.350573, 44.56487, 23.25], [27.350804, 44.564933, 23.75], [27.350834, 44.564788, 24.0], [27.350877, 44.564671, 23.75], [27.350898, 44.564586, 23.5], [27.351057, 44.564597, 24.25], [27.351201, 44.564605, 24.5], [27.351273, 44.564609, 24.5], [27.353128, 44.564622, 23.0], [27.353782, 44.564631, 24.25], [27.355374, 44.564644, 24.5], [27.355483, 44.564645, 24.5], [27.357238, 44.564649, 25.25], [27.357365, 44.564651, 25.5], [27.357525, 44.564651, 26.0], [27.357592, 44.564651, 26.25], [27.358286, 44.564654, 30.5], [27.358421, 44.564655, 30.75], [27.359213, 44.564657, 26.0], [27.359762, 44.564654, 24.5], [27.359871, 44.564654, 24.5], [27.360002, 44.564637, 24.25], [27.360122, 44.564613, 24.5], [27.36081, 44.564436, 26.75], [27.360975, 44.564415, 27.5], [27.36117, 44.564399, 28.0], [27.362201, 44.564337, 26.25], [27.362346, 44.564327, 25.5], [27.362732, 44.564283, 24.0], [27.362891, 44.564252, 23.5], [27.363187, 44.564178, 23.0], [27.363323, 44.564135, 23.0], [27.363536, 44.564052, 23.75], [27.363657, 44.563993, 24.0], [27.36375, 44.563939, 24.0], [27.363887, 44.563848, 24.0], [27.363897, 44.563794, 23.75], [27.363953, 44.563541, 23.5], [27.363999, 44.563291, 23.25], [27.36404, 44.563082, 24.75], [27.3642, 44.563093, 24.5], [27.36519, 44.563182, 22.75], [27.365177, 44.563955, 24.5], [27.365175, 44.564009, 24.0], [27.36498, 44.564008, 24.0], [27.364338, 44.564006, 23.25], [27.364273, 44.564006, 23.75]]}}]}