{"type": "FeatureCollection", "features": [{"type": "Feature", "properties": {"creator": "BRouter-1.7.10", "name": "brouter_trekking_0", "track-length": "1281", "filtered ascend": "5", "plain-ascend": "-1", "total-time": "224", "total-energy": "22366", "cost": "3359", "messages": [["Longitude", "Latitude", "Elevation", "Distance", "CostPerKm", "ElevCost", "TurnCost", "NodeCost", "InitialCost", "WayTags", "NodeTags", "Time", "Energy"], ["27354878", "44558202", "27", "158", "1150", "0", "0", "0", "0", "reversedirection=yes highway=residential", "", "31", "3165"], ["27355058", "44558240", "27", "15", "1150", "0", "94", "0", "0", "highway=residential oneway=yes", "", "34", "3496"], ["27354627", "44559299", "26", "123", "1150", "0", "86", "0", "0", "highway=residential surface=asphalt oneway=yes", "", "64", "6458"], ["27354971", "44562201", "25", "326", "1150", "0", "11", "0", "0", "reversedirection=yes highway=residential surface=asphalt", "highway=crossing", "126", "12684"], ["27354998", "44562336", "25", "15", "1150", "0", "0", "0", "0", "reversedirection=yes highway=residential surface=asphalt", "estimated_crossing_class=5", "128", "12886"], ["27354854", "44562347", "25", "12", "3050", "0", "93", "0", "0", "reversedirection=yes highway=primary surface=asphalt smoothness=excellent oneway=no", "highway=crossing estimated_crossing_class=0 crossing=zebra", "130", "13061"], ["27352994", "44562526", "26", "149", "3050", "0", "0", "0", "0", "reversedirection=yes highway=primary surface=asphalt smoothness=excellent oneway=no", "highway=crossing estimated_crossing_class=5", "155", "15560"], ["27352917", "44562532", "26", "6", "3050", "0", "0", "0", "0", "reversedirection=yes highway=primary surface=asphalt smoothness=excellent oneway=no", "estimated_crossing_class=5", "156", "15660"], ["27352869", "44562537", "26", "4", "3050", "0", "0", "0", "0", "reversedirection=yes highway=primary surface=asphalt smoothness=excellent oneway=no", "estimated_crossing_class=5", "157", "15728"], ["27352102", "44562614", "27", "62", "3050", "0", "0", "0", "0", "reversedirection=yes highway=primary surface=asphalt smoothness=excellent oneway=no", "estimated_crossing_class=5", "170", "17009"], ["27350782", "44562739", "24", "105", "3050", "0", "0", "0", "0", "reversedirection=yes highway=primary surface=asphalt oneway=no", "railway=level_crossing", "182", "18264"], ["27350307", "44562790", "25", "38", "3050", "0", "0", "0", "0", "reversedirection=yes highway=primary surface=asphalt oneway=no", "", "188", "18900"], ["27349730", "44562832", "24", "46", "3050", "0", "2", "0", "0", "highway=primary surface=asphalt oneway=yes", "highway=give_way direction=forward", "195", "19586"], ["27349583", "44562801", "24", "12", "3050", "0", "1", "0", "0", "highway=primary surface=asphalt oneway=yes", "", "197", "19755"], ["27349137", "44562630", "23", "61", "10050", "0", "0", "0", "0", "highway=trunk surface=asphalt foot=no smoothness=good junction=roundabout", "", "206", "20606"], ["27349005", "44562429", "22", "25", "1350", "0", "18", "0", "0", "highway=service surface=asphalt oneway=yes", "", "209", "20910"], ["27348918", "44562180", "21", "29", "1350", "0", "5", "0", "0", "highway=service surface=asphalt", "", "212", "21240"], ["27347883", "44562320", "21", "95", "1350", "0", "181", "0", "0", "reversedirection=yes highway=service", "", "223", "22366"]], "times": [0, 20.433, 31.647, 34.956, 40.204, 64.571, 65.831, 73.964, 77.672, 79.962, 89.097, 96.287, 100.715, 113.724, 118.393, 120.691, 123.575, 126.827, 128.84, 130.59, 155.576, 156.584, 157.255, 170.064, 178.292, 182.615, 183.32, 188.97, 193.838, 194.858, 195.828, 197.519, 197.947, 198.808, 199.628, 200.458, 201.155, 202.142, 203.14, 204.148, 205.109, 206.03, 208.102, 209.061, 209.877, 210.902, 212.365, 213.84, 222.188, 223.622]}, "geometry": {"type": "LineString", "coordinates": [[27.35554, 44.556862, 22.5], [27.355068, 44.557811, 26.0], [27.354878, 44.558202, 27.5], [27.355058, 44.55824, 27.5], [27.354983, 44.558458, 27.5], [27.354627, 44.559299, 26.0], [27.354614, 44.55935, 26.0], [27.354693, 44.559729, 25.75], [27.354733, 44.5599, 26.0], [27.35476, 44.560009, 26.0], [27.354838, 44.560354, 27.0], [27.354891, 44.560622, 27.5], [27.354919, 44.560798, 27.5], [27.354978, 44.561345, 27.75], [27.355007, 44.561589, 27.25], [27.355009, 44.561732, 26.5], [27.354938, 44.561957, 25.0], [27.354971, 44.562201, 25.0], [27.354998, 44.562336, 25.25], [27.354854, 44.562347, 25.5], [27.352994, 44.562526, 26.0], [27.352917, 44.562532, 26.0], [27.352869, 44.562537, 26.0], [27.352102, 44.562614, 27.0], [27.35121, 44.562695, 24.25], [27.350782, 44.562739, 24.0], [27.350715, 44.562748, 24.25], [27.350307, 44.56279, 25.0], [27.349906, 44.56284, 24.5], [27.349812, 44.56284, 24.25], [27.34973, 44.562832, 24.0], [27.349583, 44.562801, 24.0], [27.34956, 44.562821, 24.0], [27.349503, 44.562853, 24.0], [27.349435, 44.562873, 23.75], [27.349362, 44.562878, 23.75], [27.349301, 44.56287, 23.75], [27.349226, 44.562844, 23.75], [27.349167, 44.562802, 23.75], [27.34913, 44.562748, 23.75], [27.34912, 44.562688, 23.5], [27.349137, 44.56263, 23.25], [27.349045, 44.562492, 22.75], [27.349005, 44.562429, 22.5], [27.348958, 44.562374, 22.25], [27.348929, 44.562295, 22.0], [27.348918, 44.56218, 21.75], [27.348773, 44.562186, 22.0], [27.347873, 44.562222, 21.0], [27.347883, 44.56232, 21.0]]}}]}