{"type": "FeatureCollection", "features": [{"type": "Feature", "properties": {"creator": "BRouter-1.7.10", "name": "brouter_trekking_0", "track-length": "1239", "filtered ascend": "4", "plain-ascend": "0", "total-time": "214", "total-energy": "21396", "cost": "2937", "messages": [["Longitude", "Latitude", "Elevation", "Distance", "CostPerKm", "ElevCost", "TurnCost", "NodeCost", "InitialCost", "WayTags", "NodeTags", "Time", "Energy"], ["27359976", "44564905", "25", "50", "1150", "0", "0", "0", "0", "reversedirection=yes highway=residential", "highway=crossing", "7", "721"], ["27359873", "44564903", "25", "8", "1150", "0", "0", "0", "0", "reversedirection=yes highway=residential", "", "8", "834"], ["27359766", "44564773", "25", "22", "1450", "0", "171", "0", "0", "highway=tertiary surface=asphalt oneway=yes", "highway=crossing", "11", "1136"], ["27358283", "44564763", "30", "118", "1450", "0", "0", "0", "0", "highway=tertiary surface=asphalt oneway=yes", "highway=crossing", "36", "3607"], ["27357360", "44564756", "25", "73", "1450", "0", "0", "0", "0", "highway=tertiary surface=asphalt oneway=yes", "highway=crossing", "46", "4627"], ["27355483", "44564736", "25", "149", "1450", "0", "0", "0", "0", "highway=tertiary surface=asphalt oneway=yes", "highway=crossing crossing=uncontrolled", "67", "6781"], ["27353786", "44564718", "24", "135", "1450", "0", "0", "0", "0", "highway=tertiary surface=asphalt oneway=yes", "highway=crossing crossing=uncontrolled", "91", "9143"], ["27351172", "44564692", "24", "208", "1450", "0", "0", "0", "0", "highway=tertiary surface=asphalt oneway=yes", "highway=crossing", "124", "12469"], ["27350877", "44564671", "23", "24", "1450", "0", "0", "0", "0", "highway=tertiary surface=asphalt oneway=yes", "", "127", "12797"], ["27350964", "44564475", "23", "23", "1450", "0", "99", "0", "0", "reversedirection=yes highway=tertiary surface=asphalt", "highway=crossing", "131", "13107"], ["27351896", "44562911", "26", "189", "1450", "0", "0", "0", "0", "reversedirection=yes highway=tertiary surface=asphalt", "highway=crossing", "166", "16695"], ["27352102", "44562614", "27", "37", "1450", "0", "0", "0", "0", "reversedirection=yes highway=tertiary surface=asphalt", "estimated_crossing_class=5", "177", "17711"], ["27352869", "44562537", "26", "62", "3050", "0", "39", "0", "0", "highway=primary surface=asphalt smoothness=excellent oneway=no", "estimated_crossing_class=5", "188", "18857"], ["27352917", "44562532", "26", "4", "3050", "0", "0", "0", "0", "highway=primary surface=asphalt smoothness=excellent oneway=no", "estimated_crossing_class=5", "189", "18929"], ["27352889", "44562400", "25", "15", "1150", "0", "90", "0", "0", "highway=residential surface=asphalt oneway=yes", "", "191", "19180"], ["27351513", "44562533", "26", "110", "5050", "0", "88", "0", "0", "reversedirection=yes highway=footway", "", "211", "21186"], ["27351565", "44562432", "26", "12", "5050", "0", "132", "0", "0", "highway=footway", "", "213", "21396"]], "times": [0, 7.212, 8.341, 10.244, 11.354, 20.155, 36.062, 44.532, 46.261, 67.781, 69.199, 86.957, 91.4, 97.15, 124.666, 127.941, 129.272, 131.043, 133.163, 142.333, 151.146, 166.913, 177.076, 188.535, 189.253, 191.768, 211.823, 213.926]}, "geometry": {"type": "LineString", "coordinates": [[27.360604, 44.564922, 26.25], [27.359976, 44.564905, 25.5], [27.359873, 44.564903, 25.25], [27.359869, 44.564774, 25.0], [27.359766, 44.564773, 25.0], [27.359215, 44.564768, 26.5], [27.358283, 44.564763, 30.25], [27.357526, 44.564758, 25.75], [27.35736, 44.564756, 25.25], [27.355483, 44.564736, 25.0], [27.355373, 44.564735, 25.0], [27.354216, 44.564722, 26.0], [27.353786, 44.564718, 24.5], [27.353131, 44.564709, 23.0], [27.351172, 44.564692, 24.75], [27.350877, 44.564671, 23.75], [27.350898, 44.564586, 23.5], [27.350964, 44.564475, 23.5], [27.35104, 44.56434, 23.25], [27.351294, 44.563868, 24.0], [27.351568, 44.563406, 23.75], [27.351896, 44.562911, 26.0], [27.352102, 44.562614, 27.0], [27.352869, 44.562537, 26.0], [27.352917, 44.562532, 26.0], [27.352889, 44.5624, 25.75], [27.351513, 44.562533, 26.25], [27.351565, 44.562432, 26.25]]}}]}