{"type": "FeatureCollection", "features": [{"type": "Feature", "properties": {"creator": "BRouter-1.7.10", "name": "brouter_trekking_0", "track-length": "1529", "filtered ascend": "1", "plain-ascend": "-5", "total-time": "246", "total-energy": "24603", "cost": "4732", "messages": [["Longitude", "Latitude", "Elevation", "Distance", "CostPerKm", "ElevCost", "TurnCost", "NodeCost", "InitialCost", "WayTags", "NodeTags", "Time", "Energy"], ["27361587", "44558927", "25", "48", "5050", "0", "147", "0", "0", "highway=footway", "", "6", "699"], ["27360917", "44560179", "24", "150", "1450", "0", "34", "0", "0", "reversedirection=yes highway=tertiary surface=asphalt", "highway=crossing crossing=uncontrolled", "26", "2659"], ["27360845", "44561073", "26", "100", "1450", "0", "0", "0", "0", "reversedirection=yes highway=tertiary surface=asphalt", "", "45", "4598"], ["27359132", "44561114", "25", "136", "1150", "0", "88", "0", "0", "highway=residential surface=asphalt oneway=no", "", "71", "7175"], ["27359190", "44562189", "26", "118", "1350", "0", "90", "0", "0", "highway=service access=no foot=yes bicycle=yes", "estimated_crossing_class=5", "94", "9496"], ["27358795", "44562198", "26", "31", "3050", "0", "92", "0", "0", "reversedirection=yes highway=primary surface=asphalt smoothness=excellent oneway=no", "highway=crossing estimated_crossing_class=5 crossing=uncontrolled", "100", "10004"], ["27356442", "44562255", "26", "187", "3050", "0", "0", "0", "0", "reversedirection=yes highway=primary surface=asphalt smoothness=excellent oneway=no", "highway=crossing estimated_crossing_class=5", "131", "13160"], ["27355169", "44562322", "25", "101", "3050", "0", "0", "0", "0", "reversedirection=yes highway=primary surface=asphalt smoothness=excellent oneway=no", "highway=crossing estimated_crossing_class=0 crossing=zebra", "146", "14613"], ["27354998", "44562336", "25", "14", "3050", "0", "0", "0", "0", "reversedirection=yes highway=primary surface=asphalt smoothness=excellent oneway=no", "estimated_crossing_class=5", "148", "14835"], ["27354854", "44562347", "25", "12", "3050", "0", "0", "0", "0", "reversedirection=yes highway=primary surface=asphalt smoothness=excellent oneway=no", "highway=crossing estimated_crossing_class=0 crossing=zebra", "150", "15039"], ["27352994", "44562526", "26", "149", "3050", "0", "0", "0", "0", "reversedirection=yes highway=primary surface=asphalt smoothness=excellent oneway=no", "highway=crossing estimated_crossing_class=5", "177", "17744"], ["27352917", "44562532", "26", "6", "3050", "0", "0", "0", "0", "reversedirection=yes highway=primary surface=asphalt smoothness=excellent oneway=no", "estimated_crossing_class=5", "178", "17848"], ["27352869", "44562537", "26", "4", "3050", "0", "0", "0", "0", "reversedirection=yes highway=primary surface=asphalt smoothness=excellent oneway=no", "estimated_crossing_class=5", "179", "17917"], ["27352102", "44562614", "27", "62", "3050", "0", "0", "0", "0", "reversedirection=yes highway=primary surface=asphalt smoothness=excellent oneway=no", "estimated_crossing_class=5", "192", "19229"], ["27350782", "44562739", "24", "105", "3050", "0", "0", "0", "0", "reversedirection=yes highway=primary surface=asphalt oneway=no", "railway=level_crossing", "204", "20494"], ["27350307", "44562790", "25", "38", "3050", "0", "0", "0", "0", "reversedirection=yes highway=primary surface=asphalt oneway=no", "", "211", "21133"], ["27349730", "44562832", "24", "46", "3050", "0", "2", "0", "0", "highway=primary surface=asphalt oneway=yes", "highway=give_way direction=forward", "218", "21821"], ["27349583", "44562801", "24", "12", "3050", "0", "1", "0", "0", "highway=primary surface=asphalt oneway=yes", "", "219", "21990"], ["27349137", "44562630", "23", "61", "10050", "0", "0", "0", "0", "highway=trunk surface=asphalt foot=no smoothness=good junction=roundabout", "", "228", "22843"], ["27349005", "44562429", "22", "25", "1350", "0", "18", "0", "0", "highway=service surface=asphalt oneway=yes", "", "231", "23146"], ["27348918", "44562180", "21", "29", "1350", "0", "5", "0", "0", "highway=service surface=asphalt", "", "234", "23477"], ["27347883", "44562320", "21", "95", "1350", "0", "181", "0", "0", "reversedirection=yes highway=service", "", "245", "24603"]], "times": [0, 2.623, 6.992, 12.601, 19.383, 20.894, 24.215, 26.595, 33.412, 36.479, 45.973, 62.702, 65.345, 71.74, 76.683, 79.256, 86.597, 90.027, 92.313, 94.949, 100.019, 113.492, 131.583, 135.612, 146.106, 148.327, 150.369, 177.416, 178.457, 179.15, 192.269, 200.568, 204.917, 205.625, 211.302, 216.186, 217.208, 218.181, 219.875, 220.304, 221.167, 221.988, 222.819, 223.518, 224.506, 225.505, 226.515, 227.477, 228.398, 230.472, 231.432, 232.248, 233.274, 234.738, 236.213, 244.564, 245.998]}, "geometry": {"type": "LineString", "coordinates": [[27.361518, 44.558659, 26.75], [27.361373, 44.558639, 27.75], [27.361587, 44.558927, 25.25], [27.361332, 44.559345, 24.0], [27.361067, 44.55978, 24.0], [27.361022, 44.559877, 24.0], [27.360954, 44.560056, 24.5], [27.360917, 44.560179, 24.75], [27.36085, 44.560598, 24.0], [27.36084, 44.560756, 24.5], [27.360845, 44.561073, 26.5], [27.3599, 44.561097, 26.5], [27.359698, 44.561102, 25.75], [27.359132, 44.561114, 25.0], [27.359148, 44.561415, 25.0], [27.359154, 44.561536, 26.0], [27.359169, 44.561824, 26.75], [27.359177, 44.561972, 26.75], [27.359181, 44.562074, 26.75], [27.35919, 44.562189, 26.75], [27.358795, 44.562198, 26.0], [27.357867, 44.562225, 26.5], [27.356442, 44.562255, 26.0], [27.356111, 44.562267, 25.75], [27.355169, 44.562322, 25.0], [27.354998, 44.562336, 25.25], [27.354854, 44.562347, 25.5], [27.352994, 44.562526, 26.0], [27.352917, 44.562532, 26.0], [27.352869, 44.562537, 26.0], [27.352102, 44.562614, 27.0], [27.35121, 44.562695, 24.25], [27.350782, 44.562739, 24.0], [27.350715, 44.562748, 24.25], [27.350307, 44.56279, 25.0], [27.349906, 44.56284, 24.5], [27.349812, 44.56284, 24.25], [27.34973, 44.562832, 24.0], [27.349583, 44.562801, 24.0], [27.34956, 44.562821, 24.0], [27.349503, 44.562853, 24.0], [27.349435, 44.562873, 23.75], [27.349362, 44.562878, 23.75], [27.349301, 44.56287, 23.75], [27.349226, 44.562844, 23.75], [27.349167, 44.562802, 23.75], [27.34913, 44.562748, 23.75], [27.34912, 44.562688, 23.5], [27.349137, 44.56263, 23.25], [27.349045, 44.562492, 22.75], [27.349005, 44.562429, 22.5], [27.348958, 44.562374, 22.25], [27.348929, 44.562295, 22.0], [27.348918, 44.56218, 21.75], [27.348773, 44.562186, 22.0], [27.347873, 44.562222, 21.0], [27.347883, 44.56232, 21.0]]}}]}