{"type": "FeatureCollection", "features": [{"type": "Feature", "properties": {"creator": "BRouter-1.7.10", "name": "brouter_trekking_0", "track-length": "29", "filtered ascend": "0", "plain-ascend": "0", "total-time": "5", "total-energy": "487", "cost": "42", "messages": [["Longitude", "Latitude", "Elevation", "Distance", "CostPerKm", "ElevCost", "TurnCost", "NodeCost", "InitialCost", "WayTags", "NodeTags", "Time", "Energy"], ["27354506", "44564636", "24", "29", "1450", "0", "0", "0", "0", "highway=tertiary surface=asphalt oneway=yes", "", "4", "487"]], "times": [0, 4.872]}, "geometry": {"type": "LineString", "coordinates": [[27.354137, 44.564633, 24.25], [27.354506, 44.564636, 24.5]]}}]}