{"type": "FeatureCollection", "features": [{"type": "Feature", "properties": {"creator": "BRouter-1.7.10", "name": "brouter_trekking_0", "track-length": "1680", "filtered ascend": "8", "plain-ascend": "5", "total-time": "305", "total-energy": "30539", "cost": "3018", "messages": [["Longitude", "Latitude", "Elevation", "Distance", "CostPerKm", "ElevCost", "TurnCost", "NodeCost", "InitialCost", "WayTags", "NodeTags", "Time", "Energy"], ["27375054", "44563480", "21", "11", "1150", "0", "0", "0", "0", "highway=residential surface=asphalt", "", "1", "184"], ["27372722", "44564791", "22", "237", "1150", "0", "36", "0", "0", "reversedirection=yes highway=residential surface=asphalt", "", "46", "4653"], ["27371698", "44564065", "22", "115", "1150", "0", "71", "0", "0", "highway=residential surface=asphalt oneway=yes", "highway=crossing", "65", "6592"], ["27371605", "44563996", "22", "11", "1150", "0", "0", "0", "0", "highway=residential surface=asphalt oneway=yes", "", "67", "6778"], ["27371506", "44563919", "22", "12", "1150", "0", "0", "0", "0", "highway=residential surface=asphalt", "highway=crossing", "69", "6980"], ["27370043", "44562660", "24", "182", "1150", "0", "0", "0", "0", "highway=residential surface=asphalt", "highway=crossing", "105", "10566"], ["27369896", "44562528", "24", "19", "1150", "0", "0", "0", "0", "highway=residential surface=asphalt", "highway=crossing", "110", "11017"], ["27369579", "44562222", "25", "42", "1150", "0", "0", "0", "0", "highway=residential surface=asphalt", "highway=crossing", "120", "12065"], ["27369488", "44562139", "24", "12", "1150", "0", "0", "0", "0", "highway=residential surface=asphalt", "estimated_crossing_class=4", "123", "12303"], ["27369319", "44562138", "24", "13", "3050", "0", "34", "0", "0", "reversedirection=yes highway=primary surface=asphalt smoothness=excellent oneway=no", "highway=crossing estimated_crossing_class=4", "125", "12540"], ["27368615", "44562135", "23", "56", "3050", "0", "0", "0", "0", "reversedirection=yes highway=primary surface=asphalt smoothness=excellent oneway=no", "estimated_crossing_class=5", "133", "13319"], ["27368612", "44561991", "22", "16", "1150", "0", "88", "0", "0", "reversedirection=yes highway=residential oneway=no", "highway=crossing", "135", "13531"], ["27368370", "44561194", "24", "100", "1150", "0", "30", "0", "0", "reversedirection=yes highway=residential oneway=no", "", "153", "15318"], ["27368381", "44560550", "23", "72", "1150", "0", "83", "0", "0", "reversedirection=yes highway=residential", "", "164", "16500"], ["27364219", "44560216", "22", "335", "1150", "0", "90", "0", "0", "highway=residential oneway=yes", "", "221", "22106"], ["27364020", "44560210", "21", "16", "1150", "0", "9", "0", "0", "reversedirection=yes highway=residential", "", "222", "22289"], ["27361092", "44560079", "24", "236", "1150", "0", "8", "0", "0", "highway=residential surface=asphalt", "highway=crossing crossing=uncontrolled", "269", "26971"], ["27360954", "44560056", "24", "11", "1150", "0", "1", "0", "0", "highway=residential surface=asphalt", "", "271", "27159"], ["27361587", "44558927", "25", "136", "1450", "0", "93", "0", "0", "highway=tertiary surface=asphalt", "", "295", "29566"], ["27361518", "44558659", "26", "48", "5050", "0", "181", "0", "0", "reversedirection=yes highway=footway", "", "305", "30539"]], "times": [0, 1.848, 10.402, 19.009, 36.378, 46.528, 65.926, 67.778, 69.798, 87.152, 97.184, 101.121, 105.657, 107.752, 110.167, 120.645, 123.028, 125.398, 128.555, 133.188, 135.3, 146.503, 150.202, 150.902, 151.776, 153.171, 164.996, 176.116, 178.209, 187.153, 192.804, 196.246, 205.122, 213.699, 215.62, 221.043, 222.877, 226.456, 230.12, 231.958, 245.024, 251.767, 255.984, 261.259, 265.583, 269.681, 271.57, 274.761, 276.458, 284.815, 295.636, 301.883, 305.359]}, "geometry": {"type": "LineString", "coordinates": [[27.375186, 44.563491, 21.25], [27.375054, 44.56348, 21.25], [27.374674, 44.563757, 22.0], [27.374256, 44.564044, 22.0], [27.373248, 44.564546, 22.0], [27.372722, 44.564791, 22.75], [27.371698, 44.564065, 22.25], [27.371605, 44.563996, 22.25], [27.371506, 44.563919, 22.25], [27.370796, 44.563287, 23.0], [27.370361, 44.562923, 23.25], [27.370208, 44.562797, 23.75], [27.370043, 44.56266, 24.25], [27.36997, 44.562598, 24.5], [27.369896, 44.562528, 24.75], [27.369579, 44.562222, 25.25], [27.369488, 44.562139, 24.75], [27.369319, 44.562138, 24.5], [27.369051, 44.562137, 23.75], [27.368615, 44.562135, 23.0], [27.368612, 44.561991, 22.75], [27.368596, 44.561434, 24.0], [27.36856, 44.561248, 24.0], [27.368535, 44.561218, 24.0], [27.368471, 44.5612, 24.0], [27.36837, 44.561194, 24.0], [27.368381, 44.56055, 23.75], [27.367739, 44.560519, 25.0], [27.367621, 44.560511, 25.5], [27.366973, 44.560467, 24.5], [27.366503, 44.560454, 24.0], [27.366222, 44.560443, 24.0], [27.365455, 44.560425, 23.5], [27.364824, 44.560419, 24.0], [27.364677, 44.56039, 23.75], [27.364219, 44.560216, 22.75], [27.36402, 44.56021, 21.75], [27.363712, 44.560205, 19.75], [27.363366, 44.560169, 19.0], [27.363224, 44.560148, 19.5], [27.362389, 44.560018, 23.5], [27.362029, 44.560001, 24.5], [27.361832, 44.560044, 25.25], [27.361598, 44.560072, 25.75], [27.36137, 44.560088, 25.5], [27.361092, 44.560079, 24.75], [27.360954, 44.560056, 24.5], [27.361022, 44.559877, 24.0], [27.361067, 44.55978, 24.0], [27.361332, 44.559345, 24.0], [27.361587, 44.558927, 25.25], [27.361373, 44.558639, 27.75], [27.361518, 44.558659, 26.0]]}}]}