{"type": "FeatureCollection", "features": [{"type": "Feature", "properties": {"creator": "BRouter-1.7.10", "name": "brouter_trekking_0", "track-length": "214", "filtered ascend": "0", "plain-ascend": "-1", "total-time": "32", "total-energy": "3240", "cost": "381", "messages": [["Longitude", "Latitude", "Elevation", "Distance", "CostPerKm", "ElevCost", "TurnCost", "NodeCost", "InitialCost", "WayTags", "NodeTags", "Time", "Energy"], ["27360887", "44562026", "27", "12", "1450", "0", "0", "0", "0", "reversedirection=yes highway=tertiary surface=asphalt", "highway=crossing crossing=uncontrolled", "2", "215"], ["27360890", "44562148", "26", "14", "1450", "0", "0", "0", "0", "reversedirection=yes highway=tertiary surface=asphalt", "estimated_crossing_class=5", "4", "421"], ["27360893", "44562252", "25", "12", "1450", "0", "0", "0", "0", "reversedirection=yes highway=tertiary surface=asphalt", "highway=crossing crossing=zebra", "5", "574"], ["27360931", "44563248", "26", "110", "1450", "0", "0", "0", "0", "reversedirection=yes highway=tertiary surface=asphalt", "", "22", "2249"], ["27360110", "44563263", "24", "66", "1150", "0", "91", "0", "0", "highway=residential surface=asphalt oneway=no", "", "32", "3240"]], "times": [0, 2.15, 4.219, 5.743, 7.048, 10.398, 11.47, 19.408, 22.489, 32.257, 32.403]}, "geometry": {"type": "LineString", "coordinates": [[27.360882, 44.561922, 26.75], [27.360887, 44.562026, 27.0], [27.36089, 44.562148, 26.25], [27.360893, 44.562252, 25.5], [27.360899, 44.562345, 25.5], [27.360907, 44.56258, 25.25], [27.360912, 44.562653, 25.25], [27.360924, 44.563112, 25.75], [27.360931, 44.563248, 26.75], [27.360115, 44.563264, 25.5], [27.36011, 44.563263, 24.75]]}}]}