{"type": "FeatureCollection", "features": [{"type": "Feature", "properties": {"creator": "BRouter-1.7.10", "name": "brouter_trekking_0", "track-length": "807", "filtered ascend": "4", "plain-ascend": "1", "total-time": "141", "total-energy": "14119", "cost": "2612", "messages": [["Longitude", "Latitude", "Elevation", "Distance", "CostPerKm", "ElevCost", "TurnCost", "NodeCost", "InitialCost", "WayTags", "NodeTags", "Time", "Energy"], ["27363294", "44562004", "24", "26", "5050", "0", "90", "0", "0", "highway=footway", "", "4", "436"], ["27363291", "44562116", "24", "12", "1150", "0", "93", "0", "0", "highway=residential", "estimated_crossing_class=5", "6", "638"], ["27363636", "44562119", "25", "27", "3050", "0", "90", "0", "0", "highway=primary surface=asphalt smoothness=excellent oneway=no", "estimated_crossing_class=5", "12", "1217"], ["27363914", "44562121", "26", "22", "3050", "0", "0", "0", "0", "highway=primary surface=asphalt smoothness=excellent oneway=no", "highway=crossing estimated_crossing_class=5", "19", "1901"], ["27364130", "44562122", "28", "17", "3050", "0", "0", "0", "0", "highway=primary surface=asphalt smoothness=excellent oneway=no", "estimated_crossing_class=5", "22", "2227"], ["27364315", "44562123", "28", "15", "3050", "0", "0", "0", "0", "highway=primary surface=asphalt smoothness=excellent oneway=no", "highway=crossing estimated_crossing_class=5", "25", "2508"], ["27364727", "44562123", "27", "33", "3050", "0", "0", "0", "0", "highway=primary surface=asphalt smoothness=excellent oneway=no", "estimated_crossing_class=5", "35", "3529"], ["27365877", "44562128", "23", "91", "3050", "0", "0", "0", "0", "highway=primary surface=asphalt smoothness=excellent oneway=no", "highway=crossing estimated_crossing_class=5", "45", "4591"], ["27366253", "44562127", "23", "30", "3050", "0", "0", "0", "0", "highway=primary surface=asphalt smoothness=excellent oneway=no", "estimated_crossing_class=5", "49", "5000"], ["27366253", "44561996", "23", "15", "1350", "0", "89", "0", "0", "highway=service oneway=yes", "highway=crossing", "52", "5240"], ["27366251", "44561413", "24", "65", "1350", "0", "0", "0", "0", "highway=service oneway=yes", "", "63", "6397"], ["27366485", "44561168", "25", "33", "1150", "0", "43", "0", "0", "highway=residential surface=asphalt", "", "70", "7093"], ["27368370", "44561194", "24", "150", "1150", "0", "62", "0", "0", "highway=residential surface=asphalt oneway=no", "", "96", "9662"], ["27368560", "44561248", "24", "17", "1150", "0", "23", "0", "0", "highway=residential oneway=no", "", "99", "9924"], ["27370599", "44561480", "23", "184", "1150", "0", "92", "0", "0", "highway=residential surface=asphalt oneway=no", "", "126", "12610"], ["27370839", "44560989", "24", "70", "5050", "0", "262", "0", "0", "reversedirection=yes highway=footway", "", "141", "14119"]], "times": [0, 1.848, 4.368, 6.384, 12.176, 19.011, 22.268, 25.085, 35.288, 45.903, 49.998, 52.394, 59.347, 63.959, 66.341, 68.452, 70.925, 75.809, 87.631, 88.445, 96.61, 97.838, 98.61, 99.23, 105.884, 111.879, 114.333, 115.646, 117.835, 118.671, 119.604, 121.74, 122.972, 123.746, 126.087, 138.149, 141.18]}, "geometry": {"type": "LineString", "coordinates": [[27.363097, 44.561909, 24.0], [27.3631, 44.562007, 24.0], [27.363294, 44.562004, 24.0], [27.363291, 44.562116, 24.0], [27.363636, 44.562119, 25.0], [27.363914, 44.562121, 26.75], [27.36413, 44.562122, 28.25], [27.364315, 44.562123, 28.25], [27.364727, 44.562123, 27.5], [27.365877, 44.562128, 23.25], [27.366253, 44.562127, 23.25], [27.366253, 44.561996, 23.75], [27.366252, 44.561613, 23.75], [27.366251, 44.561413, 24.75], [27.366365, 44.56135, 25.0], [27.366436, 44.561273, 25.0], [27.366485, 44.561168, 25.0], [27.366773, 44.56117, 25.25], [27.367613, 44.561176, 24.75], [27.36768, 44.561176, 24.5], [27.36837, 44.561194, 24.0], [27.368471, 44.5612, 24.0], [27.368535, 44.561218, 24.0], [27.36856, 44.561248, 24.0], [27.369207, 44.561244, 23.0], [27.369711, 44.561246, 23.25], [27.369882, 44.561192, 23.5], [27.369973, 44.56117, 23.5], [27.370156, 44.561177, 23.0], [27.370224, 44.561201, 22.75], [27.370294, 44.561238, 22.5], [27.370455, 44.561277, 23.0], [27.370542, 44.561307, 23.0], [27.370581, 44.561345, 23.0], [27.370599, 44.56148, 23.0], [27.370645, 44.56099, 24.5], [27.370839, 44.560989, 24.5]]}}]}