{"type": "FeatureCollection", "features": [{"type": "Feature", "properties": {"creator": "BRouter-1.7.10", "name": "brouter_trekking_0", "track-length": "1697", "filtered ascend": "5", "plain-ascend": "0", "total-time": "293", "total-energy": "29268", "cost": "2923", "messages": [["Longitude", "Latitude", "Elevation", "Distance", "CostPerKm", "ElevCost", "TurnCost", "NodeCost", "InitialCost", "WayTags", "NodeTags", "Time", "Energy"], ["27354971", "44562201", "25", "61", "5050", "0", "0", "0", "0", "reversedirection=yes highway=footway", "highway=crossing", "9", "976"], ["27354998", "44562336", "25", "15", "1150", "0", "93", "0", "0", "reversedirection=yes highway=residential surface=asphalt", "estimated_crossing_class=5", "12", "1235"], ["27355016", "44562420", "25", "9", "1150", "0", "0", "0", "0", "highway=residential surface=asphalt oneway=yes", "highway=crossing crossing=zebra", "14", "1401"], ["27355374", "44564644", "24", "249", "1150", "0", "0", "0", "0", "highway=residential surface=asphalt oneway=yes", "", "51", "5168"], ["27355483", "44564645", "24", "9", "1450", "0", "91", "0", "0", "highway=tertiary surface=asphalt oneway=yes", "highway=crossing crossing=uncontrolled", "53", "5335"], ["27357365", "44564651", "25", "149", "1450", "0", "0", "0", "0", "highway=tertiary surface=asphalt oneway=yes", "highway=crossing", "82", "8275"], ["27358286", "44564654", "30", "73", "1450", "0", "0", "0", "0", "highway=tertiary surface=asphalt oneway=yes", "highway=crossing", "101", "10179"], ["27359762", "44564654", "24", "118", "1450", "0", "0", "0", "0", "highway=tertiary surface=asphalt oneway=yes", "highway=crossing", "119", "11983"], ["27361170", "44564399", "28", "117", "1450", "0", "2", "0", "0", "highway=tertiary surface=asphalt oneway=yes", "highway=crossing", "144", "14473"], ["27363536", "44564052", "23", "194", "1450", "0", "0", "0", "0", "highway=tertiary surface=asphalt oneway=yes", "highway=crossing", "171", "17116"], ["27363887", "44563848", "24", "37", "1450", "0", "0", "0", "0", "highway=tertiary surface=asphalt oneway=yes", "", "176", "17675"], ["27363897", "44563794", "23", "6", "1450", "0", "20", "0", "0", "reversedirection=yes highway=tertiary surface=asphalt oneway=no", "highway=crossing", "177", "17762"], ["27364040", "44563082", "24", "79", "1450", "0", "0", "0", "0", "reversedirection=yes highway=tertiary surface=asphalt oneway=no", "", "190", "19023"], ["27366509", "44563194", "23", "197", "1150", "0", "86", "0", "0", "highway=residential surface=asphalt oneway=yes", "highway=crossing crossing=uncontrolled", "220", "22007"], ["27368156", "44563199", "25", "130", "1150", "0", "0", "0", "0", "highway=residential surface=asphalt oneway=yes", "highway=crossing crossing=uncontrolled", "248", "24871"], ["27368764", "44563418", "24", "55", "1150", "0", "13", "0", "0", "highway=residential surface=asphalt oneway=yes", "", "257", "25801"], ["27369831", "44562680", "24", "118", "1150", "0", "69", "0", "0", "highway=residential surface=asphalt", "highway=crossing", "276", "27622"], ["27369896", "44562528", "24", "24", "1150", "0", "86", "0", "0", "highway=residential surface=asphalt", "highway=crossing", "280", "28092"], ["27369579", "44562222", "25", "42", "1150", "0", "0", "0", "0", "highway=residential surface=asphalt", "highway=crossing", "290", "29004"], ["27369488", "44562139", "24", "12", "1150", "0", "0", "0", "0", "highway=residential surface=asphalt", "estimated_crossing_class=4", "292", "29218"], ["27369455", "44562138", "24", "3", "3050", "0", "34", "0", "0", "reversedirection=yes highway=primary surface=asphalt smoothness=excellent oneway=no", "", "292", "29268"]], "times": [0, 0.336, 7.502, 9.762, 12.354, 14.01, 30.762, 45.622, 47.925, 51.682, 53.347, 80.818, 82.744, 85.56, 86.694, 101.777, 104.578, 114.482, 119.818, 120.988, 122.375, 123.741, 137.055, 140.351, 144.706, 158.119, 159.778, 163.157, 164.552, 167.188, 168.538, 171.14, 172.93, 174.44, 176.732, 177.602, 181.537, 185.428, 190.206, 192.646, 203.116, 213.609, 220.041, 221.908, 233.784, 248.674, 250.687, 257.981, 262.808, 270.165, 276.19, 278.869, 280.885, 290.002, 292.146, 292.644]}, "geometry": {"type": "LineString", "coordinates": [[27.355727, 44.562143, 25.25], [27.355708, 44.562144, 25.25], [27.355141, 44.562188, 25.0], [27.354971, 44.562201, 25.0], [27.354998, 44.562336, 25.25], [27.355016, 44.56242, 25.5], [27.355226, 44.563373, 24.75], [27.355371, 44.564318, 23.75], [27.35538, 44.564461, 23.5], [27.355374, 44.564644, 24.5], [27.355483, 44.564645, 24.5], [27.357238, 44.564649, 25.25], [27.357365, 44.564651, 25.5], [27.357525, 44.564651, 26.0], [27.357592, 44.564651, 26.25], [27.358286, 44.564654, 30.5], [27.358421, 44.564655, 30.75], [27.359213, 44.564657, 26.0], [27.359762, 44.564654, 24.5], [27.359871, 44.564654, 24.5], [27.360002, 44.564637, 24.25], [27.360122, 44.564613, 24.5], [27.36081, 44.564436, 26.75], [27.360975, 44.564415, 27.5], [27.36117, 44.564399, 28.0], [27.362201, 44.564337, 26.25], [27.362346, 44.564327, 25.5], [27.362732, 44.564283, 24.0], [27.362891, 44.564252, 23.5], [27.363187, 44.564178, 23.0], [27.363323, 44.564135, 23.0], [27.363536, 44.564052, 23.75], [27.363657, 44.563993, 24.0], [27.36375, 44.563939, 24.0], [27.363887, 44.563848, 24.0], [27.363897, 44.563794, 23.75], [27.363953, 44.563541, 23.5], [27.363999, 44.563291, 23.25], [27.36404, 44.563082, 24.75], [27.3642, 44.563093, 24.5], [27.36519, 44.563182, 22.75], [27.365992, 44.563194, 23.25], [27.366509, 44.563194, 23.0], [27.366652, 44.563194, 23.25], [27.367411, 44.563191, 24.0], [27.368156, 44.563199, 25.5], [27.368275, 44.5632, 25.5], [27.368764, 44.563418, 24.25], [27.36908, 44.563198, 23.5], [27.369512, 44.562865, 23.5], [27.369831, 44.56268, 24.25], [27.36997, 44.562598, 24.5], [27.369896, 44.562528, 24.75], [27.369579, 44.562222, 25.25], [27.369488, 44.562139, 24.75], [27.369455, 44.562138, 24.5]]}}]}