{"type": "FeatureCollection", "features": [{"type": "Feature", "properties": {"creator": "BRouter-1.7.10", "name": "brouter_trekking_0", "track-length": "2149", "filtered ascend": "2", "plain-ascend": "-5", "total-time": "341", "total-energy": "34146", "cost": "3677", "messages": [["Longitude", "Latitude", "Elevation", "Distance", "CostPerKm", "ElevCost", "TurnCost", "NodeCost", "InitialCost", "WayTags", "NodeTags", "Time", "Energy"], ["27371011", "44560989", "24", "14", "5050", "0", "0", "0", "0", "reversedirection=yes highway=footway", "", "2", "235"], ["27371009", "44561491", "23", "56", "5050", "0", "90", "0", "0", "highway=footway", "", "9", "945"], ["27372849", "44561588", "24", "151", "1150", "0", "155", "0", "0", "highway=residential surface=asphalt oneway=no", "", "38", "3807"], ["27372855", "44562012", "26", "47", "1150", "0", "89", "0", "0", "highway=residential oneway=yes", "highway=crossing", "49", "4921"], ["27372857", "44562162", "26", "17", "1150", "0", "0", "0", "0", "highway=residential oneway=yes", "estimated_crossing_class=4", "53", "5364"], ["27373708", "44562154", "24", "68", "3050", "0", "90", "0", "0", "highway=primary surface=asphalt smoothness=excellent oneway=no", "estimated_crossing_class=4", "63", "6393"], ["27373708", "44562252", "24", "11", "1450", "0", "91", "0", "0", "highway=tertiary surface=asphalt oneway=yes", "highway=crossing", "65", "6555"], ["27373561", "44562856", "24", "71", "1450", "0", "9", "0", "0", "highway=tertiary surface=asphalt oneway=yes", "", "75", "7554"], ["27373256", "44562983", "24", "28", "1450", "0", "1", "0", "0", "reversedirection=yes highway=tertiary surface=asphalt", "", "79", "7975"], ["27373353", "44563105", "24", "16", "1150", "0", "89", "0", "0", "highway=residential surface=asphalt oneway=yes", "highway=crossing crossing=uncontrolled", "82", "8221"], ["27376007", "44565435", "22", "335", "1150", "0", "0", "0", "0", "highway=residential surface=asphalt oneway=yes", "highway=crossing crossing=uncontrolled", "129", "12997"], ["27376090", "44565498", "22", "10", "1150", "0", "0", "0", "0", "highway=residential surface=asphalt oneway=yes", "", "131", "13167"], ["27380280", "44568484", "20", "470", "1150", "0", "0", "0", "0", "reversedirection=yes highway=residential surface=asphalt", "", "204", "20488"], ["27379304", "44570323", "22", "218", "1150", "0", "62", "0", "0", "reversedirection=yes highway=residential oneway=no", "", "249", "24908"], ["27378067", "44572982", "21", "311", "1150", "0", "2", "0", "0", "reversedirection=yes highway=residential", "highway=crossing crossing=uncontrolled", "297", "29711"], ["27377062", "44574800", "13", "230", "1150", "0", "90", "0", "0", "reversedirection=yes highway=residential", "highway=crossing crossing=uncontrolled", "326", "32609"], ["27375919", "44574538", "18", "96", "1150", "0", "0", "0", "0", "reversedirection=yes highway=residential", "", "341", "34146"]], "times": [0, 2.352, 9.452, 10.819, 12.492, 36.244, 38.071, 49.209, 53.638, 63.92, 65.542, 71.308, 72.599, 73.469, 74.346, 75.527, 79.743, 82.204, 85.954, 91.992, 94.578, 98.851, 103.555, 110.766, 117.503, 129.951, 131.647, 147.844, 160.75, 171.288, 172.031, 181.983, 204.848, 207.014, 210.077, 249.042, 267.465, 268.784, 295.048, 297.063, 324.423, 326.037, 332.155, 341.401]}, "geometry": {"type": "LineString", "coordinates": [[27.370839, 44.560989, 24.5], [27.371011, 44.560989, 24.5], [27.371009, 44.561491, 23.0], [27.371137, 44.561495, 23.0], [27.371229, 44.561585, 23.0], [27.372721, 44.561588, 24.75], [27.372849, 44.561588, 24.75], [27.372855, 44.562012, 26.0], [27.372857, 44.562162, 26.75], [27.373708, 44.562154, 24.75], [27.373708, 44.562252, 24.5], [27.373711, 44.562628, 24.0], [27.373704, 44.562708, 24.0], [27.373683, 44.562764, 24.0], [27.37364, 44.56281, 24.0], [27.373561, 44.562856, 24.0], [27.373256, 44.562983, 24.0], [27.373353, 44.563105, 24.0], [27.373506, 44.563296, 24.0], [27.373823, 44.563659, 22.75], [27.373975, 44.56381, 22.25], [27.374256, 44.564044, 22.0], [27.374531, 44.564261, 22.25], [27.374936, 44.564585, 22.25], [27.375391, 44.564946, 21.0], [27.376007, 44.565435, 22.0], [27.37609, 44.565498, 22.0], [27.376978, 44.566136, 21.75], [27.377792, 44.566722, 20.75], [27.378518, 44.567255, 19.5], [27.378566, 44.567289, 19.75], [27.378995, 44.567579, 21.25], [27.38028, 44.568484, 20.25], [27.3802, 44.568601, 20.0], [27.380058, 44.568783, 19.25], [27.379304, 44.570323, 22.0], [27.378772, 44.571429, 17.5], [27.378756, 44.5715, 17.75], [27.378107, 44.572896, 20.5], [27.378067, 44.572982, 21.25], [27.377222, 44.574837, 14.75], [27.377062, 44.5748, 13.75], [27.376492, 44.574669, 16.5], [27.375919, 44.574538, 18.5]]}}]}