{"type": "FeatureCollection", "features": [{"type": "Feature", "properties": {"creator": "BRouter-1.7.10", "name": "brouter_trekking_0", "track-length": "1211", "filtered ascend": "2", "plain-ascend": "-7", "total-time": "187", "total-energy": "18713", "cost": "2144", "messages": [["Longitude", "Latitude", "Elevation", "Distance", "CostPerKm", "ElevCost", "TurnCost", "NodeCost", "InitialCost", "WayTags", "NodeTags", "Time", "Energy"], ["27357526", "44564758", "25", "41", "1450", "0", "0", "0", "0", "highway=tertiary surface=asphalt oneway=yes", "", "4", "407"], ["27357525", "44564651", "26", "12", "5150", "0", "88", "0", "0", "reversedirection=yes highway=residential surface=asphalt oneway=yes", "", "5", "544"], ["27358286", "44564654", "30", "60", "1450", "0", "90", "0", "0", "highway=tertiary surface=asphalt oneway=yes", "highway=crossing", "15", "1534"], ["27359762", "44564654", "24", "118", "1450", "0", "0", "0", "0", "highway=tertiary surface=asphalt oneway=yes", "highway=crossing", "30", "3018"], ["27361170", "44564399", "28", "117", "1450", "0", "2", "0", "0", "highway=tertiary surface=asphalt oneway=yes", "highway=crossing", "53", "5367"], ["27363536", "44564052", "23", "194", "1450", "0", "0", "0", "0", "highway=tertiary surface=asphalt oneway=yes", "highway=crossing", "79", "7972"], ["27363887", "44563848", "24", "37", "1450", "0", "0", "0", "0", "highway=tertiary surface=asphalt oneway=yes", "", "85", "8529"], ["27363897", "44563794", "23", "6", "1450", "0", "20", "0", "0", "reversedirection=yes highway=tertiary surface=asphalt oneway=no", "highway=crossing", "86", "8616"], ["27364128", "44562198", "28", "177", "1450", "0", "0", "0", "0", "reversedirection=yes highway=tertiary surface=asphalt oneway=no", "highway=crossing", "122", "12248"], ["27364130", "44562122", "28", "8", "1450", "0", "0", "0", "0", "reversedirection=yes highway=tertiary surface=asphalt oneway=no", "estimated_crossing_class=5", "125", "12532"], ["27364129", "44562004", "27", "13", "1150", "0", "0", "0", "0", "highway=residential surface=asphalt", "highway=crossing", "129", "12917"], ["27364020", "44560210", "21", "199", "1150", "0", "0", "0", "0", "highway=residential surface=asphalt", "", "158", "15889"], ["27364219", "44560216", "22", "16", "1150", "0", "95", "0", "0", "highway=residential", "", "160", "16065"], ["27364477", "44558983", "21", "138", "1150", "0", "89", "0", "0", "reversedirection=yes highway=residential", "", "177", "17757"], ["27365368", "44559196", "21", "75", "1150", "0", "95", "0", "0", "highway=residential surface=asphalt", "", "187", "18713"]], "times": [0, 4.07, 5.446, 6.065, 15.342, 17.319, 25.349, 30.183, 31.26, 32.551, 33.823, 46.313, 49.47, 53.669, 66.782, 68.421, 71.774, 73.161, 75.784, 77.128, 79.718, 81.5, 83.004, 85.289, 86.156, 90.082, 93.966, 98.736, 106.515, 118.556, 122.465, 125.305, 129.16, 133.385, 135.663, 137.371, 139.263, 140.58, 158.868, 160.631, 170.545, 173.128, 175.422, 176.414, 177.551, 187.11]}, "geometry": {"type": "LineString", "coordinates": [[27.358047, 44.564761, 28.75], [27.357526, 44.564758, 25.75], [27.357525, 44.564651, 26.0], [27.357592, 44.564651, 26.25], [27.358286, 44.564654, 30.5], [27.358421, 44.564655, 30.75], [27.359213, 44.564657, 26.0], [27.359762, 44.564654, 24.5], [27.359871, 44.564654, 24.5], [27.360002, 44.564637, 24.25], [27.360122, 44.564613, 24.5], [27.36081, 44.564436, 26.75], [27.360975, 44.564415, 27.5], [27.36117, 44.564399, 28.0], [27.362201, 44.564337, 26.25], [27.362346, 44.564327, 25.5], [27.362732, 44.564283, 24.0], [27.362891, 44.564252, 23.5], [27.363187, 44.564178, 23.0], [27.363323, 44.564135, 23.0], [27.363536, 44.564052, 23.75], [27.363657, 44.563993, 24.0], [27.36375, 44.563939, 24.0], [27.363887, 44.563848, 24.0], [27.363897, 44.563794, 23.75], [27.363953, 44.563541, 23.5], [27.363999, 44.563291, 23.25], [27.36404, 44.563082, 24.75], [27.364082, 44.562787, 25.5], [27.364118, 44.5624, 26.75], [27.364128, 44.562198, 28.5], [27.36413, 44.562122, 28.25], [27.364129, 44.562004, 27.75], [27.364116, 44.56168, 24.0], [27.364086, 44.561519, 24.0], [27.364062, 44.561402, 24.0], [27.36405, 44.561276, 24.0], [27.364049, 44.561195, 24.25], [27.36402, 44.56021, 21.75], [27.364219, 44.560216, 22.75], [27.364278, 44.559531, 23.0], [27.364336, 44.559344, 22.25], [27.364412, 44.559154, 21.0], [27.364442, 44.559074, 21.0], [27.364477, 44.558983, 21.0], [27.365368, 44.559196, 21.0]]}}]}