{"type": "FeatureCollection", "features": [{"type": "Feature", "properties": {"creator": "BRouter-1.7.10", "name": "brouter_trekking_0", "track-length": "804", "filtered ascend": "0", "plain-ascend": "0", "total-time": "133", "total-energy": "13313", "cost": "3104", "messages": [["Longitude", "Latitude", "Elevation", "Distance", "CostPerKm", "ElevCost", "TurnCost", "NodeCost", "InitialCost", "WayTags", "NodeTags", "Time", "Energy"], ["27360887", "44562026", "27", "12", "1450", "0", "0", "0", "0", "reversedirection=yes highway=tertiary surface=asphalt", "highway=crossing crossing=uncontrolled", "2", "215"], ["27360890", "44562148", "26", "14", "1450", "0", "0", "0", "0", "reversedirection=yes highway=tertiary surface=asphalt", "estimated_crossing_class=5", "4", "421"], ["27360671", "44562155", "26", "17", "3050", "0", "87", "0", "0", "reversedirection=yes highway=primary surface=asphalt smoothness=excellent oneway=no", "highway=crossing estimated_crossing_class=0 crossing=zebra", "7", "710"], ["27359190", "44562189", "26", "118", "3050", "0", "0", "0", "0", "reversedirection=yes highway=primary surface=asphalt smoothness=excellent oneway=no", "estimated_crossing_class=5", "27", "2703"], ["27358795", "44562198", "26", "31", "3050", "0", "0", "0", "0", "reversedirection=yes highway=primary surface=asphalt smoothness=excellent oneway=no", "highway=crossing estimated_crossing_class=5 crossing=uncontrolled", "31", "3146"], ["27356442", "44562255", "26", "187", "3050", "0", "0", "0", "0", "reversedirection=yes highway=primary surface=asphalt smoothness=excellent oneway=no", "highway=crossing estimated_crossing_class=5", "61", "6128"], ["27355169", "44562322", "25", "101", "3050", "0", "0", "0", "0", "reversedirection=yes highway=primary surface=asphalt smoothness=excellent oneway=no", "highway=crossing estimated_crossing_class=0 crossing=zebra", "75", "7564"], ["27354998", "44562336", "25", "14", "3050", "0", "0", "0", "0", "reversedirection=yes highway=primary surface=asphalt smoothness=excellent oneway=no", "estimated_crossing_class=5", "77", "7785"], ["27354854", "44562347", "25", "12", "3050", "0", "0", "0", "0", "reversedirection=yes highway=primary surface=asphalt smoothness=excellent oneway=no", "highway=crossing estimated_crossing_class=0 crossing=zebra", "79", "7988"], ["27352994", "44562526", "26", "149", "3050", "0", "0", "0", "0", "reversedirection=yes highway=primary surface=asphalt smoothness=excellent oneway=no", "highway=crossing estimated_crossing_class=5", "106", "10685"], ["27352917", "44562532", "26", "6", "3050", "0", "0", "0", "0", "reversedirection=yes highway=primary surface=asphalt smoothness=excellent oneway=no", "estimated_crossing_class=5", "107", "10789"], ["27352889", "44562400", "25", "15", "1150", "0", "86", "0", "0", "highway=residential surface=asphalt oneway=yes", "", "110", "11033"], ["27351513", "44562533", "26", "110", "5050", "0", "88", "0", "0", "reversedirection=yes highway=footway", "", "130", "13001"], ["27351583", "44562398", "26", "16", "5050", "0", "132", "0", "0", "highway=footway", "", "132", "13278"], ["27351611", "44562401", "26", "2", "5050", "0", "72", "0", "0", "reversedirection=yes highway=footway", "", "133", "13313"]], "times": [0, 2.15, 4.219, 7.104, 27.037, 31.459, 43.792, 61.277, 65.243, 75.643, 77.85, 79.88, 106.85, 107.89, 110.324, 130.007, 132.782, 133.128]}, "geometry": {"type": "LineString", "coordinates": [[27.360882, 44.561922, 26.75], [27.360887, 44.562026, 27.0], [27.36089, 44.562148, 26.25], [27.360671, 44.562155, 26.75], [27.35919, 44.562189, 26.75], [27.358795, 44.562198, 26.0], [27.357867, 44.562225, 26.5], [27.356442, 44.562255, 26.0], [27.356111, 44.562267, 25.75], [27.355169, 44.562322, 25.0], [27.354998, 44.562336, 25.25], [27.354854, 44.562347, 25.5], [27.352994, 44.562526, 26.0], [27.352917, 44.562532, 26.0], [27.352889, 44.5624, 25.75], [27.351513, 44.562533, 26.25], [27.351583, 44.562398, 26.25], [27.351611, 44.562401, 26.5]]}}]}