{"type": "FeatureCollection", "features": [{"type": "Feature", "properties": {"creator": "BRouter-1.7.10", "name": "brouter_trekking_0", "track-length": "593", "filtered ascend": "4", "plain-ascend": "-1", "total-time": "96", "total-energy": "9650", "cost": "1230", "messages": [["Longitude", "Latitude", "Elevation", "Distance", "CostPerKm", "ElevCost", "TurnCost", "NodeCost", "InitialCost", "WayTags", "NodeTags", "Time", "Energy"], ["27359976", "44564905", "25", "50", "1150", "0", "0", "0", "0", "reversedirection=yes highway=residential", "highway=crossing", "7", "721"], ["27359873", "44564903", "25", "8", "1150", "0", "0", "0", "0", "reversedirection=yes highway=residential", "", "8", "834"], ["27359766", "44564773", "25", "22", "1450", "0", "171", "0", "0", "highway=tertiary surface=asphalt oneway=yes", "highway=crossing", "11", "1136"], ["27358283", "44564763", "30", "118", "1450", "0", "0", "0", "0", "highway=tertiary surface=asphalt oneway=yes", "highway=crossing", "36", "3607"], ["27357360", "44564756", "25", "73", "1450", "0", "0", "0", "0", "highway=tertiary surface=asphalt oneway=yes", "highway=crossing", "46", "4627"], ["27355483", "44564736", "25", "149", "1450", "0", "0", "0", "0", "highway=tertiary surface=asphalt oneway=yes", "highway=crossing crossing=uncontrolled", "67", "6781"], ["27353786", "44564718", "24", "135", "1450", "0", "0", "0", "0", "highway=tertiary surface=asphalt oneway=yes", "highway=crossing crossing=uncontrolled", "91", "9143"], ["27353782", "44564631", "24", "10", "5050", "0", "86", "0", "0", "highway=footway", "highway=crossing crossing=uncontrolled", "92", "9272"], ["27354137", "44564633", "24", "28", "1450", "0", "94", "0", "0", "highway=tertiary surface=asphalt oneway=yes", "", "96", "9650"]], "times": [0, 7.212, 8.341, 10.244, 11.354, 20.155, 36.062, 44.532, 46.261, 67.781, 69.199, 86.957, 91.4, 92.697, 96.478]}, "geometry": {"type": "LineString", "coordinates": [[27.360604, 44.564922, 26.25], [27.359976, 44.564905, 25.5], [27.359873, 44.564903, 25.25], [27.359869, 44.564774, 25.0], [27.359766, 44.564773, 25.0], [27.359215, 44.564768, 26.5], [27.358283, 44.564763, 30.25], [27.357526, 44.564758, 25.75], [27.35736, 44.564756, 25.25], [27.355483, 44.564736, 25.0], [27.355373, 44.564735, 25.0], [27.354216, 44.564722, 26.0], [27.353786, 44.564718, 24.5], [27.353782, 44.564631, 24.25], [27.354137, 44.564633, 24.5]]}}]}