{"type": "FeatureCollection", "features": [{"type": "Feature", "properties": {"creator": "BRouter-1.7.10", "name": "brouter_trekking_0", "track-length": "1531", "filtered ascend": "9", "plain-ascend": "4", "total-time": "284", "total-energy": "28430", "cost": "2594", "messages": [["Longitude", "Latitude", "Elevation", "Distance", "CostPerKm", "ElevCost", "TurnCost", "NodeCost", "InitialCost", "WayTags", "NodeTags", "Time", "Energy"], ["27364477", "44558983", "21", "75", "1150", "0", "0", "0", "0", "reversedirection=yes highway=residential surface=asphalt", "", "12", "1260"], ["27364219", "44560216", "22", "138", "1150", "0", "96", "0", "0", "highway=residential", "", "42", "4238"], ["27364020", "44560210", "21", "16", "1150", "0", "88", "0", "0", "reversedirection=yes highway=residential", "", "44", "4479"], ["27364129", "44562004", "27", "199", "1150", "0", "95", "0", "0", "reversedirection=yes highway=residential surface=asphalt", "highway=crossing", "88", "8872"], ["27364130", "44562122", "28", "13", "1150", "0", "0", "0", "0", "reversedirection=yes highway=residential surface=asphalt", "estimated_crossing_class=5", "91", "9172"], ["27364128", "44562198", "28", "8", "1450", "0", "0", "0", "0", "highway=tertiary surface=asphalt oneway=no", "highway=crossing", "93", "9363"], ["27363897", "44563794", "23", "177", "1450", "0", "0", "0", "0", "highway=tertiary surface=asphalt oneway=no", "highway=crossing", "124", "12463"], ["27363887", "44563848", "24", "6", "1450", "0", "0", "0", "0", "highway=tertiary surface=asphalt oneway=no", "", "125", "12559"], ["27363606", "44564121", "23", "40", "1450", "0", "9", "0", "0", "highway=tertiary surface=asphalt oneway=yes", "highway=crossing", "131", "13192"], ["27361167", "44564483", "28", "200", "1450", "0", "0", "0", "0", "highway=tertiary surface=asphalt oneway=yes", "highway=crossing", "169", "16930"], ["27359766", "44564773", "25", "116", "1450", "0", "3", "0", "0", "highway=tertiary surface=asphalt oneway=yes", "highway=crossing", "192", "19234"], ["27358283", "44564763", "30", "118", "1450", "0", "0", "0", "0", "highway=tertiary surface=asphalt oneway=yes", "highway=crossing", "219", "21908"], ["27357360", "44564756", "25", "73", "1450", "0", "0", "0", "0", "highway=tertiary surface=asphalt oneway=yes", "highway=crossing", "229", "22954"], ["27355483", "44564736", "25", "149", "1450", "0", "0", "0", "0", "highway=tertiary surface=asphalt oneway=yes", "highway=crossing crossing=uncontrolled", "251", "25128"], ["27353786", "44564718", "24", "135", "1450", "0", "0", "0", "0", "highway=tertiary surface=asphalt oneway=yes", "highway=crossing crossing=uncontrolled", "274", "27496"], ["27353782", "44564631", "24", "10", "5050", "0", "86", "0", "0", "highway=footway", "highway=crossing crossing=uncontrolled", "276", "27626"], ["27354506", "44564636", "24", "58", "1450", "0", "94", "0", "0", "highway=tertiary surface=asphalt oneway=yes", "", "284", "28430"]], "times": [0, 12.6, 14.28, 15.792, 20.85, 26.328, 42.376, 44.785, 71.026, 72.733, 75.354, 77.754, 81.032, 88.709, 91.709, 93.621, 100.379, 108.886, 114.093, 116.793, 120.496, 124.619, 125.579, 126.863, 128.151, 129.767, 131.906, 134.676, 136.528, 140.792, 143.424, 150.072, 153.606, 169.28, 174.312, 178.102, 188.263, 189.814, 191.064, 192.32, 202.138, 219.051, 227.751, 229.51, 251.225, 252.648, 270.454, 274.902, 276.2, 284.247]}, "geometry": {"type": "LineString", "coordinates": [[27.365368, 44.559196, 21.0], [27.364477, 44.558983, 21.0], [27.364442, 44.559074, 21.0], [27.364412, 44.559154, 21.0], [27.364336, 44.559344, 22.25], [27.364278, 44.559531, 23.0], [27.364219, 44.560216, 22.75], [27.36402, 44.56021, 21.75], [27.364049, 44.561195, 24.25], [27.36405, 44.561276, 24.0], [27.364062, 44.561402, 24.0], [27.364086, 44.561519, 24.0], [27.364116, 44.56168, 24.0], [27.364129, 44.562004, 27.75], [27.36413, 44.562122, 28.25], [27.364128, 44.562198, 28.5], [27.364118, 44.5624, 26.75], [27.364082, 44.562787, 25.5], [27.36404, 44.563082, 24.75], [27.363999, 44.563291, 23.25], [27.363953, 44.563541, 23.5], [27.363897, 44.563794, 23.75], [27.363887, 44.563848, 24.0], [27.363864, 44.563915, 24.0], [27.363827, 44.563979, 24.0], [27.36375, 44.564052, 24.0], [27.363606, 44.564121, 23.75], [27.363381, 44.564211, 23.25], [27.36323, 44.56426, 23.25], [27.362917, 44.564341, 23.75], [27.36274, 44.564377, 24.0], [27.362372, 44.56442, 25.0], [27.36221, 44.564431, 26.0], [27.361167, 44.564483, 28.0], [27.360981, 44.564502, 27.5], [27.360822, 44.564529, 27.25], [27.360095, 44.56474, 25.25], [27.359974, 44.564762, 25.0], [27.359869, 44.564774, 25.0], [27.359766, 44.564773, 25.0], [27.359215, 44.564768, 26.5], [27.358283, 44.564763, 30.25], [27.357526, 44.564758, 25.75], [27.35736, 44.564756, 25.25], [27.355483, 44.564736, 25.0], [27.355373, 44.564735, 25.0], [27.354216, 44.564722, 26.0], [27.353786, 44.564718, 24.5], [27.353782, 44.564631, 24.25], [27.354506, 44.564636, 24.5]]}}]}