{"type": "FeatureCollection", "features": [{"type": "Feature", "properties": {"creator": "BRouter-1.7.10", "name": "brouter_trekking_0", "track-length": "1125", "filtered ascend": "4", "plain-ascend": "2", "total-time": "196", "total-energy": "19641", "cost": "2551", "messages": [["Longitude", "Latitude", "Elevation", "Distance", "CostPerKm", "ElevCost", "TurnCost", "NodeCost", "InitialCost", "WayTags", "NodeTags", "Time", "Energy"], ["27370599", "44561480", "23", "70", "5050", "0", "83", "0", "0", "highway=footway", "", "9", "948"], ["27369207", "44561244", "23", "133", "1150", "0", "227", "0", "0", "reversedirection=yes highway=residential surface=asphalt oneway=no", "", "29", "2953"], ["27368883", "44560542", "23", "100", "1350", "0", "129", "0", "0", "reversedirection=yes highway=service", "", "45", "4551"], ["27368486", "44560547", "23", "32", "1150", "0", "0", "0", "0", "reversedirection=yes highway=residential", "", "51", "5109"], ["27368381", "44560550", "23", "8", "1150", "0", "0", "0", "0", "highway=residential", "", "52", "5268"], ["27364219", "44560216", "22", "335", "1150", "0", "5", "0", "0", "highway=residential oneway=yes", "", "111", "11199"], ["27364020", "44560210", "21", "16", "1150", "0", "9", "0", "0", "reversedirection=yes highway=residential", "", "113", "11383"], ["27361092", "44560079", "24", "236", "1150", "0", "8", "0", "0", "highway=residential surface=asphalt", "highway=crossing crossing=uncontrolled", "160", "16072"], ["27360954", "44560056", "24", "11", "1150", "0", "1", "0", "0", "highway=residential surface=asphalt", "", "162", "16261"], ["27361587", "44558927", "25", "136", "1450", "0", "93", "0", "0", "highway=tertiary surface=asphalt", "", "186", "18669"], ["27361518", "44558659", "26", "48", "5050", "0", "181", "0", "0", "reversedirection=yes highway=footway", "", "196", "19641"]], "times": [0, 2.52, 9.485, 11.541, 12.239, 13.368, 15.172, 16.148, 17.047, 19.615, 20.981, 23.385, 29.527, 41.002, 41.915, 42.894, 45.513, 51.092, 52.675, 65.425, 67.736, 77.366, 83.273, 86.831, 95.899, 104.59, 106.529, 111.985, 113.826, 117.421, 121.095, 122.939, 136.031, 142.782, 147.003, 152.282, 156.609, 160.709, 162.598, 165.791, 167.488, 175.848, 186.67, 192.918, 196.394]}, "geometry": {"type": "LineString", "coordinates": [[27.370839, 44.560989, 24.5], [27.370645, 44.56099, 24.5], [27.370599, 44.56148, 23.0], [27.370581, 44.561345, 23.0], [27.370542, 44.561307, 23.0], [27.370455, 44.561277, 23.0], [27.370294, 44.561238, 22.5], [27.370224, 44.561201, 22.75], [27.370156, 44.561177, 23.0], [27.369973, 44.56117, 23.5], [27.369882, 44.561192, 23.5], [27.369711, 44.561246, 23.25], [27.369207, 44.561244, 23.0], [27.369203, 44.5606, 23.0], [27.369161, 44.560553, 22.75], [27.369085, 44.560536, 23.0], [27.368883, 44.560542, 23.0], [27.368486, 44.560547, 23.25], [27.368381, 44.56055, 23.75], [27.367739, 44.560519, 25.0], [27.367621, 44.560511, 25.5], [27.366973, 44.560467, 24.5], [27.366503, 44.560454, 24.0], [27.366222, 44.560443, 24.0], [27.365455, 44.560425, 23.5], [27.364824, 44.560419, 24.0], [27.364677, 44.56039, 23.75], [27.364219, 44.560216, 22.75], [27.36402, 44.56021, 21.75], [27.363712, 44.560205, 19.75], [27.363366, 44.560169, 19.0], [27.363224, 44.560148, 19.5], [27.362389, 44.560018, 23.5], [27.362029, 44.560001, 24.5], [27.361832, 44.560044, 25.25], [27.361598, 44.560072, 25.75], [27.36137, 44.560088, 25.5], [27.361092, 44.560079, 24.75], [27.360954, 44.560056, 24.5], [27.361022, 44.559877, 24.0], [27.361067, 44.55978, 24.0], [27.361332, 44.559345, 24.0], [27.361587, 44.558927, 25.25], [27.361373, 44.558639, 27.75], [27.361518, 44.558659, 26.0]]}}]}