{"type": "FeatureCollection", "features": [{"type": "Feature", "properties": {"creator": "BRouter-1.7.10", "name": "brouter_trekking_0", "track-length": "1925", "filtered ascend": "6", "plain-ascend": "0", "total-time": "332", "total-energy": "33201", "cost": "4195", "messages": [["Longitude", "Latitude", "Elevation", "Distance", "CostPerKm", "ElevCost", "TurnCost", "NodeCost", "InitialCost", "WayTags", "NodeTags", "Time", "Energy"], ["27354971", "44562201", "25", "61", "5050", "0", "0", "0", "0", "reversedirection=yes highway=footway", "highway=crossing", "9", "976"], ["27354998", "44562336", "25", "15", "1150", "0", "93", "0", "0", "reversedirection=yes highway=residential surface=asphalt", "estimated_crossing_class=5", "12", "1235"], ["27355016", "44562420", "25", "9", "1150", "0", "0", "0", "0", "highway=residential surface=asphalt oneway=yes", "highway=crossing crossing=zebra", "14", "1401"], ["27355374", "44564644", "24", "249", "1150", "0", "0", "0", "0", "highway=residential surface=asphalt oneway=yes", "", "51", "5168"], ["27355483", "44564645", "24", "9", "1450", "0", "91", "0", "0", "highway=tertiary surface=asphalt oneway=yes", "highway=crossing crossing=uncontrolled", "53", "5335"], ["27357365", "44564651", "25", "149", "1450", "0", "0", "0", "0", "highway=tertiary surface=asphalt oneway=yes", "highway=crossing", "82", "8275"], ["27358286", "44564654", "30", "73", "1450", "0", "0", "0", "0", "highway=tertiary surface=asphalt oneway=yes", "highway=crossing", "101", "10179"], ["27359762", "44564654", "24", "118", "1450", "0", "0", "0", "0", "highway=tertiary surface=asphalt oneway=yes", "highway=crossing", "119", "11983"], ["27361170", "44564399", "28", "117", "1450", "0", "2", "0", "0", "highway=tertiary surface=asphalt oneway=yes", "highway=crossing", "144", "14473"], ["27363536", "44564052", "23", "194", "1450", "0", "0", "0", "0", "highway=tertiary surface=asphalt oneway=yes", "highway=crossing", "171", "17116"], ["27363887", "44563848", "24", "37", "1450", "0", "0", "0", "0", "highway=tertiary surface=asphalt oneway=yes", "", "176", "17675"], ["27363897", "44563794", "23", "6", "1450", "0", "20", "0", "0", "reversedirection=yes highway=tertiary surface=asphalt oneway=no", "highway=crossing", "177", "17762"], ["27364128", "44562198", "28", "177", "1450", "0", "0", "0", "0", "reversedirection=yes highway=tertiary surface=asphalt oneway=no", "highway=crossing", "213", "21399"], ["27364130", "44562122", "28", "8", "1450", "0", "0", "0", "0", "reversedirection=yes highway=tertiary surface=asphalt oneway=no", "estimated_crossing_class=5", "216", "21683"], ["27364315", "44562123", "28", "15", "3050", "0", "89", "0", "0", "highway=primary surface=asphalt smoothness=excellent oneway=no", "highway=crossing estimated_crossing_class=5", "221", "22180"], ["27364727", "44562123", "27", "33", "3050", "0", "0", "0", "0", "highway=primary surface=asphalt smoothness=excellent oneway=no", "estimated_crossing_class=5", "229", "22988"], ["27365877", "44562128", "23", "91", "3050", "0", "0", "0", "0", "highway=primary surface=asphalt smoothness=excellent oneway=no", "highway=crossing estimated_crossing_class=5", "244", "24486"], ["27366253", "44562127", "23", "30", "3050", "0", "0", "0", "0", "highway=primary surface=asphalt smoothness=excellent oneway=no", "estimated_crossing_class=5", "249", "24985"], ["27366253", "44561996", "23", "15", "1350", "0", "89", "0", "0", "highway=service oneway=yes", "highway=crossing", "251", "25137"], ["27366251", "44561413", "24", "65", "1350", "0", "0", "0", "0", "highway=service oneway=yes", "", "259", "25952"], ["27366485", "44561168", "25", "33", "1150", "0", "43", "0", "0", "highway=residential surface=asphalt", "", "264", "26496"], ["27368370", "44561194", "24", "150", "1150", "0", "62", "0", "0", "highway=residential surface=asphalt oneway=no", "", "287", "28801"], ["27368560", "44561248", "24", "17", "1150", "0", "23", "0", "0", "highway=residential oneway=no", "", "290", "29053"], ["27370599", "44561480", "23", "184", "1150", "0", "92", "0", "0", "highway=residential surface=asphalt oneway=no", "", "316", "31699"], ["27370839", "44560989", "24", "70", "5050", "0", "262", "0", "0", "reversedirection=yes highway=footway", "", "331", "33201"]], "times": [0, 0.336, 7.502, 9.762, 12.354, 14.01, 30.762, 45.622, 47.925, 51.682, 53.347, 80.818, 82.744, 85.56, 86.694, 101.777, 104.578, 114.482, 119.818, 120.988, 122.375, 123.741, 137.055, 140.351, 144.706, 158.119, 159.778, 163.157, 164.552, 167.188, 168.538, 171.14, 172.93, 174.44, 176.732, 177.602, 181.537, 185.428, 190.206, 197.996, 210.046, 213.958, 216.799, 221.762, 229.84, 244.829, 249.816, 251.331, 256.139, 259.488, 261.296, 262.943, 264.924, 268.969, 279.489, 280.242, 287.97, 289.149, 289.892, 290.489, 296.983, 302.873, 305.293, 306.59, 308.756, 309.585, 310.511, 312.629, 313.852, 314.621, 316.947, 328.95, 331.971]}, "geometry": {"type": "LineString", "coordinates": [[27.355727, 44.562143, 25.25], [27.355708, 44.562144, 25.25], [27.355141, 44.562188, 25.0], [27.354971, 44.562201, 25.0], [27.354998, 44.562336, 25.25], [27.355016, 44.56242, 25.5], [27.355226, 44.563373, 24.75], [27.355371, 44.564318, 23.75], [27.35538, 44.564461, 23.5], [27.355374, 44.564644, 24.5], [27.355483, 44.564645, 24.5], [27.357238, 44.564649, 25.25], [27.357365, 44.564651, 25.5], [27.357525, 44.564651, 26.0], [27.357592, 44.564651, 26.25], [27.358286, 44.564654, 30.5], [27.358421, 44.564655, 30.75], [27.359213, 44.564657, 26.0], [27.359762, 44.564654, 24.5], [27.359871, 44.564654, 24.5], [27.360002, 44.564637, 24.25], [27.360122, 44.564613, 24.5], [27.36081, 44.564436, 26.75], [27.360975, 44.564415, 27.5], [27.36117, 44.564399, 28.0], [27.362201, 44.564337, 26.25], [27.362346, 44.564327, 25.5], [27.362732, 44.564283, 24.0], [27.362891, 44.564252, 23.5], [27.363187, 44.564178, 23.0], [27.363323, 44.564135, 23.0], [27.363536, 44.564052, 23.75], [27.363657, 44.563993, 24.0], [27.36375, 44.563939, 24.0], [27.363887, 44.563848, 24.0], [27.363897, 44.563794, 23.75], [27.363953, 44.563541, 23.5], [27.363999, 44.563291, 23.25], [27.36404, 44.563082, 24.75], [27.364082, 44.562787, 25.5], [27.364118, 44.5624, 26.75], [27.364128, 44.562198, 28.5], [27.36413, 44.562122, 28.25], [27.364315, 44.562123, 28.25], [27.364727, 44.562123, 27.5], [27.365877, 44.562128, 23.25], [27.366253, 44.562127, 23.25], [27.366253, 44.561996, 23.75], [27.366252, 44.561613, 23.75], [27.366251, 44.561413, 24.75], [27.366365, 44.56135, 25.0], [27.366436, 44.561273, 25.0], [27.366485, 44.561168, 25.0], [27.366773, 44.56117, 25.25], [27.367613, 44.561176, 24.75], [27.36768, 44.561176, 24.5], [27.36837, 44.561194, 24.0], [27.368471, 44.5612, 24.0], [27.368535, 44.561218, 24.0], [27.36856, 44.561248, 24.0], [27.369207, 44.561244, 23.0], [27.369711, 44.561246, 23.25], [27.369882, 44.561192, 23.5], [27.369973, 44.56117, 23.5], [27.370156, 44.561177, 23.0], [27.370224, 44.561201, 22.75], [27.370294, 44.561238, 22.5], [27.370455, 44.561277, 23.0], [27.370542, 44.561307, 23.0], [27.370581, 44.561345, 23.0], [27.370599, 44.56148, 23.0], [27.370645, 44.56099, 24.5], [27.370839, 44.560989, 24.5]]}}]}