{"type": "FeatureCollection", "features": [{"type": "Feature", "properties": {"creator": "BRouter-1.7.10", "name": "brouter_trekking_0", "track-length": "1886", "filtered ascend": "0", "plain-ascend": "-7", "total-time": "297", "total-energy": "29705", "cost": "2775", "messages": [["Longitude", "Latitude", "Elevation", "Distance", "CostPerKm", "ElevCost", "TurnCost", "NodeCost", "InitialCost", "WayTags", "NodeTags", "Time", "Energy"], ["27369488", "44562139", "24", "3", "3050", "0", "0", "0", "0", "highway=primary surface=asphalt smoothness=excellent oneway=no", "estimated_crossing_class=4", "0", "53"], ["27369579", "44562222", "25", "12", "1150", "0", "34", "0", "0", "reversedirection=yes highway=residential surface=asphalt", "highway=crossing", "2", "298"], ["27369896", "44562528", "24", "42", "1150", "0", "0", "0", "0", "reversedirection=yes highway=residential surface=asphalt", "highway=crossing", "10", "1029"], ["27370043", "44562660", "24", "19", "1150", "0", "0", "0", "0", "reversedirection=yes highway=residential surface=asphalt", "highway=crossing", "13", "1328"], ["27371506", "44563919", "22", "182", "1150", "0", "0", "0", "0", "reversedirection=yes highway=residential surface=asphalt", "highway=crossing", "37", "3736"], ["27371605", "44563996", "22", "12", "1150", "0", "0", "0", "0", "reversedirection=yes highway=residential surface=asphalt", "", "39", "3910"], ["27371528", "44564077", "21", "11", "1450", "0", "69", "0", "0", "reversedirection=yes highway=tertiary surface=asphalt", "highway=crossing", "40", "4055"], ["27370870", "44564832", "20", "98", "1450", "0", "0", "0", "0", "reversedirection=yes highway=tertiary surface=asphalt", "", "52", "5276"], ["27374631", "44567335", "21", "409", "1150", "0", "75", "0", "0", "highway=residential surface=asphalt", "", "121", "12188"], ["27373376", "44568913", "22", "201", "1150", "0", "70", "0", "0", "reversedirection=yes highway=residential surface=asphalt", "", "157", "15712"], ["27371917", "44570971", "22", "257", "1450", "0", "0", "0", "0", "reversedirection=yes highway=tertiary surface=asphalt", "highway=crossing crossing=uncontrolled", "202", "20225"], ["27371880", "44571048", "22", "9", "1450", "0", "0", "0", "0", "reversedirection=yes highway=tertiary surface=asphalt", "", "203", "20379"], ["27376552", "44572817", "15", "423", "1150", "0", "64", "0", "0", "highway=residential", "", "265", "26515"], ["27375788", "44574508", "18", "197", "1150", "0", "84", "0", "0", "reversedirection=yes highway=residential surface=asphalt", "", "295", "29545"], ["27375919", "44574538", "16", "11", "1150", "0", "90", "0", "0", "highway=residential", "", "297", "29705"]], "times": [0, 0.539, 2.988, 10.297, 11.916, 13.289, 16.053, 18.494, 25.5, 37.36, 39.1, 40.549, 43.608, 44.536, 52.762, 67.029, 89.041, 106.239, 121.873, 138.021, 157.112, 164.822, 185.231, 188.684, 192.544, 202.235, 203.78, 225.39, 227.78, 230.77, 236.932, 242.379, 254.769, 265.135, 274.394, 295.426, 297.018]}, "geometry": {"type": "LineString", "coordinates": [[27.369455, 44.562138, 24.5], [27.369488, 44.562139, 24.75], [27.369579, 44.562222, 25.25], [27.369896, 44.562528, 24.75], [27.36997, 44.562598, 24.5], [27.370043, 44.56266, 24.25], [27.370208, 44.562797, 23.75], [27.370361, 44.562923, 23.25], [27.370796, 44.563287, 23.0], [27.371506, 44.563919, 22.25], [27.371605, 44.563996, 22.25], [27.371528, 44.564077, 21.75], [27.371338, 44.56429, 20.5], [27.371283, 44.564355, 20.5], [27.37087, 44.564832, 20.75], [27.371624, 44.565304, 21.75], [27.372658, 44.566002, 22.5], [27.373621, 44.566664, 22.0], [27.374631, 44.567335, 21.0], [27.37393, 44.568193, 20.5], [27.373376, 44.568913, 22.0], [27.37308, 44.569271, 21.5], [27.37239, 44.570155, 22.0], [27.372272, 44.57032, 21.75], [27.372159, 44.570502, 22.0], [27.371917, 44.570971, 22.0], [27.37188, 44.571048, 22.0], [27.373376, 44.57181, 21.0], [27.373538, 44.571887, 21.0], [27.373777, 44.57199, 20.25], [27.374312, 44.572175, 19.75], [27.374795, 44.572318, 19.25], [27.375584, 44.572547, 20.5], [27.376552, 44.572817, 15.5], [27.376309, 44.573367, 15.5], [27.375788, 44.574508, 18.5], [27.375919, 44.574538, 16.5]]}}]}