{"type": "FeatureCollection", "features": [{"type": "Feature", "properties": {"creator": "BRouter-1.7.10", "name": "brouter_trekking_0", "track-length": "2503", "filtered ascend": "7", "plain-ascend": "-4", "total-time": "421", "total-energy": "42148", "cost": "3939", "messages": [["Longitude", "Latitude", "Elevation", "Distance", "CostPerKm", "ElevCost", "TurnCost", "NodeCost", "InitialCost", "WayTags", "NodeTags", "Time", "Energy"], ["27364477", "44558983", "21", "75", "1150", "0", "0", "0", "0", "reversedirection=yes highway=residential surface=asphalt", "", "12", "1260"], ["27364219", "44560216", "22", "138", "1150", "0", "96", "0", "0", "highway=residential", "", "42", "4238"], ["27364020", "44560210", "21", "16", "1150", "0", "88", "0", "0", "reversedirection=yes highway=residential", "", "44", "4479"], ["27364129", "44562004", "27", "199", "1150", "0", "95", "0", "0", "reversedirection=yes highway=residential surface=asphalt", "highway=crossing", "88", "8872"], ["27364130", "44562122", "28", "13", "1150", "0", "0", "0", "0", "reversedirection=yes highway=residential surface=asphalt", "estimated_crossing_class=5", "91", "9172"], ["27364128", "44562198", "28", "8", "1450", "0", "0", "0", "0", "highway=tertiary surface=asphalt oneway=no", "highway=crossing", "93", "9363"], ["27364040", "44563082", "24", "98", "1450", "0", "0", "0", "0", "highway=tertiary surface=asphalt oneway=no", "", "114", "11411"], ["27365190", "44563182", "22", "92", "1150", "0", "90", "0", "0", "highway=residential surface=asphalt oneway=yes", "", "125", "12541"], ["27365177", "44563955", "24", "86", "1150", "0", "80", "0", "0", "reversedirection=yes highway=residential surface=asphalt oneway=no", "highway=crossing crossing=uncontrolled", "142", "14209"], ["27365175", "44564009", "24", "6", "1150", "0", "0", "0", "0", "reversedirection=yes highway=residential surface=asphalt oneway=no", "", "143", "14306"], ["27364980", "44564008", "24", "15", "1050", "0", "88", "0", "0", "highway=tertiary surface=asphalt foot=yes bicycle=yes oneway=yes", "", "145", "14548"], ["27366390", "44565479", "21", "219", "1150", "0", "114", "0", "0", "reversedirection=yes highway=residential surface=asphalt access=yes foot=yes bicycle=yes cycleway=no", "", "178", "17851"], ["27368897", "44566998", "21", "268", "1150", "0", "1", "0", "0", "highway=residential surface=asphalt", "highway=crossing", "218", "21900"], ["27368974", "44567026", "21", "7", "1150", "0", "0", "0", "0", "highway=residential surface=asphalt", "", "219", "22001"], ["27369042", "44567050", "21", "6", "1150", "0", "0", "0", "0", "reversedirection=yes highway=residential surface=asphalt", "highway=crossing", "220", "22089"], ["27373080", "44569271", "21", "406", "1150", "0", "2", "0", "0", "reversedirection=yes highway=residential surface=asphalt", "", "288", "28893"], ["27371917", "44570971", "22", "211", "1450", "0", "73", "0", "0", "reversedirection=yes highway=tertiary surface=asphalt", "highway=crossing crossing=uncontrolled", "326", "32665"], ["27371880", "44571048", "22", "9", "1450", "0", "0", "0", "0", "reversedirection=yes highway=tertiary surface=asphalt", "", "328", "32820"], ["27376552", "44572817", "15", "423", "1150", "0", "64", "0", "0", "highway=residential", "", "389", "38958"], ["27375788", "44574508", "18", "197", "1150", "0", "84", "0", "0", "reversedirection=yes highway=residential surface=asphalt", "", "419", "41988"], ["27375919", "44574538", "16", "11", "1150", "0", "90", "0", "0", "highway=residential", "", "421", "42148"]], "times": [0, 12.6, 14.28, 15.792, 20.85, 26.328, 42.376, 44.785, 71.026, 72.733, 75.354, 77.754, 81.032, 88.709, 91.709, 93.621, 100.379, 108.886, 114.093, 116.049, 125.39, 142.077, 143.041, 145.462, 155.923, 156.803, 157.331, 164.528, 169.827, 172.32, 174.368, 178.49, 180.706, 183.712, 186.92, 197.955, 200.126, 202.456, 204.338, 206.022, 218.98, 219.99, 220.863, 237.025, 242.451, 252.487, 288.907, 309.553, 313.025, 316.902, 326.623, 328.171, 349.803, 352.194, 355.185, 361.349, 366.796, 379.187, 389.553, 398.813, 419.845, 421.437]}, "geometry": {"type": "LineString", "coordinates": [[27.365368, 44.559196, 21.0], [27.364477, 44.558983, 21.0], [27.364442, 44.559074, 21.0], [27.364412, 44.559154, 21.0], [27.364336, 44.559344, 22.25], [27.364278, 44.559531, 23.0], [27.364219, 44.560216, 22.75], [27.36402, 44.56021, 21.75], [27.364049, 44.561195, 24.25], [27.36405, 44.561276, 24.0], [27.364062, 44.561402, 24.0], [27.364086, 44.561519, 24.0], [27.364116, 44.56168, 24.0], [27.364129, 44.562004, 27.75], [27.36413, 44.562122, 28.25], [27.364128, 44.562198, 28.5], [27.364118, 44.5624, 26.75], [27.364082, 44.562787, 25.5], [27.36404, 44.563082, 24.75], [27.3642, 44.563093, 24.5], [27.36519, 44.563182, 22.75], [27.365177, 44.563955, 24.5], [27.365175, 44.564009, 24.0], [27.36498, 44.564008, 24.0], [27.364979, 44.564588, 24.0], [27.364994, 44.564628, 24.25], [27.365024, 44.56465, 24.25], [27.365473, 44.564799, 24.5], [27.365846, 44.564965, 23.75], [27.366012, 44.565069, 23.25], [27.366151, 44.565173, 22.75], [27.36639, 44.565479, 21.25], [27.366506, 44.565632, 21.25], [27.366655, 44.565797, 21.75], [27.366795, 44.565933, 22.5], [27.367264, 44.566344, 23.0], [27.367369, 44.566427, 23.0], [27.367494, 44.566509, 23.0], [27.367616, 44.566569, 22.5], [27.367754, 44.566622, 22.0], [27.368897, 44.566998, 21.0], [27.368974, 44.567026, 21.0], [27.369042, 44.56705, 21.0], [27.370192, 44.56751, 21.0], [27.370478, 44.567689, 21.5], [27.371106, 44.568081, 20.75], [27.37308, 44.569271, 21.5], [27.37239, 44.570155, 22.0], [27.372272, 44.57032, 21.75], [27.372159, 44.570502, 22.0], [27.371917, 44.570971, 22.0], [27.37188, 44.571048, 22.0], [27.373376, 44.57181, 21.0], [27.373538, 44.571887, 21.0], [27.373777, 44.57199, 20.25], [27.374312, 44.572175, 19.75], [27.374795, 44.572318, 19.25], [27.375584, 44.572547, 20.5], [27.376552, 44.572817, 15.5], [27.376309, 44.573367, 15.5], [27.375788, 44.574508, 18.5], [27.375919, 44.574538, 16.5]]}}]}