{"type": "FeatureCollection", "features": [{"type": "Feature", "properties": {"creator": "BRouter-1.7.10", "name": "brouter_trekking_0", "track-length": "356", "filtered ascend": "0", "plain-ascend": "0", "total-time": "55", "total-energy": "5540", "cost": "2002", "messages": [["Longitude", "Latitude", "Elevation", "Distance", "CostPerKm", "ElevCost", "TurnCost", "NodeCost", "InitialCost", "WayTags", "NodeTags", "Time", "Energy"], ["27351583", "44562398", "26", "2", "5050", "0", "0", "0", "0", "highway=footway", "", "0", "33"], ["27351513", "44562533", "26", "16", "5050", "0", "72", "0", "0", "reversedirection=yes highway=footway", "", "3", "302"], ["27354971", "44562201", "25", "277", "5050", "0", "132", "0", "0", "highway=footway", "highway=crossing", "45", "4510"], ["27355727", "44562143", "25", "61", "5050", "0", "0", "0", "0", "highway=footway", "", "55", "5540"]], "times": [0, 0.336, 3.024, 20.082, 21.048, 43.187, 45.102, 47.351, 55.065, 55.406]}, "geometry": {"type": "LineString", "coordinates": [[27.351611, 44.562401, 26.25], [27.351583, 44.562398, 26.25], [27.351513, 44.562533, 26.25], [27.352889, 44.5624, 25.75], [27.352966, 44.562393, 25.75], [27.354827, 44.562216, 25.0], [27.354971, 44.562201, 25.0], [27.355141, 44.562188, 25.0], [27.355708, 44.562144, 25.25], [27.355727, 44.562143, 25.25]]}}]}