{"type": "FeatureCollection", "features": [{"type": "Feature", "properties": {"creator": "BRouter-1.7.10", "name": "brouter_trekking_0", "track-length": "994", "filtered ascend": "4", "plain-ascend": "5", "total-time": "188", "total-energy": "18792", "cost": "1608", "messages": [["Longitude", "Latitude", "Elevation", "Distance", "CostPerKm", "ElevCost", "TurnCost", "NodeCost", "InitialCost", "WayTags", "NodeTags", "Time", "Energy"], ["27355068", "44557811", "26", "112", "1150", "0", "0", "0", "0", "reversedirection=yes highway=residential", "", "20", "2043"], ["27359097", "44560339", "25", "565", "1150", "0", "256", "0", "0", "reversedirection=yes highway=residential surface=asphalt", "highway=crossing crossing=uncontrolled", "128", "12897"], ["27359132", "44561114", "25", "87", "1150", "0", "0", "0", "0", "reversedirection=yes highway=residential surface=asphalt", "", "142", "14232"], ["27360845", "44561073", "26", "136", "1150", "0", "90", "0", "0", "reversedirection=yes highway=residential surface=asphalt oneway=no", "", "169", "16997"], ["27360882", "44561922", "27", "94", "1450", "0", "90", "0", "0", "reversedirection=yes highway=tertiary surface=asphalt", "", "187", "18792"]], "times": [0, 20.433, 39.078, 43.774, 74.207, 76.019, 77.504, 79.718, 92.053, 128.959, 136.147, 142.315, 151.041, 154.668, 169.957, 187.911]}, "geometry": {"type": "LineString", "coordinates": [[27.35554, 44.556862, 22.5], [27.355068, 44.557811, 26.0], [27.356461, 44.558143, 22.5], [27.356804, 44.558137, 22.75], [27.358822, 44.558065, 23.5], [27.358832, 44.558164, 23.25], [27.358897, 44.558234, 23.25], [27.359017, 44.558277, 24.0], [27.359029, 44.5588, 24.5], [27.359097, 44.560339, 25.75], [27.359117, 44.560776, 24.75], [27.359132, 44.561114, 25.0], [27.359698, 44.561102, 25.75], [27.3599, 44.561097, 26.5], [27.360845, 44.561073, 26.5], [27.360882, 44.561922, 27.0]]}}]}