{"type": "FeatureCollection", "features": [{"type": "Feature", "properties": {"creator": "BRouter-1.7.10", "name": "brouter_trekking_0", "track-length": "2489", "filtered ascend": "3", "plain-ascend": "0", "total-time": "444", "total-energy": "44454", "cost": "4451", "messages": [["Longitude", "Latitude", "Elevation", "Distance", "CostPerKm", "ElevCost", "TurnCost", "NodeCost", "InitialCost", "WayTags", "NodeTags", "Time", "Energy"], ["27384571", "44567749", "23", "14", "5050", "0", "28", "0", "0", "highway=footway", "estimated_crossing_class=4", "3", "393"], ["27384372", "44567555", "25", "27", "3050", "0", "82", "0", "0", "reversedirection=yes highway=primary surface=asphalt oneway=no", "highway=crossing estimated_crossing_class=4", "8", "875"], ["27384220", "44567400", "25", "21", "3050", "0", "0", "0", "0", "reversedirection=yes highway=primary surface=asphalt oneway=no", "estimated_crossing_class=4", "13", "1323"], ["27383498", "44566664", "25", "100", "3050", "0", "0", "0", "0", "reversedirection=yes highway=primary surface=asphalt oneway=no", "highway=crossing estimated_crossing_class=4", "30", "3009"], ["27382104", "44565186", "24", "198", "3050", "0", "0", "0", "0", "reversedirection=yes highway=primary surface=asphalt oneway=no", "estimated_crossing_class=4", "72", "7255"], ["27381962", "44565258", "24", "14", "1150", "0", "89", "0", "0", "highway=residential surface=asphalt oneway=yes", "highway=crossing crossing=uncontrolled", "75", "7563"], ["27380897", "44565847", "26", "107", "1150", "0", "0", "0", "0", "highway=residential surface=asphalt oneway=yes", "highway=crossing crossing=uncontrolled", "103", "10387"], ["27380771", "44565919", "26", "13", "1150", "0", "0", "0", "0", "highway=residential surface=asphalt oneway=yes", "", "106", "10664"], ["27380657", "44565849", "26", "12", "1150", "0", "73", "0", "0", "reversedirection=yes highway=residential surface=asphalt", "highway=crossing crossing=uncontrolled", "108", "10896"], ["27377406", "44563916", "23", "336", "1150", "0", "0", "0", "0", "reversedirection=yes highway=residential surface=asphalt", "highway=crossing crossing=uncontrolled", "157", "15745"], ["27376475", "44563634", "24", "82", "1150", "0", "1", "0", "0", "reversedirection=yes highway=residential surface=asphalt", "highway=crossing crossing=uncontrolled", "172", "17227"], ["27376136", "44563593", "24", "27", "1150", "0", "0", "0", "0", "reversedirection=yes highway=residential surface=asphalt", "highway=crossing crossing=uncontrolled", "176", "17700"], ["27375466", "44563516", "22", "54", "1150", "0", "0", "0", "0", "reversedirection=yes highway=residential surface=asphalt", "", "183", "18343"], ["27375054", "44563480", "21", "33", "1150", "0", "0", "0", "0", "highway=residential surface=asphalt", "", "187", "18727"], ["27372722", "44564791", "22", "237", "1150", "0", "36", "0", "0", "reversedirection=yes highway=residential surface=asphalt", "", "226", "22634"], ["27371698", "44564065", "22", "115", "1150", "0", "71", "0", "0", "highway=residential surface=asphalt oneway=yes", "highway=crossing", "245", "24536"], ["27371605", "44563996", "22", "11", "1150", "0", "0", "0", "0", "highway=residential surface=asphalt oneway=yes", "", "247", "24719"], ["27371528", "44564077", "21", "11", "1450", "0", "108", "0", "0", "reversedirection=yes highway=tertiary surface=asphalt", "highway=crossing", "248", "24881"], ["27371283", "44564355", "20", "36", "1450", "0", "0", "0", "0", "reversedirection=yes highway=tertiary surface=asphalt", "", "253", "25310"], ["27371201", "44564348", "21", "7", "1450", "0", "53", "0", "0", "reversedirection=yes highway=tertiary surface=asphalt oneway=no", "highway=crossing", "254", "25409"], ["27370268", "44564264", "23", "75", "1450", "0", "0", "0", "0", "reversedirection=yes highway=tertiary surface=asphalt oneway=no", "", "270", "27051"], ["27366338", "44564030", "24", "313", "1050", "0", "0", "0", "0", "highway=tertiary surface=asphalt foot=yes bicycle=yes oneway=yes", "", "333", "33317"], ["27366337", "44564076", "24", "5", "1150", "0", "91", "0", "0", "reversedirection=yes highway=residential surface=asphalt", "highway=crossing crossing=uncontrolled", "334", "33409"], ["27366151", "44565173", "22", "123", "1150", "0", "2", "0", "0", "reversedirection=yes highway=residential surface=asphalt", "", "352", "35243"], ["27364439", "44566868", "23", "233", "1150", "0", "9", "0", "0", "highway=residential surface=asphalt", "", "390", "39080"], ["27364259", "44567120", "24", "31", "1150", "0", "0", "0", "0", "reversedirection=yes highway=residential surface=asphalt", "", "398", "39824"], ["27364876", "44567790", "23", "113", "1150", "0", "130", "0", "0", "highway=residential surface=asphalt oneway=yes", "", "417", "41784"], ["27363917", "44568393", "21", "141", "1150", "0", "89", "0", "0", "reversedirection=yes highway=residential surface=asphalt oneway=no", "", "444", "44454"]], "times": [0.238, 3.93, 8.758, 13.237, 30.092, 61.091, 72.546, 75.621, 103.853, 106.622, 108.946, 130.035, 140.008, 145.182, 157.433, 163.869, 165.854, 168.715, 172.254, 176.98, 183.415, 187.253, 193.653, 200.796, 216.615, 226.316, 245.335, 247.168, 248.791, 252.089, 253.081, 254.069, 270.48, 295.59, 310.407, 311.828, 314.236, 333.131, 334.052, 344.285, 349.958, 352.397, 364.314, 368.429, 369.649, 371.156, 390.756, 393.962, 398.195, 402.197, 403.543, 406.908, 407.431, 408.092, 417.792, 429.524, 431.097, 438.618, 443.309, 444.488]}, "geometry": {"type": "LineString", "coordinates": [[27.38444, 44.567831, 22.75], [27.384571, 44.567749, 23.25], [27.384372, 44.567555, 25.0], [27.38422, 44.5674, 25.75], [27.383498, 44.566664, 25.0], [27.38252, 44.565597, 23.75], [27.382104, 44.565186, 24.25], [27.381962, 44.565258, 24.75], [27.380897, 44.565847, 26.5], [27.380771, 44.565919, 26.5], [27.380657, 44.565849, 26.25], [27.379119, 44.564902, 23.75], [27.378415, 44.564484, 23.0], [27.378092, 44.564292, 23.25], [27.377406, 44.563916, 23.75], [27.377033, 44.563749, 24.0], [27.376907, 44.563713, 24.0], [27.376719, 44.563674, 24.0], [27.376475, 44.563634, 24.0], [27.376136, 44.563593, 24.0], [27.375466, 44.563516, 22.0], [27.375054, 44.56348, 21.25], [27.374674, 44.563757, 22.0], [27.374256, 44.564044, 22.0], [27.373248, 44.564546, 22.0], [27.372722, 44.564791, 22.75], [27.371698, 44.564065, 22.25], [27.371605, 44.563996, 22.25], [27.371528, 44.564077, 21.75], [27.371338, 44.56429, 20.5], [27.371283, 44.564355, 20.5], [27.371201, 44.564348, 21.0], [27.370268, 44.564264, 23.0], [27.368982, 44.564151, 24.5], [27.367874, 44.564071, 23.75], [27.367757, 44.564065, 23.5], [27.367542, 44.564058, 23.0], [27.366338, 44.56403, 24.5], [27.366337, 44.564076, 24.5], [27.366321, 44.564618, 24.25], [27.366235, 44.565019, 22.75], [27.366151, 44.565173, 22.75], [27.36543, 44.565809, 22.0], [27.365166, 44.566055, 21.0], [27.365123, 44.566138, 20.75], [27.365053, 44.566232, 20.75], [27.364439, 44.566868, 23.5], [27.364352, 44.566978, 24.0], [27.364259, 44.56712, 24.5], [27.364436, 44.567193, 24.75], [27.364502, 44.56721, 24.5], [27.364822, 44.56721, 22.5], [27.364862, 44.56723, 22.25], [27.364874, 44.567274, 22.25], [27.364876, 44.56779, 23.25], [27.364882, 44.568291, 24.25], [27.364886, 44.568365, 24.25], [27.36445, 44.56838, 24.75], [27.36403, 44.568391, 23.25], [27.363917, 44.568393, 21.5]]}}]}