{"type": "FeatureCollection", "features": [{"type": "Feature", "properties": {"creator": "BRouter-1.7.10", "name": "brouter_trekking_0", "track-length": "962", "filtered ascend": "7", "plain-ascend": "2", "total-time": "183", "total-energy": "18282", "cost": "1775", "messages": [["Longitude", "Latitude", "Elevation", "Distance", "CostPerKm", "ElevCost", "TurnCost", "NodeCost", "InitialCost", "WayTags", "NodeTags", "Time", "Energy"], ["27350804", "44564933", "23", "20", "1350", "0", "0", "0", "0", "reversedirection=yes highway=service", "", "3", "380"], ["27350877", "44564671", "23", "29", "1150", "0", "109", "0", "0", "reversedirection=yes highway=residential surface=asphalt", "", "9", "935"], ["27350898", "44564586", "23", "10", "1450", "0", "0", "0", "0", "reversedirection=yes highway=tertiary surface=asphalt", "", "11", "1104"], ["27351201", "44564605", "24", "24", "1450", "0", "83", "0", "0", "highway=tertiary surface=asphalt oneway=yes", "highway=crossing", "16", "1608"], ["27353782", "44564631", "24", "205", "1450", "0", "0", "0", "0", "highway=tertiary surface=asphalt oneway=yes", "highway=crossing crossing=uncontrolled", "50", "5077"], ["27355483", "44564645", "24", "136", "1450", "0", "0", "0", "0", "highway=tertiary surface=asphalt oneway=yes", "highway=crossing crossing=uncontrolled", "76", "7694"], ["27357365", "44564651", "25", "149", "1450", "0", "0", "0", "0", "highway=tertiary surface=asphalt oneway=yes", "highway=crossing", "105", "10588"], ["27358286", "44564654", "30", "73", "1450", "0", "0", "0", "0", "highway=tertiary surface=asphalt oneway=yes", "highway=crossing", "124", "12484"], ["27359762", "44564654", "24", "118", "1450", "0", "0", "0", "0", "highway=tertiary surface=asphalt oneway=yes", "highway=crossing", "142", "14285"], ["27360975", "44564415", "27", "101", "1450", "0", "2", "0", "0", "highway=tertiary surface=asphalt oneway=yes", "", "163", "16338"], ["27360995", "44564727", "27", "35", "1450", "0", "101", "0", "0", "reversedirection=yes highway=tertiary surface=asphalt", "highway=crossing", "171", "17189"], ["27361090", "44564925", "27", "23", "1450", "0", "6", "0", "0", "highway=tertiary surface=asphalt oneway=yes", "", "176", "17662"], ["27360604", "44564922", "25", "39", "1150", "0", "104", "0", "0", "reversedirection=yes highway=residential", "", "182", "18282"]], "times": [0, 3.807, 6.99, 9.356, 11.047, 13.718, 16.079, 17.341, 39.716, 50.776, 75.321, 76.936, 103.97, 105.882, 108.68, 109.808, 124.83, 127.623, 137.507, 142.838, 144.007, 145.394, 146.759, 160.066, 163.361, 165.786, 171.87, 174.856, 176.604, 178.933, 182.801]}, "geometry": {"type": "LineString", "coordinates": [[27.350573, 44.56487, 23.25], [27.350804, 44.564933, 23.75], [27.350834, 44.564788, 24.0], [27.350877, 44.564671, 23.75], [27.350898, 44.564586, 23.5], [27.351057, 44.564597, 24.25], [27.351201, 44.564605, 24.5], [27.351273, 44.564609, 24.5], [27.353128, 44.564622, 23.0], [27.353782, 44.564631, 24.25], [27.355374, 44.564644, 24.5], [27.355483, 44.564645, 24.5], [27.357238, 44.564649, 25.25], [27.357365, 44.564651, 25.5], [27.357525, 44.564651, 26.0], [27.357592, 44.564651, 26.25], [27.358286, 44.564654, 30.5], [27.358421, 44.564655, 30.75], [27.359213, 44.564657, 26.0], [27.359762, 44.564654, 24.5], [27.359871, 44.564654, 24.5], [27.360002, 44.564637, 24.25], [27.360122, 44.564613, 24.5], [27.36081, 44.564436, 26.75], [27.360975, 44.564415, 27.5], [27.360981, 44.564502, 27.5], [27.360995, 44.564727, 27.75], [27.361066, 44.564847, 27.5], [27.36109, 44.564925, 27.25], [27.36093, 44.564932, 27.0], [27.360604, 44.564922, 25.5]]}}]}