{"type": "FeatureCollection", "features": [{"type": "Feature", "properties": {"creator": "BRouter-1.7.10", "name": "brouter_trekking_0", "track-length": "2006", "filtered ascend": "8", "plain-ascend": "1", "total-time": "355", "total-energy": "35502", "cost": "4172", "messages": [["Longitude", "Latitude", "Elevation", "Distance", "CostPerKm", "ElevCost", "TurnCost", "NodeCost", "InitialCost", "WayTags", "NodeTags", "Time", "Energy"], ["27350804", "44564933", "23", "20", "1350", "0", "0", "0", "0", "reversedirection=yes highway=service", "", "3", "380"], ["27350877", "44564671", "23", "29", "1150", "0", "109", "0", "0", "reversedirection=yes highway=residential surface=asphalt", "", "9", "935"], ["27350898", "44564586", "23", "10", "1450", "0", "0", "0", "0", "reversedirection=yes highway=tertiary surface=asphalt", "", "11", "1104"], ["27351201", "44564605", "24", "24", "1450", "0", "83", "0", "0", "highway=tertiary surface=asphalt oneway=yes", "highway=crossing", "16", "1608"], ["27353782", "44564631", "24", "205", "1450", "0", "0", "0", "0", "highway=tertiary surface=asphalt oneway=yes", "highway=crossing crossing=uncontrolled", "50", "5077"], ["27355483", "44564645", "24", "136", "1450", "0", "0", "0", "0", "highway=tertiary surface=asphalt oneway=yes", "highway=crossing crossing=uncontrolled", "76", "7694"], ["27357365", "44564651", "25", "149", "1450", "0", "0", "0", "0", "highway=tertiary surface=asphalt oneway=yes", "highway=crossing", "105", "10588"], ["27358286", "44564654", "30", "73", "1450", "0", "0", "0", "0", "highway=tertiary surface=asphalt oneway=yes", "highway=crossing", "124", "12484"], ["27359762", "44564654", "24", "118", "1450", "0", "0", "0", "0", "highway=tertiary surface=asphalt oneway=yes", "highway=crossing", "142", "14285"], ["27361170", "44564399", "28", "117", "1450", "0", "2", "0", "0", "highway=tertiary surface=asphalt oneway=yes", "highway=crossing", "167", "16773"], ["27363536", "44564052", "23", "194", "1450", "0", "0", "0", "0", "highway=tertiary surface=asphalt oneway=yes", "highway=crossing", "194", "19416"], ["27363887", "44563848", "24", "37", "1450", "0", "0", "0", "0", "highway=tertiary surface=asphalt oneway=yes", "", "199", "19975"], ["27363897", "44563794", "23", "6", "1450", "0", "20", "0", "0", "reversedirection=yes highway=tertiary surface=asphalt oneway=no", "highway=crossing", "200", "20063"], ["27364128", "44562198", "28", "177", "1450", "0", "0", "0", "0", "reversedirection=yes highway=tertiary surface=asphalt oneway=no", "highway=crossing", "236", "23699"], ["27364130", "44562122", "28", "8", "1450", "0", "0", "0", "0", "reversedirection=yes highway=tertiary surface=asphalt oneway=no", "estimated_crossing_class=5", "239", "23983"], ["27364315", "44562123", "28", "15", "3050", "0", "89", "0", "0", "highway=primary surface=asphalt smoothness=excellent oneway=no", "highway=crossing estimated_crossing_class=5", "244", "24480"], ["27364727", "44562123", "27", "33", "3050", "0", "0", "0", "0", "highway=primary surface=asphalt smoothness=excellent oneway=no", "estimated_crossing_class=5", "252", "25288"], ["27365877", "44562128", "23", "91", "3050", "0", "0", "0", "0", "highway=primary surface=asphalt smoothness=excellent oneway=no", "highway=crossing estimated_crossing_class=5", "267", "26787"], ["27366253", "44562127", "23", "30", "3050", "0", "0", "0", "0", "highway=primary surface=asphalt smoothness=excellent oneway=no", "estimated_crossing_class=5", "272", "27285"], ["27366253", "44561996", "23", "15", "1350", "0", "89", "0", "0", "highway=service oneway=yes", "highway=crossing", "274", "27437"], ["27366251", "44561413", "24", "65", "1350", "0", "0", "0", "0", "highway=service oneway=yes", "", "282", "28253"], ["27366485", "44561168", "25", "33", "1150", "0", "43", "0", "0", "highway=residential surface=asphalt", "", "287", "28796"], ["27368370", "44561194", "24", "150", "1150", "0", "62", "0", "0", "highway=residential surface=asphalt oneway=no", "", "310", "31101"], ["27368560", "44561248", "24", "17", "1150", "0", "23", "0", "0", "highway=residential oneway=no", "", "313", "31353"], ["27370599", "44561480", "23", "184", "1150", "0", "92", "0", "0", "highway=residential surface=asphalt oneway=no", "", "339", "33999"], ["27370839", "44560989", "24", "70", "5050", "0", "262", "0", "0", "reversedirection=yes highway=footway", "", "354", "35502"]], "times": [0, 3.807, 6.99, 9.356, 11.047, 13.718, 16.079, 17.341, 39.716, 50.776, 75.321, 76.936, 103.97, 105.882, 108.68, 109.808, 124.83, 127.623, 137.507, 142.838, 144.007, 145.394, 146.759, 160.066, 163.361, 167.714, 181.124, 182.783, 186.162, 187.557, 190.193, 191.543, 194.144, 195.934, 197.444, 199.736, 200.606, 204.541, 208.432, 213.21, 221, 233.05, 236.962, 239.803, 244.766, 252.844, 267.832, 272.82, 274.335, 279.143, 282.492, 284.3, 285.947, 287.928, 291.973, 302.493, 303.246, 310.974, 312.153, 312.896, 313.493, 319.987, 325.877, 328.297, 329.593, 331.76, 332.589, 333.514, 335.633, 336.856, 337.625, 339.951, 351.954, 354.975]}, "geometry": {"type": "LineString", "coordinates": [[27.350573, 44.56487, 23.25], [27.350804, 44.564933, 23.75], [27.350834, 44.564788, 24.0], [27.350877, 44.564671, 23.75], [27.350898, 44.564586, 23.5], [27.351057, 44.564597, 24.25], [27.351201, 44.564605, 24.5], [27.351273, 44.564609, 24.5], [27.353128, 44.564622, 23.0], [27.353782, 44.564631, 24.25], [27.355374, 44.564644, 24.5], [27.355483, 44.564645, 24.5], [27.357238, 44.564649, 25.25], [27.357365, 44.564651, 25.5], [27.357525, 44.564651, 26.0], [27.357592, 44.564651, 26.25], [27.358286, 44.564654, 30.5], [27.358421, 44.564655, 30.75], [27.359213, 44.564657, 26.0], [27.359762, 44.564654, 24.5], [27.359871, 44.564654, 24.5], [27.360002, 44.564637, 24.25], [27.360122, 44.564613, 24.5], [27.36081, 44.564436, 26.75], [27.360975, 44.564415, 27.5], [27.36117, 44.564399, 28.0], [27.362201, 44.564337, 26.25], [27.362346, 44.564327, 25.5], [27.362732, 44.564283, 24.0], [27.362891, 44.564252, 23.5], [27.363187, 44.564178, 23.0], [27.363323, 44.564135, 23.0], [27.363536, 44.564052, 23.75], [27.363657, 44.563993, 24.0], [27.36375, 44.563939, 24.0], [27.363887, 44.563848, 24.0], [27.363897, 44.563794, 23.75], [27.363953, 44.563541, 23.5], [27.363999, 44.563291, 23.25], [27.36404, 44.563082, 24.75], [27.364082, 44.562787, 25.5], [27.364118, 44.5624, 26.75], [27.364128, 44.562198, 28.5], [27.36413, 44.562122, 28.25], [27.364315, 44.562123, 28.25], [27.364727, 44.562123, 27.5], [27.365877, 44.562128, 23.25], [27.366253, 44.562127, 23.25], [27.366253, 44.561996, 23.75], [27.366252, 44.561613, 23.75], [27.366251, 44.561413, 24.75], [27.366365, 44.56135, 25.0], [27.366436, 44.561273, 25.0], [27.366485, 44.561168, 25.0], [27.366773, 44.56117, 25.25], [27.367613, 44.561176, 24.75], [27.36768, 44.561176, 24.5], [27.36837, 44.561194, 24.0], [27.368471, 44.5612, 24.0], [27.368535, 44.561218, 24.0], [27.36856, 44.561248, 24.0], [27.369207, 44.561244, 23.0], [27.369711, 44.561246, 23.25], [27.369882, 44.561192, 23.5], [27.369973, 44.56117, 23.5], [27.370156, 44.561177, 23.0], [27.370224, 44.561201, 22.75], [27.370294, 44.561238, 22.5], [27.370455, 44.561277, 23.0], [27.370542, 44.561307, 23.0], [27.370581, 44.561345, 23.0], [27.370599, 44.56148, 23.0], [27.370645, 44.56099, 24.5], [27.370839, 44.560989, 24.5]]}}]}