{"type": "FeatureCollection", "features": [{"type": "Feature", "properties": {"creator": "BRouter-1.7.10", "name": "brouter_trekking_0", "track-length": "932", "filtered ascend": "3", "plain-ascend": "-1", "total-time": "153", "total-energy": "15268", "cost": "1642", "messages": [["Longitude", "Latitude", "Elevation", "Distance", "CostPerKm", "ElevCost", "TurnCost", "NodeCost", "InitialCost", "WayTags", "NodeTags", "Time", "Energy"], ["27360887", "44562026", "27", "12", "1450", "0", "0", "0", "0", "reversedirection=yes highway=tertiary surface=asphalt", "highway=crossing crossing=uncontrolled", "2", "215"], ["27360890", "44562148", "26", "14", "1450", "0", "0", "0", "0", "reversedirection=yes highway=tertiary surface=asphalt", "estimated_crossing_class=5", "4", "421"], ["27360893", "44562252", "25", "12", "1450", "0", "0", "0", "0", "reversedirection=yes highway=tertiary surface=asphalt", "highway=crossing crossing=zebra", "5", "574"], ["27360974", "44564329", "27", "230", "1450", "0", "0", "0", "0", "reversedirection=yes highway=tertiary surface=asphalt", "highway=crossing", "47", "4788"], ["27360981", "44564502", "27", "20", "1450", "0", "0", "0", "0", "reversedirection=yes highway=tertiary surface=asphalt", "", "51", "5161"], ["27359766", "44564773", "25", "101", "1450", "0", "76", "0", "0", "highway=tertiary surface=asphalt oneway=yes", "highway=crossing", "64", "6459"], ["27358283", "44564763", "30", "118", "1450", "0", "0", "0", "0", "highway=tertiary surface=asphalt oneway=yes", "highway=crossing", "88", "8826"], ["27357360", "44564756", "25", "73", "1450", "0", "0", "0", "0", "highway=tertiary surface=asphalt oneway=yes", "highway=crossing", "98", "9832"], ["27355483", "44564736", "25", "149", "1450", "0", "0", "0", "0", "highway=tertiary surface=asphalt oneway=yes", "highway=crossing crossing=uncontrolled", "119", "11975"], ["27353786", "44564718", "24", "135", "1450", "0", "0", "0", "0", "highway=tertiary surface=asphalt oneway=yes", "highway=crossing crossing=uncontrolled", "143", "14334"], ["27353782", "44564631", "24", "10", "5050", "0", "86", "0", "0", "highway=footway", "highway=crossing crossing=uncontrolled", "144", "14464"], ["27354506", "44564636", "24", "58", "1450", "0", "94", "0", "0", "highway=tertiary surface=asphalt oneway=yes", "", "152", "15268"]], "times": [0, 2.15, 4.219, 5.743, 7.048, 10.398, 11.47, 19.408, 22.489, 47.876, 49.755, 51.614, 53.854, 61.272, 62.521, 63.544, 64.586, 72.875, 88.254, 96.602, 98.315, 119.729, 121.144, 138.876, 143.316, 144.613, 152.651]}, "geometry": {"type": "LineString", "coordinates": [[27.360882, 44.561922, 26.75], [27.360887, 44.562026, 27.0], [27.36089, 44.562148, 26.25], [27.360893, 44.562252, 25.5], [27.360899, 44.562345, 25.5], [27.360907, 44.56258, 25.25], [27.360912, 44.562653, 25.25], [27.360924, 44.563112, 25.75], [27.360931, 44.563248, 26.75], [27.360974, 44.564329, 27.5], [27.360975, 44.564415, 27.5], [27.360981, 44.564502, 27.5], [27.360822, 44.564529, 27.25], [27.360095, 44.56474, 25.25], [27.359974, 44.564762, 25.0], [27.359869, 44.564774, 25.0], [27.359766, 44.564773, 25.0], [27.359215, 44.564768, 26.5], [27.358283, 44.564763, 30.25], [27.357526, 44.564758, 25.75], [27.35736, 44.564756, 25.25], [27.355483, 44.564736, 25.0], [27.355373, 44.564735, 25.0], [27.354216, 44.564722, 26.0], [27.353786, 44.564718, 24.5], [27.353782, 44.564631, 24.25], [27.354506, 44.564636, 24.5]]}}]}