{"type": "FeatureCollection", "features": [{"type": "Feature", "properties": {"creator": "BRouter-1.7.10", "name": "brouter_trekking_0", "track-length": "1323", "filtered ascend": "0", "plain-ascend": "-5", "total-time": "205", "total-energy": "20454", "cost": "2069", "messages": [["Longitude", "Latitude", "Elevation", "Distance", "CostPerKm", "ElevCost", "TurnCost", "NodeCost", "InitialCost", "WayTags", "NodeTags", "Time", "Energy"], ["27357526", "44564758", "25", "41", "1450", "0", "0", "0", "0", "highway=tertiary surface=asphalt oneway=yes", "", "4", "407"], ["27357529", "44564831", "25", "8", "1150", "0", "93", "0", "0", "highway=residential surface=asphalt oneway=yes", "highway=crossing", "4", "487"], ["27357488", "44565632", "23", "90", "1150", "0", "1", "0", "0", "highway=residential surface=asphalt oneway=yes", "", "17", "1757"], ["27357468", "44565722", "22", "10", "1150", "0", "0", "0", "0", "highway=residential surface=asphalt oneway=no", "highway=crossing crossing=uncontrolled", "18", "1885"], ["27357001", "44567244", "22", "173", "1150", "0", "0", "0", "0", "highway=residential surface=asphalt oneway=no", "", "43", "4300"], ["27359131", "44567243", "25", "170", "1150", "0", "108", "0", "0", "highway=residential surface=asphalt", "highway=crossing crossing=uncontrolled", "69", "6924"], ["27359285", "44567243", "24", "12", "1150", "0", "0", "0", "0", "highway=residential surface=asphalt", "", "71", "7121"], ["27358922", "44567988", "22", "88", "1050", "0", "119", "0", "0", "reversedirection=yes highway=tertiary surface=asphalt foot=yes bicycle=yes cycleway=no oneway=no", "highway=crossing crossing=uncontrolled", "83", "8337"], ["27358461", "44568964", "20", "115", "1050", "0", "0", "0", "0", "reversedirection=yes highway=tertiary surface=asphalt foot=yes bicycle=yes cycleway=no oneway=no", "", "95", "9591"], ["27358498", "44568995", "20", "5", "1050", "0", "44", "0", "0", "highway=tertiary surface=asphalt access=yes foot=yes bicycle=yes cycleway=no oneway=no", "highway=crossing", "96", "9652"], ["27361321", "44569878", "20", "249", "1050", "0", "12", "0", "0", "highway=tertiary surface=asphalt access=yes foot=yes bicycle=yes cycleway=no oneway=no", "highway=crossing", "137", "13750"], ["27361407", "44569898", "20", "7", "1050", "0", "0", "0", "0", "highway=tertiary surface=asphalt access=yes foot=yes bicycle=yes cycleway=no oneway=no", "", "138", "13849"], ["27363406", "44569751", "22", "160", "1150", "0", "28", "0", "0", "highway=residential surface=asphalt", "", "170", "17076"], ["27363370", "44568936", "21", "90", "1150", "0", "87", "0", "0", "highway=residential surface=asphalt oneway=yes", "", "185", "18523"], ["27363338", "44568406", "21", "59", "1150", "0", "0", "0", "0", "highway=residential surface=asphalt", "", "194", "19464"], ["27363917", "44568393", "23", "46", "1150", "0", "91", "0", "0", "highway=residential surface=asphalt oneway=no", "", "204", "20454"]], "times": [0, 4.07, 4.873, 13.056, 17.572, 18.846, 22.088, 27.815, 43.002, 54.429, 57.169, 61.5, 69.236, 71.209, 80.365, 83.364, 84.441, 84.883, 89.252, 95.908, 96.515, 101.307, 126.487, 137.484, 138.472, 141.061, 153.463, 170.743, 180.467, 185.212, 194.622, 204.519]}, "geometry": {"type": "LineString", "coordinates": [[27.358047, 44.564761, 28.75], [27.357526, 44.564758, 25.75], [27.357529, 44.564831, 25.25], [27.35754, 44.56534, 23.75], [27.357488, 44.565632, 23.25], [27.357468, 44.565722, 22.75], [27.357395, 44.565969, 22.0], [27.357239, 44.566428, 21.0], [27.357001, 44.567244, 22.25], [27.358108, 44.567248, 23.75], [27.358345, 44.567242, 23.75], [27.35863, 44.567243, 24.75], [27.359131, 44.567243, 25.0], [27.359285, 44.567243, 24.5], [27.359035, 44.567759, 24.0], [27.358922, 44.567988, 22.25], [27.35888, 44.568073, 21.75], [27.358868, 44.568105, 21.75], [27.358714, 44.568446, 21.25], [27.358461, 44.568964, 20.25], [27.358498, 44.568995, 20.25], [27.358819, 44.569262, 20.0], [27.36029, 44.569632, 22.25], [27.361321, 44.569878, 20.25], [27.361407, 44.569898, 20.25], [27.361592, 44.569838, 20.75], [27.362287, 44.569797, 22.25], [27.363406, 44.569751, 22.25], [27.363386, 44.569236, 22.0], [27.36337, 44.568936, 21.25], [27.363338, 44.568406, 21.5], [27.363917, 44.568393, 23.25]]}}]}