{"type": "FeatureCollection", "features": [{"type": "Feature", "properties": {"creator": "BRouter-1.7.10", "name": "brouter_trekking_0", "track-length": "363", "filtered ascend": "1", "plain-ascend": "0", "total-time": "62", "total-energy": "6196", "cost": "603", "messages": [["Longitude", "Latitude", "Elevation", "Distance", "CostPerKm", "ElevCost", "TurnCost", "NodeCost", "InitialCost", "WayTags", "NodeTags", "Time", "Energy"], ["27360930", "44564932", "27", "26", "1150", "0", "0", "0", "0", "highway=residential", "", "5", "524"], ["27360995", "44564727", "27", "24", "1450", "0", "82", "0", "0", "highway=tertiary surface=asphalt oneway=yes", "highway=crossing", "10", "1072"], ["27360974", "44564329", "27", "45", "1450", "0", "5", "0", "0", "highway=tertiary surface=asphalt", "highway=crossing", "19", "1980"], ["27360893", "44562252", "25", "230", "1450", "0", "0", "0", "0", "highway=tertiary surface=asphalt", "highway=crossing crossing=zebra", "54", "5420"], ["27360890", "44562148", "26", "12", "1450", "0", "0", "0", "0", "highway=tertiary surface=asphalt", "estimated_crossing_class=5", "56", "5642"], ["27360887", "44562026", "27", "14", "1450", "0", "0", "0", "0", "highway=tertiary surface=asphalt", "highway=crossing crossing=uncontrolled", "59", "5954"], ["27360882", "44561922", "26", "12", "1450", "0", "0", "0", "0", "highway=tertiary surface=asphalt", "", "61", "6196"]], "times": [0, 5.247, 7.485, 10.723, 15.856, 17.843, 19.798, 39.249, 41.218, 47.736, 48.828, 52.69, 54.205, 56.426, 59.545, 61.961]}, "geometry": {"type": "LineString", "coordinates": [[27.360604, 44.564922, 26.25], [27.36093, 44.564932, 27.0], [27.360946, 44.564846, 27.5], [27.360995, 44.564727, 27.75], [27.360981, 44.564502, 27.5], [27.360975, 44.564415, 27.5], [27.360974, 44.564329, 27.5], [27.360931, 44.563248, 26.75], [27.360924, 44.563112, 25.75], [27.360912, 44.562653, 25.25], [27.360907, 44.56258, 25.25], [27.360899, 44.562345, 25.5], [27.360893, 44.562252, 25.5], [27.36089, 44.562148, 26.25], [27.360887, 44.562026, 27.0], [27.360882, 44.561922, 26.5]]}}]}