{"type": "FeatureCollection", "features": [{"type": "Feature", "properties": {"creator": "BRouter-1.7.10", "name": "brouter_trekking_0", "track-length": "1582", "filtered ascend": "8", "plain-ascend": "7", "total-time": "304", "total-energy": "30449", "cost": "3134", "messages": [["Longitude", "Latitude", "Elevation", "Distance", "CostPerKm", "ElevCost", "TurnCost", "NodeCost", "InitialCost", "WayTags", "NodeTags", "Time", "Energy"], ["27358225", "44569653", "19", "2", "5050", "0", "0", "0", "0", "highway=footway", "highway=crossing", "0", "33"], ["27358107", "44569736", "19", "13", "1150", "0", "168", "0", "0", "highway=residential surface=asphalt access=yes foot=yes bicycle=yes cycleway=no oneway=yes", "", "2", "252"], ["27353102", "44569701", "21", "398", "1150", "0", "18", "0", "0", "highway=residential surface=asphalt oneway=yes", "highway=crossing", "79", "7914"], ["27351106", "44569674", "22", "159", "1150", "0", "0", "0", "0", "highway=residential surface=asphalt oneway=yes", "", "110", "11001"], ["27350804", "44565008", "23", "521", "1150", "0", "93", "0", "0", "reversedirection=yes highway=residential surface=asphalt", "highway=crossing crossing=uncontrolled", "202", "20299"], ["27350877", "44564671", "23", "37", "1150", "0", "1", "0", "0", "reversedirection=yes highway=residential surface=asphalt", "", "211", "21129"], ["27350964", "44564475", "23", "23", "1450", "0", "2", "0", "0", "reversedirection=yes highway=tertiary surface=asphalt", "highway=crossing", "215", "21566"], ["27351896", "44562911", "26", "189", "1450", "0", "0", "0", "0", "reversedirection=yes highway=tertiary surface=asphalt", "highway=crossing", "256", "25653"], ["27352102", "44562614", "27", "37", "1450", "0", "0", "0", "0", "reversedirection=yes highway=tertiary surface=asphalt", "estimated_crossing_class=5", "267", "26709"], ["27352869", "44562537", "26", "62", "3050", "0", "39", "0", "0", "highway=primary surface=asphalt smoothness=excellent oneway=no", "estimated_crossing_class=5", "278", "27885"], ["27352917", "44562532", "26", "4", "3050", "0", "0", "0", "0", "highway=primary surface=asphalt smoothness=excellent oneway=no", "estimated_crossing_class=5", "279", "27958"], ["27352889", "44562400", "25", "15", "1150", "0", "90", "0", "0", "highway=residential surface=asphalt oneway=yes", "", "282", "28214"], ["27351513", "44562533", "26", "110", "5050", "0", "88", "0", "0", "reversedirection=yes highway=footway", "", "302", "30238"], ["27351565", "44562432", "26", "12", "5050", "0", "132", "0", "0", "highway=footway", "", "304", "30449"]], "times": [0, 0.336, 2.52, 5.917, 77.604, 79.135, 110.003, 111.069, 128.958, 136.721, 143.015, 156.934, 172.813, 191.387, 196.201, 202.973, 204.794, 208.548, 211.277, 213.192, 215.646, 218.434, 229.765, 239.676, 256.506, 267.07, 278.825, 279.557, 282.112, 302.353, 304.465]}, "geometry": {"type": "LineString", "coordinates": [[27.358216, 44.569674, 19.0], [27.358225, 44.569653, 19.0], [27.358107, 44.569736, 19.0], [27.357876, 44.56976, 19.25], [27.353218, 44.569702, 21.0], [27.353102, 44.569701, 21.0], [27.351106, 44.569674, 22.0], [27.35111, 44.569619, 22.0], [27.351062, 44.568855, 23.0], [27.351027, 44.568355, 21.5], [27.351008, 44.568017, 22.0], [27.350961, 44.567203, 21.5], [27.350898, 44.566359, 24.75], [27.350822, 44.565534, 22.75], [27.350804, 44.565257, 22.0], [27.350804, 44.565008, 23.75], [27.350804, 44.564933, 23.75], [27.350834, 44.564788, 24.0], [27.350877, 44.564671, 23.75], [27.350898, 44.564586, 23.5], [27.350964, 44.564475, 23.5], [27.35104, 44.56434, 23.25], [27.351294, 44.563868, 24.0], [27.351568, 44.563406, 23.75], [27.351896, 44.562911, 26.0], [27.352102, 44.562614, 27.0], [27.352869, 44.562537, 26.0], [27.352917, 44.562532, 26.0], [27.352889, 44.5624, 25.75], [27.351513, 44.562533, 26.25], [27.351565, 44.562432, 26.25]]}}]}