{"type": "FeatureCollection", "features": [{"type": "Feature", "properties": {"creator": "BRouter-1.7.10", "name": "brouter_trekking_0", "track-length": "871", "filtered ascend": "8", "plain-ascend": "3", "total-time": "164", "total-energy": "16451", "cost": "1729", "messages": [["Longitude", "Latitude", "Elevation", "Distance", "CostPerKm", "ElevCost", "TurnCost", "NodeCost", "InitialCost", "WayTags", "NodeTags", "Time", "Energy"], ["27364209", "44564006", "23", "5", "1050", "0", "0", "0", "0", "highway=tertiary surface=asphalt foot=yes bicycle=yes oneway=yes", "highway=crossing", "0", "89"], ["27364172", "44564007", "23", "3", "1050", "0", "0", "0", "0", "highway=tertiary surface=asphalt foot=yes bicycle=yes oneway=yes", "", "1", "143"], ["27363986", "44563903", "24", "19", "1450", "0", "21", "0", "0", "highway=tertiary surface=asphalt oneway=yes", "highway=crossing", "5", "503"], ["27363887", "44563848", "24", "10", "1450", "0", "0", "0", "0", "highway=tertiary surface=asphalt oneway=yes", "", "6", "690"], ["27363897", "44563794", "23", "6", "1450", "0", "44", "0", "0", "reversedirection=yes highway=tertiary surface=asphalt oneway=no", "highway=crossing", "7", "793"], ["27364128", "44562198", "28", "177", "1450", "0", "0", "0", "0", "reversedirection=yes highway=tertiary surface=asphalt oneway=no", "highway=crossing", "47", "4707"], ["27364130", "44562122", "28", "8", "1450", "0", "0", "0", "0", "reversedirection=yes highway=tertiary surface=asphalt oneway=no", "estimated_crossing_class=5", "48", "4843"], ["27364129", "44562004", "27", "13", "1150", "0", "0", "0", "0", "highway=residential surface=asphalt", "highway=crossing", "52", "5260"], ["27361092", "44560079", "24", "435", "1150", "0", "94", "0", "0", "highway=residential surface=asphalt", "highway=crossing crossing=uncontrolled", "128", "12808"], ["27360954", "44560056", "24", "11", "1150", "0", "1", "0", "0", "highway=residential surface=asphalt", "", "130", "13006"], ["27361587", "44558927", "25", "136", "1450", "0", "93", "0", "0", "highway=tertiary surface=asphalt", "", "154", "15470"], ["27361518", "44558659", "26", "48", "5050", "0", "181", "0", "0", "reversedirection=yes highway=footway", "", "164", "16451"]], "times": [0, 0.898, 1.435, 5.037, 6.901, 7.939, 12.485, 16.814, 22.063, 30.415, 43.017, 47.066, 48.427, 52.595, 57.039, 59.414, 61.186, 63.141, 64.5, 76.718, 79.034, 83.643, 84.843, 101.048, 108.706, 113.353, 119.067, 123.707, 128.055, 130.039, 133.359, 135.113, 143.683, 154.678, 160.988, 164.489]}, "geometry": {"type": "LineString", "coordinates": [[27.364273, 44.564006, 23.5], [27.364209, 44.564006, 23.75], [27.364172, 44.564007, 23.75], [27.363986, 44.563903, 24.0], [27.363887, 44.563848, 24.0], [27.363897, 44.563794, 23.75], [27.363953, 44.563541, 23.5], [27.363999, 44.563291, 23.25], [27.36404, 44.563082, 24.75], [27.364082, 44.562787, 25.5], [27.364118, 44.5624, 26.75], [27.364128, 44.562198, 28.5], [27.36413, 44.562122, 28.25], [27.364129, 44.562004, 27.75], [27.364116, 44.56168, 24.0], [27.364086, 44.561519, 24.0], [27.364062, 44.561402, 24.0], [27.36405, 44.561276, 24.0], [27.364049, 44.561195, 24.25], [27.36402, 44.56021, 21.75], [27.363712, 44.560205, 19.75], [27.363366, 44.560169, 19.0], [27.363224, 44.560148, 19.5], [27.362389, 44.560018, 23.5], [27.362029, 44.560001, 24.5], [27.361832, 44.560044, 25.25], [27.361598, 44.560072, 25.75], [27.36137, 44.560088, 25.5], [27.361092, 44.560079, 24.75], [27.360954, 44.560056, 24.5], [27.361022, 44.559877, 24.0], [27.361067, 44.55978, 24.0], [27.361332, 44.559345, 24.0], [27.361587, 44.558927, 25.25], [27.361373, 44.558639, 27.75], [27.361518, 44.558659, 26.0]]}}]}