{"type": "FeatureCollection", "features": [{"type": "Feature", "properties": {"creator": "BRouter-1.7.10", "name": "brouter_trekking_0", "track-length": "722", "filtered ascend": "7", "plain-ascend": "2", "total-time": "136", "total-energy": "13628", "cost": "1968", "messages": [["Longitude", "Latitude", "Elevation", "Distance", "CostPerKm", "ElevCost", "TurnCost", "NodeCost", "InitialCost", "WayTags", "NodeTags", "Time", "Energy"], ["27363916", "44562005", "26", "75", "5050", "0", "90", "0", "0", "highway=footway", "", "16", "1625"], ["27364129", "44562004", "27", "17", "5050", "0", "0", "0", "0", "reversedirection=yes highway=footway", "highway=crossing", "19", "1919"], ["27361092", "44560079", "24", "435", "1150", "0", "186", "0", "0", "highway=residential surface=asphalt", "highway=crossing crossing=uncontrolled", "99", "9932"], ["27360954", "44560056", "24", "11", "1150", "0", "1", "0", "0", "highway=residential surface=asphalt", "", "101", "10137"], ["27361587", "44558927", "25", "136", "1450", "0", "93", "0", "0", "highway=tertiary surface=asphalt", "", "126", "12641"], ["27361518", "44558659", "26", "48", "5050", "0", "181", "0", "0", "reversedirection=yes highway=footway", "", "136", "13628"]], "times": [0, 1.848, 4.368, 10.16, 16.256, 19.196, 24.442, 27.154, 29.142, 31.309, 32.805, 45.536, 47.891, 50.606, 51.977, 70.622, 78.939, 83.888, 89.907, 94.769, 99.296, 101.348, 104.759, 106.554, 115.272, 126.386, 132.739, 136.258]}, "geometry": {"type": "LineString", "coordinates": [[27.363097, 44.561909, 24.0], [27.3631, 44.562007, 24.0], [27.363294, 44.562004, 24.0], [27.363639, 44.562005, 25.0], [27.363916, 44.562005, 26.25], [27.364129, 44.562004, 27.75], [27.364116, 44.56168, 24.0], [27.364086, 44.561519, 24.0], [27.364062, 44.561402, 24.0], [27.36405, 44.561276, 24.0], [27.364049, 44.561195, 24.25], [27.36402, 44.56021, 21.75], [27.363712, 44.560205, 19.75], [27.363366, 44.560169, 19.0], [27.363224, 44.560148, 19.5], [27.362389, 44.560018, 23.5], [27.362029, 44.560001, 24.5], [27.361832, 44.560044, 25.25], [27.361598, 44.560072, 25.75], [27.36137, 44.560088, 25.5], [27.361092, 44.560079, 24.75], [27.360954, 44.560056, 24.5], [27.361022, 44.559877, 24.0], [27.361067, 44.55978, 24.0], [27.361332, 44.559345, 24.0], [27.361587, 44.558927, 25.25], [27.361373, 44.558639, 27.75], [27.361518, 44.558659, 26.0]]}}]}