{"type": "FeatureCollection", "features": [{"type": "Feature", "properties": {"creator": "BRouter-1.7.10", "name": "brouter_trekking_0", "track-length": "1368", "filtered ascend": "0", "plain-ascend": "-3", "total-time": "214", "total-energy": "21410", "cost": "2915", "messages": [["Longitude", "Latitude", "Elevation", "Distance", "CostPerKm", "ElevCost", "TurnCost", "NodeCost", "InitialCost", "WayTags", "NodeTags", "Time", "Energy"], ["27384364", "44568213", "21", "46", "5050", "0", "150", "0", "0", "reversedirection=yes highway=footway", "", "5", "564"], ["27383984", "44568419", "21", "48", "5050", "0", "139", "0", "0", "highway=footway", "", "11", "1159"], ["27383442", "44568700", "20", "53", "5050", "0", "65", "0", "0", "reversedirection=yes highway=footway", "highway=crossing", "18", "1877"], ["27382260", "44567515", "23", "162", "1150", "0", "99", "0", "0", "reversedirection=yes highway=residential surface=asphalt", "", "52", "5226"], ["27380280", "44568484", "20", "204", "1150", "0", "216", "0", "0", "highway=residential oneway=no", "", "80", "8047"], ["27379304", "44570323", "22", "218", "1150", "0", "4", "0", "0", "reversedirection=yes highway=residential oneway=no", "", "121", "12198"], ["27378067", "44572982", "21", "311", "1150", "0", "2", "0", "0", "reversedirection=yes highway=residential", "highway=crossing crossing=uncontrolled", "169", "16977"], ["27377062", "44574800", "13", "230", "1150", "0", "90", "0", "0", "reversedirection=yes highway=residential", "highway=crossing crossing=uncontrolled", "198", "19874"], ["27375919", "44574538", "18", "96", "1150", "0", "0", "0", "0", "reversedirection=yes highway=residential", "", "214", "21410"]], "times": [0.148, 4.544, 4.795, 5.035, 5.276, 5.64, 8.15, 8.521, 8.895, 9.272, 9.652, 10.034, 10.42, 10.808, 11.199, 11.592, 15.803, 17.949, 18.772, 23.015, 26.564, 39.622, 52.253, 59.013, 62.228, 67.836, 68.782, 69.741, 70.852, 80.467, 82.349, 85.11, 121.965, 140.216, 141.529, 167.733, 169.746, 197.098, 198.712, 204.83, 214.076]}, "geometry": {"type": "LineString", "coordinates": [[27.38444, 44.567831, 22.75], [27.384422, 44.568161, 21.5], [27.384398, 44.568161, 21.5], [27.384378, 44.568169, 21.25], [27.384364, 44.568182, 21.25], [27.384364, 44.568213, 21.25], [27.384156, 44.568326, 21.0], [27.38417, 44.568349, 21.0], [27.384173, 44.568375, 21.0], [27.384164, 44.568399, 21.0], [27.384144, 44.568421, 21.0], [27.384116, 44.568436, 21.0], [27.384082, 44.568444, 21.0], [27.384046, 44.568444, 21.0], [27.384012, 44.568435, 21.0], [27.383984, 44.568419, 21.0], [27.383663, 44.568581, 21.0], [27.383497, 44.568666, 20.75], [27.383442, 44.5687, 20.75], [27.383229, 44.56848, 20.75], [27.383084, 44.56834, 21.75], [27.382726, 44.567981, 23.5], [27.38226, 44.567515, 23.0], [27.381833, 44.567723, 22.5], [27.38159, 44.567841, 21.75], [27.381125, 44.568064, 21.0], [27.381041, 44.568069, 21.0], [27.380972, 44.568037, 21.0], [27.380904, 44.567987, 21.0], [27.38028, 44.568484, 20.25], [27.3802, 44.568601, 20.0], [27.380058, 44.568783, 19.25], [27.379304, 44.570323, 22.0], [27.378772, 44.571429, 17.5], [27.378756, 44.5715, 17.75], [27.378107, 44.572896, 20.5], [27.378067, 44.572982, 21.25], [27.377222, 44.574837, 14.75], [27.377062, 44.5748, 13.75], [27.376492, 44.574669, 16.5], [27.375919, 44.574538, 18.5]]}}]}