{"type": "FeatureCollection", "features": [{"type": "Feature", "properties": {"creator": "BRouter-1.7.10", "name": "brouter_trekking_0", "track-length": "1740", "filtered ascend": "2", "plain-ascend": "-1", "total-time": "293", "total-energy": "29302", "cost": "3426", "messages": [["Longitude", "Latitude", "Elevation", "Distance", "CostPerKm", "ElevCost", "TurnCost", "NodeCost", "InitialCost", "WayTags", "NodeTags", "Time", "Energy"], ["27369488", "44562139", "24", "3", "3050", "0", "0", "0", "0", "highway=primary surface=asphalt smoothness=excellent oneway=no", "estimated_crossing_class=4", "0", "53"], ["27369579", "44562222", "25", "12", "1150", "0", "34", "0", "0", "reversedirection=yes highway=residential surface=asphalt", "highway=crossing", "2", "298"], ["27369896", "44562528", "24", "42", "1150", "0", "0", "0", "0", "reversedirection=yes highway=residential surface=asphalt", "highway=crossing", "10", "1029"], ["27370043", "44562660", "24", "19", "1150", "0", "0", "0", "0", "reversedirection=yes highway=residential surface=asphalt", "highway=crossing", "13", "1328"], ["27371506", "44563919", "22", "182", "1150", "0", "0", "0", "0", "reversedirection=yes highway=residential surface=asphalt", "highway=crossing", "37", "3736"], ["27371605", "44563996", "22", "12", "1150", "0", "0", "0", "0", "reversedirection=yes highway=residential surface=asphalt", "", "39", "3910"], ["27371679", "44563908", "22", "11", "1450", "0", "115", "0", "0", "highway=tertiary surface=asphalt", "highway=crossing", "40", "4093"], ["27373256", "44562983", "24", "162", "1450", "0", "0", "0", "0", "highway=tertiary surface=asphalt", "", "70", "7088"], ["27373353", "44563105", "24", "16", "1150", "0", "91", "0", "0", "highway=residential surface=asphalt oneway=yes", "highway=crossing crossing=uncontrolled", "74", "7412"], ["27374256", "44564044", "22", "127", "1150", "0", "0", "0", "0", "highway=residential surface=asphalt oneway=yes", "", "93", "9313"], ["27375054", "44563480", "21", "89", "1150", "0", "95", "0", "0", "highway=residential surface=asphalt", "", "105", "10542"], ["27375466", "44563516", "22", "33", "1150", "0", "35", "0", "0", "reversedirection=yes highway=residential surface=asphalt", "", "110", "11091"], ["27376136", "44563593", "24", "54", "1150", "0", "0", "0", "0", "highway=residential surface=asphalt", "highway=crossing crossing=uncontrolled", "124", "12478"], ["27376475", "44563634", "24", "27", "1150", "0", "0", "0", "0", "highway=residential surface=asphalt", "highway=crossing crossing=uncontrolled", "130", "13079"], ["27377406", "44563916", "23", "82", "1150", "0", "1", "0", "0", "highway=residential surface=asphalt", "highway=crossing crossing=uncontrolled", "146", "14669"], ["27380657", "44565849", "26", "336", "1150", "0", "0", "0", "0", "highway=residential surface=asphalt", "highway=crossing crossing=uncontrolled", "215", "21564"], ["27380845", "44565974", "26", "20", "1150", "0", "0", "0", "0", "highway=residential surface=asphalt", "highway=crossing crossing=uncontrolled", "219", "21964"], ["27383442", "44568700", "20", "366", "1150", "0", "1", "0", "0", "highway=residential surface=asphalt", "highway=crossing", "268", "26834"], ["27383984", "44568419", "21", "53", "5050", "0", "99", "0", "0", "highway=footway", "", "275", "27564"], ["27384364", "44568213", "21", "48", "5050", "0", "169", "0", "0", "reversedirection=yes highway=footway", "", "282", "28300"], ["27384440", "44567831", "22", "46", "5050", "0", "157", "0", "0", "highway=footway", "", "292", "29302"]], "times": [0, 0.539, 2.988, 10.297, 11.916, 13.289, 16.053, 18.494, 25.5, 37.36, 39.1, 40.933, 43.066, 47.609, 50.913, 54.887, 62.25, 70.88, 74.121, 78.819, 85.719, 88.549, 93.129, 99.761, 105.41, 110.902, 124.768, 130.776, 134.969, 138.2, 140.37, 146.668, 157.632, 162.706, 176.134, 215.61, 218.093, 219.609, 223.584, 229.18, 239.348, 245.613, 256.656, 262.636, 264.731, 268.302, 269.053, 271.223, 275.604, 276.039, 276.476, 276.914, 277.355, 277.797, 278.241, 278.687, 279.134, 279.582, 282.954, 283.438, 283.761, 284.106, 284.452, 292.972]}, "geometry": {"type": "LineString", "coordinates": [[27.369455, 44.562138, 24.5], [27.369488, 44.562139, 24.75], [27.369579, 44.562222, 25.25], [27.369896, 44.562528, 24.75], [27.36997, 44.562598, 24.5], [27.370043, 44.56266, 24.25], [27.370208, 44.562797, 23.75], [27.370361, 44.562923, 23.25], [27.370796, 44.563287, 23.0], [27.371506, 44.563919, 22.25], [27.371605, 44.563996, 22.25], [27.371679, 44.563908, 22.75], [27.371771, 44.563821, 23.0], [27.372021, 44.563625, 22.5], [27.372219, 44.563486, 22.25], [27.372446, 44.563353, 22.75], [27.372822, 44.563165, 23.5], [27.373256, 44.562983, 24.0], [27.373353, 44.563105, 24.0], [27.373506, 44.563296, 24.0], [27.373823, 44.563659, 22.75], [27.373975, 44.56381, 22.25], [27.374256, 44.564044, 22.0], [27.374674, 44.563757, 22.0], [27.375054, 44.56348, 21.25], [27.375466, 44.563516, 22.0], [27.376136, 44.563593, 24.0], [27.376475, 44.563634, 24.0], [27.376719, 44.563674, 24.0], [27.376907, 44.563713, 24.0], [27.377033, 44.563749, 24.0], [27.377406, 44.563916, 23.75], [27.378092, 44.564292, 23.25], [27.378415, 44.564484, 23.0], [27.379119, 44.564902, 23.75], [27.380657, 44.565849, 26.25], [27.380771, 44.565919, 26.5], [27.380845, 44.565974, 26.25], [27.381034, 44.566181, 25.25], [27.381404, 44.566583, 23.0], [27.381968, 44.567197, 22.75], [27.38226, 44.567515, 23.0], [27.382726, 44.567981, 23.5], [27.383084, 44.56834, 21.75], [27.383229, 44.56848, 20.75], [27.383442, 44.5687, 20.75], [27.383497, 44.568666, 20.75], [27.383663, 44.568581, 21.0], [27.383984, 44.568419, 21.0], [27.384012, 44.568435, 21.0], [27.384046, 44.568444, 21.0], [27.384082, 44.568444, 21.0], [27.384116, 44.568436, 21.0], [27.384144, 44.568421, 21.0], [27.384164, 44.568399, 21.0], [27.384173, 44.568375, 21.0], [27.38417, 44.568349, 21.0], [27.384156, 44.568326, 21.0], [27.384364, 44.568213, 21.25], [27.384364, 44.568182, 21.25], [27.384378, 44.568169, 21.25], [27.384398, 44.568161, 21.5], [27.384422, 44.568161, 21.5], [27.38444, 44.567831, 22.75]]}}]}