{"type": "FeatureCollection", "features": [{"type": "Feature", "properties": {"creator": "BRouter-1.7.10", "name": "brouter_trekking_0", "track-length": "699", "filtered ascend": "1", "plain-ascend": "-6", "total-time": "98", "total-energy": "9821", "cost": "1216", "messages": [["Longitude", "Latitude", "Elevation", "Distance", "CostPerKm", "ElevCost", "TurnCost", "NodeCost", "InitialCost", "WayTags", "NodeTags", "Time", "Energy"], ["27361090", "44564925", "27", "39", "1150", "0", "0", "0", "0", "highway=residential", "", "7", "795"], ["27361090", "44565020", "26", "11", "1450", "0", "95", "0", "0", "highway=tertiary surface=asphalt oneway=yes", "highway=crossing", "9", "991"], ["27361092", "44566062", "23", "116", "1450", "0", "0", "0", "0", "highway=tertiary surface=asphalt oneway=yes", "highway=crossing", "23", "2318"], ["27361092", "44566127", "23", "7", "1450", "0", "0", "0", "0", "highway=tertiary surface=asphalt oneway=yes", "", "24", "2413"], ["27360964", "44566130", "23", "10", "1150", "0", "87", "0", "0", "highway=residential surface=asphalt oneway=no", "", "25", "2543"], ["27360860", "44566163", "23", "9", "1150", "0", "6", "0", "0", "highway=residential surface=asphalt oneway=yes", "highway=crossing", "26", "2657"], ["27359949", "44566456", "24", "79", "1150", "0", "0", "0", "0", "highway=residential surface=asphalt oneway=yes", "", "38", "3843"], ["27359740", "44566460", "24", "17", "1150", "0", "7", "0", "0", "reversedirection=yes highway=residential surface=asphalt", "highway=crossing", "41", "4192"], ["27359669", "44566461", "25", "6", "1150", "0", "0", "0", "0", "reversedirection=yes highway=residential surface=asphalt", "", "43", "4322"], ["27358922", "44567988", "22", "180", "1050", "0", "58", "0", "0", "reversedirection=yes highway=tertiary surface=asphalt foot=yes bicycle=yes cycleway=no oneway=no", "highway=crossing crossing=uncontrolled", "72", "7232"], ["27358461", "44568964", "20", "115", "1050", "0", "0", "0", "0", "reversedirection=yes highway=tertiary surface=asphalt foot=yes bicycle=yes cycleway=no oneway=no", "", "84", "8499"], ["27358498", "44568995", "20", "5", "1050", "0", "44", "0", "0", "highway=tertiary surface=asphalt access=yes foot=yes bicycle=yes cycleway=no oneway=no", "highway=crossing", "85", "8560"], ["27358819", "44569262", "20", "39", "1050", "0", "0", "0", "0", "highway=tertiary surface=asphalt access=yes foot=yes bicycle=yes cycleway=no oneway=no", "", "90", "9041"], ["27358225", "44569653", "19", "64", "1150", "0", "87", "0", "0", "reversedirection=yes highway=residential surface=asphalt access=yes foot=yes bicycle=yes cycleway=no oneway=no", "highway=crossing", "97", "9795"], ["27358216", "44569674", "19", "2", "5050", "0", "13", "0", "0", "reversedirection=yes highway=footway", "", "98", "9821"]], "times": [0, 5.247, 7.959, 9.918, 23.179, 24.129, 25.435, 26.573, 31.274, 38.424, 41.919, 43.211, 59.701, 69.252, 72.311, 73.405, 73.854, 78.275, 84.98, 85.591, 90.406, 97.937, 98.195]}, "geometry": {"type": "LineString", "coordinates": [[27.360604, 44.564922, 26.25], [27.36093, 44.564932, 27.0], [27.36109, 44.564925, 27.25], [27.36109, 44.56502, 26.75], [27.361092, 44.566062, 23.75], [27.361092, 44.566127, 23.75], [27.360964, 44.56613, 23.5], [27.36086, 44.566163, 23.25], [27.360434, 44.5663, 23.0], [27.359949, 44.566456, 24.0], [27.35974, 44.56646, 24.75], [27.359669, 44.566461, 25.0], [27.359285, 44.567243, 24.5], [27.359035, 44.567759, 24.0], [27.358922, 44.567988, 22.25], [27.35888, 44.568073, 21.75], [27.358868, 44.568105, 21.75], [27.358714, 44.568446, 21.25], [27.358461, 44.568964, 20.25], [27.358498, 44.568995, 20.25], [27.358819, 44.569262, 20.0], [27.358225, 44.569653, 19.0], [27.358216, 44.569674, 19.0]]}}]}