{"type": "FeatureCollection", "features": [{"type": "Feature", "properties": {"creator": "BRouter-1.7.10", "name": "brouter_trekking_0", "track-length": "2169", "filtered ascend": "5", "plain-ascend": "-1", "total-time": "370", "total-energy": "36994", "cost": "5262", "messages": [["Longitude", "Latitude", "Elevation", "Distance", "CostPerKm", "ElevCost", "TurnCost", "NodeCost", "InitialCost", "WayTags", "NodeTags", "Time", "Energy"], ["27351583", "44562398", "26", "2", "5050", "0", "0", "0", "0", "highway=footway", "", "0", "33"], ["27351513", "44562533", "26", "16", "5050", "0", "72", "0", "0", "reversedirection=yes highway=footway", "", "3", "302"], ["27352889", "44562400", "25", "110", "5050", "0", "132", "0", "0", "highway=footway", "", "20", "2008"], ["27352917", "44562532", "26", "15", "5150", "0", "88", "0", "0", "reversedirection=yes highway=residential surface=asphalt oneway=yes", "estimated_crossing_class=5", "22", "2265"], ["27352869", "44562537", "26", "4", "3050", "0", "90", "0", "0", "reversedirection=yes highway=primary surface=asphalt smoothness=excellent oneway=no", "estimated_crossing_class=5", "23", "2334"], ["27353114", "44564294", "23", "216", "1150", "0", "120", "0", "0", "highway=residential surface=asphalt oneway=yes", "", "52", "5276"], ["27353128", "44564622", "23", "36", "1150", "0", "0", "0", "0", "highway=residential surface=asphalt", "", "57", "5763"], ["27353782", "44564631", "24", "52", "1450", "0", "85", "0", "0", "highway=tertiary surface=asphalt oneway=yes", "highway=crossing crossing=uncontrolled", "67", "6744"], ["27355483", "44564645", "24", "136", "1450", "0", "0", "0", "0", "highway=tertiary surface=asphalt oneway=yes", "highway=crossing crossing=uncontrolled", "92", "9232"], ["27357365", "44564651", "25", "149", "1450", "0", "0", "0", "0", "highway=tertiary surface=asphalt oneway=yes", "highway=crossing", "120", "12091"], ["27358286", "44564654", "30", "73", "1450", "0", "0", "0", "0", "highway=tertiary surface=asphalt oneway=yes", "highway=crossing", "139", "13980"], ["27359762", "44564654", "24", "118", "1450", "0", "0", "0", "0", "highway=tertiary surface=asphalt oneway=yes", "highway=crossing", "157", "15778"], ["27361170", "44564399", "28", "117", "1450", "0", "2", "0", "0", "highway=tertiary surface=asphalt oneway=yes", "highway=crossing", "182", "18266"], ["27363536", "44564052", "23", "194", "1450", "0", "0", "0", "0", "highway=tertiary surface=asphalt oneway=yes", "highway=crossing", "209", "20909"], ["27363887", "44563848", "24", "37", "1450", "0", "0", "0", "0", "highway=tertiary surface=asphalt oneway=yes", "", "214", "21468"], ["27363897", "44563794", "23", "6", "1450", "0", "20", "0", "0", "reversedirection=yes highway=tertiary surface=asphalt oneway=no", "highway=crossing", "215", "21555"], ["27364128", "44562198", "28", "177", "1450", "0", "0", "0", "0", "reversedirection=yes highway=tertiary surface=asphalt oneway=no", "highway=crossing", "251", "25191"], ["27364130", "44562122", "28", "8", "1450", "0", "0", "0", "0", "reversedirection=yes highway=tertiary surface=asphalt oneway=no", "estimated_crossing_class=5", "254", "25475"], ["27364315", "44562123", "28", "15", "3050", "0", "89", "0", "0", "highway=primary surface=asphalt smoothness=excellent oneway=no", "highway=crossing estimated_crossing_class=5", "259", "25972"], ["27364727", "44562123", "27", "33", "3050", "0", "0", "0", "0", "highway=primary surface=asphalt smoothness=excellent oneway=no", "estimated_crossing_class=5", "267", "26780"], ["27365877", "44562128", "23", "91", "3050", "0", "0", "0", "0", "highway=primary surface=asphalt smoothness=excellent oneway=no", "highway=crossing estimated_crossing_class=5", "282", "28279"], ["27366253", "44562127", "23", "30", "3050", "0", "0", "0", "0", "highway=primary surface=asphalt smoothness=excellent oneway=no", "estimated_crossing_class=5", "287", "28778"], ["27366253", "44561996", "23", "15", "1350", "0", "89", "0", "0", "highway=service oneway=yes", "highway=crossing", "289", "28929"], ["27366251", "44561413", "24", "65", "1350", "0", "0", "0", "0", "highway=service oneway=yes", "", "297", "29745"], ["27366485", "44561168", "25", "33", "1150", "0", "43", "0", "0", "highway=residential surface=asphalt", "", "302", "30288"], ["27368370", "44561194", "24", "150", "1150", "0", "62", "0", "0", "highway=residential surface=asphalt oneway=no", "", "325", "32593"], ["27368560", "44561248", "24", "17", "1150", "0", "23", "0", "0", "highway=residential oneway=no", "", "328", "32845"], ["27370599", "44561480", "23", "184", "1150", "0", "92", "0", "0", "highway=residential surface=asphalt oneway=no", "", "354", "35491"], ["27370839", "44560989", "24", "70", "5050", "0", "262", "0", "0", "reversedirection=yes highway=footway", "", "369", "36994"]], "times": [0, 0.336, 3.024, 20.082, 22.656, 23.341, 24.709, 28.813, 30.187, 30.713, 36.946, 37.566, 38.188, 38.628, 43.07, 45.445, 52.764, 57.634, 67.435, 90.74, 92.317, 119.008, 120.91, 123.694, 124.817, 139.791, 142.577, 152.446, 157.773, 158.941, 160.327, 161.691, 174.992, 178.286, 182.638, 196.047, 197.706, 201.084, 202.479, 205.115, 206.465, 209.066, 210.856, 212.366, 214.658, 215.528, 219.463, 223.354, 228.132, 235.921, 247.972, 251.883, 254.724, 259.688, 267.765, 282.754, 287.741, 289.256, 294.064, 297.413, 299.221, 300.868, 302.849, 306.894, 317.414, 318.167, 325.895, 327.074, 327.817, 328.414, 334.908, 340.798, 343.218, 344.515, 346.681, 347.51, 348.436, 350.554, 351.777, 352.546, 354.872, 366.875, 369.896]}, "geometry": {"type": "LineString", "coordinates": [[27.351611, 44.562401, 26.25], [27.351583, 44.562398, 26.25], [27.351513, 44.562533, 26.25], [27.352889, 44.5624, 25.75], [27.352917, 44.562532, 26.0], [27.352869, 44.562537, 26.0], [27.352874, 44.562605, 26.0], [27.352855, 44.562846, 25.5], [27.352873, 44.562936, 25.0], [27.352898, 44.562968, 24.75], [27.353299, 44.563204, 25.25], [27.353329, 44.563229, 25.25], [27.353341, 44.563261, 25.25], [27.353334, 44.563292, 25.0], [27.353157, 44.563586, 24.0], [27.353082, 44.563742, 24.0], [27.353114, 44.564294, 23.0], [27.353128, 44.564622, 23.0], [27.353782, 44.564631, 24.25], [27.355374, 44.564644, 24.5], [27.355483, 44.564645, 24.5], [27.357238, 44.564649, 25.25], [27.357365, 44.564651, 25.5], [27.357525, 44.564651, 26.0], [27.357592, 44.564651, 26.25], [27.358286, 44.564654, 30.5], [27.358421, 44.564655, 30.75], [27.359213, 44.564657, 26.0], [27.359762, 44.564654, 24.5], [27.359871, 44.564654, 24.5], [27.360002, 44.564637, 24.25], [27.360122, 44.564613, 24.5], [27.36081, 44.564436, 26.75], [27.360975, 44.564415, 27.5], [27.36117, 44.564399, 28.0], [27.362201, 44.564337, 26.25], [27.362346, 44.564327, 25.5], [27.362732, 44.564283, 24.0], [27.362891, 44.564252, 23.5], [27.363187, 44.564178, 23.0], [27.363323, 44.564135, 23.0], [27.363536, 44.564052, 23.75], [27.363657, 44.563993, 24.0], [27.36375, 44.563939, 24.0], [27.363887, 44.563848, 24.0], [27.363897, 44.563794, 23.75], [27.363953, 44.563541, 23.5], [27.363999, 44.563291, 23.25], [27.36404, 44.563082, 24.75], [27.364082, 44.562787, 25.5], [27.364118, 44.5624, 26.75], [27.364128, 44.562198, 28.5], [27.36413, 44.562122, 28.25], [27.364315, 44.562123, 28.25], [27.364727, 44.562123, 27.5], [27.365877, 44.562128, 23.25], [27.366253, 44.562127, 23.25], [27.366253, 44.561996, 23.75], [27.366252, 44.561613, 23.75], [27.366251, 44.561413, 24.75], [27.366365, 44.56135, 25.0], [27.366436, 44.561273, 25.0], [27.366485, 44.561168, 25.0], [27.366773, 44.56117, 25.25], [27.367613, 44.561176, 24.75], [27.36768, 44.561176, 24.5], [27.36837, 44.561194, 24.0], [27.368471, 44.5612, 24.0], [27.368535, 44.561218, 24.0], [27.36856, 44.561248, 24.0], [27.369207, 44.561244, 23.0], [27.369711, 44.561246, 23.25], [27.369882, 44.561192, 23.5], [27.369973, 44.56117, 23.5], [27.370156, 44.561177, 23.0], [27.370224, 44.561201, 22.75], [27.370294, 44.561238, 22.5], [27.370455, 44.561277, 23.0], [27.370542, 44.561307, 23.0], [27.370581, 44.561345, 23.0], [27.370599, 44.56148, 23.0], [27.370645, 44.56099, 24.5], [27.370839, 44.560989, 24.5]]}}]}