{"type": "FeatureCollection", "features": [{"type": "Feature", "properties": {"creator": "BRouter-1.7.10", "name": "brouter_trekking_0", "track-length": "3362", "filtered ascend": "6", "plain-ascend": "-4", "total-time": "574", "total-energy": "57443", "cost": "5364", "messages": [["Longitude", "Latitude", "Elevation", "Distance", "CostPerKm", "ElevCost", "TurnCost", "NodeCost", "InitialCost", "WayTags", "NodeTags", "Time", "Energy"], ["27348918", "44562180", "21", "95", "1350", "0", "92", "0", "0", "highway=service", "", "18", "1874"], ["27349005", "44562429", "22", "29", "1350", "0", "94", "0", "0", "reversedirection=yes highway=service surface=asphalt", "", "24", "2447"], ["27349189", "44562491", "22", "16", "1350", "0", "15", "0", "0", "highway=service surface=asphalt oneway=yes", "highway=give_way direction=forward", "27", "2799"], ["27349290", "44562525", "23", "9", "1350", "0", "0", "0", "0", "highway=service surface=asphalt oneway=yes", "", "30", "3004"], ["27349624", "44562661", "23", "35", "10050", "0", "0", "0", "0", "highway=trunk surface=asphalt foot=no smoothness=good junction=roundabout", "", "37", "3757"], ["27350307", "44562790", "25", "57", "3050", "0", "19", "0", "0", "highway=primary surface=asphalt oneway=yes", "", "53", "5338"], ["27350782", "44562739", "24", "38", "3050", "0", "1", "0", "0", "highway=primary surface=asphalt oneway=no", "railway=level_crossing", "61", "6127"], ["27352102", "44562614", "27", "105", "3050", "0", "0", "0", "0", "highway=primary surface=asphalt oneway=no", "estimated_crossing_class=5", "80", "8039"], ["27351896", "44562911", "26", "37", "1450", "0", "140", "0", "0", "highway=tertiary surface=asphalt", "highway=crossing", "90", "9053"], ["27350964", "44564475", "23", "189", "1450", "0", "0", "0", "0", "highway=tertiary surface=asphalt", "highway=crossing", "118", "11889"], ["27350877", "44564671", "23", "23", "1450", "0", "2", "0", "0", "highway=tertiary surface=asphalt", "", "122", "12267"], ["27350804", "44565008", "23", "37", "1150", "0", "1", "0", "0", "highway=residential surface=asphalt", "highway=crossing crossing=uncontrolled", "129", "12910"], ["27358880", "44568073", "21", "962", "1150", "0", "85", "0", "0", "highway=residential surface=asphalt", "", "285", "28544"], ["27358461", "44568964", "20", "105", "1050", "0", "112", "0", "0", "reversedirection=yes highway=tertiary surface=asphalt foot=yes bicycle=yes cycleway=no oneway=no", "", "300", "30013"], ["27358498", "44568995", "20", "5", "1050", "0", "44", "0", "0", "highway=tertiary surface=asphalt access=yes foot=yes bicycle=yes cycleway=no oneway=no", "highway=crossing", "300", "30083"], ["27361321", "44569878", "20", "249", "1050", "0", "12", "0", "0", "highway=tertiary surface=asphalt access=yes foot=yes bicycle=yes cycleway=no oneway=no", "highway=crossing", "344", "34438"], ["27371271", "44572196", "21", "831", "1050", "0", "3", "0", "0", "highway=tertiary surface=asphalt access=yes foot=yes bicycle=yes cycleway=no oneway=no", "", "490", "49073"], ["27371024", "44573357", "21", "130", "1550", "0", "77", "0", "0", "reversedirection=yes highway=residential surface=unpaved", "", "517", "51753"], ["27372571", "44573741", "19", "130", "1150", "0", "74", "0", "0", "highway=residential", "highway=crossing crossing=uncontrolled", "534", "53432"], ["27374148", "44574110", "18", "132", "1150", "0", "0", "0", "0", "highway=residential", "highway=crossing crossing=uncontrolled", "550", "55026"], ["27375575", "44574457", "18", "119", "1150", "0", "0", "0", "0", "highway=residential", "highway=crossing crossing=uncontrolled", "569", "56976"], ["27375919", "44574538", "16", "29", "1150", "0", "0", "0", "0", "highway=residential", "", "574", "57443"]], "times": [0, 1.848, 16.596, 18.738, 21.198, 22.997, 24.474, 27.99, 30.038, 31.595, 33.122, 34.522, 36.004, 37.566, 40.783, 42.954, 45.91, 53.371, 60.318, 61.261, 67.934, 80.388, 90.52, 99.31, 108.376, 116.33, 118.866, 120.942, 122.654, 125.022, 127.729, 129.081, 132.375, 136.973, 157.645, 168.307, 182.277, 209.577, 275.341, 285.411, 286.082, 292.111, 300.103, 300.804, 306.18, 333.143, 344.341, 345.342, 362.112, 372.483, 404.786, 409.187, 430.202, 444.09, 472.832, 489.159, 490.678, 491.619, 493.672, 512.475, 517.469, 533.017, 534.26, 550.19, 552.277, 561.809, 569.694, 572.722, 574.357]}, "geometry": {"type": "LineString", "coordinates": [[27.347883, 44.56232, 21.0], [27.347873, 44.562222, 21.0], [27.348773, 44.562186, 22.0], [27.348918, 44.56218, 21.75], [27.348929, 44.562295, 22.0], [27.348958, 44.562374, 22.25], [27.349005, 44.562429, 22.5], [27.349189, 44.562491, 22.75], [27.34929, 44.562525, 23.0], [27.349376, 44.562515, 23.0], [27.349461, 44.562526, 23.0], [27.349537, 44.562557, 22.75], [27.349593, 44.562603, 23.0], [27.349624, 44.562661, 23.25], [27.34976, 44.562732, 23.75], [27.34985, 44.562765, 24.25], [27.34998, 44.562779, 24.75], [27.350307, 44.56279, 25.0], [27.350715, 44.562748, 24.25], [27.350782, 44.562739, 24.0], [27.35121, 44.562695, 24.25], [27.352102, 44.562614, 27.0], [27.351896, 44.562911, 26.0], [27.351568, 44.563406, 23.75], [27.351294, 44.563868, 24.0], [27.35104, 44.56434, 23.25], [27.350964, 44.564475, 23.5], [27.350898, 44.564586, 23.5], [27.350877, 44.564671, 23.75], [27.350834, 44.564788, 24.0], [27.350804, 44.564933, 23.75], [27.350804, 44.565008, 23.75], [27.350804, 44.565257, 22.0], [27.350822, 44.565534, 22.75], [27.350898, 44.566359, 24.75], [27.350961, 44.567203, 21.5], [27.351008, 44.568017, 22.0], [27.353113, 44.568036, 22.0], [27.35813, 44.568068, 21.75], [27.35888, 44.568073, 21.75], [27.358868, 44.568105, 21.75], [27.358714, 44.568446, 21.25], [27.358461, 44.568964, 20.25], [27.358498, 44.568995, 20.25], [27.358819, 44.569262, 20.0], [27.36029, 44.569632, 22.25], [27.361321, 44.569878, 20.25], [27.361407, 44.569898, 20.25], [27.36222, 44.570093, 22.75], [27.362848, 44.570243, 22.5], [27.364355, 44.570589, 24.75], [27.364765, 44.570686, 22.75], [27.366404, 44.57107, 20.0], [27.367757, 44.571394, 18.0], [27.369983, 44.571916, 21.0], [27.371165, 44.572192, 21.0], [27.371271, 44.572196, 21.5], [27.371277, 44.572238, 21.5], [27.371267, 44.572339, 21.5], [27.371099, 44.573033, 23.0], [27.371024, 44.573357, 21.25], [27.372461, 44.573715, 20.0], [27.372571, 44.573741, 19.75], [27.374148, 44.57411, 18.0], [27.374354, 44.574162, 17.25], [27.375062, 44.574333, 18.25], [27.375575, 44.574457, 18.75], [27.375788, 44.574508, 18.5], [27.375919, 44.574538, 16.5]]}}]}