{"type": "FeatureCollection", "features": [{"type": "Feature", "properties": {"creator": "BRouter-1.7.10", "name": "brouter_trekking_0", "track-length": "3290", "filtered ascend": "7", "plain-ascend": "1", "total-time": "575", "total-energy": "57521", "cost": "7062", "messages": [["Longitude", "Latitude", "Elevation", "Distance", "CostPerKm", "ElevCost", "TurnCost", "NodeCost", "InitialCost", "WayTags", "NodeTags", "Time", "Energy"], ["27363338", "44568406", "21", "46", "1150", "0", "0", "0", "0", "reversedirection=yes highway=residential surface=asphalt oneway=no", "", "6", "602"], ["27363335", "44568356", "21", "6", "1150", "0", "89", "0", "0", "highway=residential surface=asphalt", "", "6", "690"], ["27364010", "44567488", "24", "153", "1150", "0", "91", "0", "0", "highway=residential surface=asphalt oneway=yes", "", "37", "3789"], ["27364439", "44566868", "23", "76", "1150", "0", "48", "0", "0", "highway=residential surface=asphalt", "", "53", "5339"], ["27366151", "44565173", "22", "233", "1150", "0", "5", "0", "0", "reversedirection=yes highway=residential surface=asphalt", "", "89", "8962"], ["27369977", "44565714", "24", "325", "1150", "0", "164", "0", "0", "reversedirection=yes highway=residential surface=asphalt access=yes foot=yes bicycle=yes cycleway=no", "highway=crossing crossing=uncontrolled", "151", "15154"], ["27370089", "44565722", "23", "9", "1150", "0", "0", "0", "0", "reversedirection=yes highway=residential surface=asphalt access=yes foot=yes bicycle=yes cycleway=no", "", "153", "15311"], ["27370138", "44565668", "23", "7", "1450", "0", "48", "0", "0", "highway=tertiary surface=asphalt", "highway=crossing", "154", "15433"], ["27370870", "44564832", "20", "110", "1450", "0", "0", "0", "0", "highway=tertiary surface=asphalt", "", "167", "16761"], ["27375054", "44563480", "21", "421", "1150", "0", "173", "0", "0", "highway=residential surface=asphalt", "", "238", "23869"], ["27375466", "44563516", "22", "33", "1150", "0", "35", "0", "0", "reversedirection=yes highway=residential surface=asphalt", "", "244", "24454"], ["27376136", "44563593", "24", "54", "1150", "0", "0", "0", "0", "highway=residential surface=asphalt", "highway=crossing crossing=uncontrolled", "258", "25898"], ["27376475", "44563634", "24", "27", "1150", "0", "0", "0", "0", "highway=residential surface=asphalt", "highway=crossing crossing=uncontrolled", "265", "26516"], ["27377406", "44563916", "23", "82", "1150", "0", "1", "0", "0", "highway=residential surface=asphalt", "highway=crossing crossing=uncontrolled", "281", "28132"], ["27380657", "44565849", "26", "336", "1150", "0", "0", "0", "0", "highway=residential surface=asphalt", "highway=crossing crossing=uncontrolled", "350", "35045"], ["27380771", "44565919", "26", "12", "1150", "0", "0", "0", "0", "highway=residential surface=asphalt", "", "352", "35293"], ["27380874", "44565830", "26", "13", "1150", "0", "91", "0", "0", "highway=residential surface=asphalt oneway=yes", "highway=crossing crossing=uncontrolled", "355", "35573"], ["27381765", "44565117", "24", "106", "1150", "0", "0", "0", "0", "highway=residential surface=asphalt oneway=yes", "highway=crossing crossing=uncontrolled", "369", "36909"], ["27381898", "44565011", "24", "16", "1150", "0", "0", "0", "0", "highway=residential surface=asphalt oneway=yes", "estimated_crossing_class=4", "371", "37139"], ["27381778", "44564920", "23", "14", "3050", "0", "82", "0", "0", "reversedirection=yes highway=primary surface=asphalt smoothness=excellent oneway=no", "estimated_crossing_class=4", "373", "37333"], ["27381811", "44564816", "23", "12", "1350", "0", "40", "0", "0", "highway=unclassified surface=asphalt", "highway=crossing", "374", "37494"], ["27381764", "44563818", "19", "111", "1350", "0", "3", "0", "0", "highway=unclassified surface=asphalt", "", "389", "38911"], ["27381691", "44563779", "19", "7", "10050", "0", "33", "0", "0", "highway=trunk surface=asphalt smoothness=good oneway=no", "highway=crossing crossing=zebra", "390", "39006"], ["27381734", "44563726", "19", "7", "5050", "0", "79", "0", "0", "reversedirection=yes highway=footway", "", "391", "39109"], ["27382047", "44563910", "20", "32", "5050", "0", "104", "0", "0", "highway=footway", "", "394", "39431"], ["27382235", "44564010", "21", "19", "40000", "0", "0", "0", "0", "highway=steps foot=yes", "", "396", "39685"], ["27383036", "44563116", "21", "118", "1050", "0", "96", "0", "0", "highway=footway surface=asphalt foot=yes bicycle=yes", "", "414", "41497"], ["27383694", "44562356", "25", "99", "5050", "0", "2", "0", "0", "highway=footway", "estimated_crossing_class=4", "442", "44238"], ["27383485", "44562119", "26", "31", "3050", "0", "48", "0", "0", "highway=primary surface=asphalt smoothness=good oneway=no", "estimated_crossing_class=4", "447", "44766"], ["27383799", "44562085", "27", "25", "1650", "0", "126", "0", "0", "reversedirection=yes highway=secondary surface=asphalt smoothness=excellent oneway=no", "estimated_crossing_class=3", "452", "45277"], ["27384561", "44562004", "27", "61", "1650", "0", "0", "0", "0", "reversedirection=yes highway=secondary surface=asphalt smoothness=excellent oneway=no", "estimated_crossing_class=3", "465", "46572"], ["27385474", "44561910", "24", "73", "1650", "0", "0", "0", "0", "reversedirection=yes highway=secondary surface=asphalt smoothness=excellent oneway=no", "estimated_crossing_class=3", "477", "47765"], ["27386085", "44561804", "25", "50", "1650", "0", "0", "0", "0", "reversedirection=yes highway=secondary surface=asphalt smoothness=excellent oneway=no", "estimated_crossing_class=3", "488", "48855"], ["27387577", "44561443", "24", "126", "1650", "0", "0", "0", "0", "reversedirection=yes highway=secondary surface=asphalt smoothness=excellent oneway=no", "estimated_crossing_class=3", "509", "50971"], ["27388129", "44561087", "23", "59", "1650", "0", "5", "0", "0", "reversedirection=yes highway=secondary surface=asphalt smoothness=excellent oneway=no", "estimated_crossing_class=3", "518", "51826"], ["27389797", "44560007", "22", "179", "1650", "0", "0", "0", "0", "reversedirection=yes highway=secondary surface=asphalt smoothness=excellent oneway=no", "estimated_crossing_class=3", "541", "54166"], ["27389939", "44559910", "22", "16", "1650", "0", "0", "0", "0", "reversedirection=yes highway=secondary surface=asphalt smoothness=excellent oneway=no", "estimated_crossing_class=3", "544", "54412"], ["27391336", "44559042", "22", "147", "1650", "0", "0", "0", "0", "reversedirection=yes highway=secondary surface=asphalt smoothness=excellent oneway=no", "estimated_crossing_class=3", "567", "56735"], ["27391640", "44558901", "22", "29", "1650", "0", "1", "0", "0", "reversedirection=yes highway=secondary surface=asphalt smoothness=excellent oneway=no", "estimated_crossing_class=3", "573", "57323"], ["27391617", "44558814", "23", "10", "1350", "0", "58", "0", "0", "highway=service", "", "575", "57521"]], "times": [0, 6.025, 6.905, 19.151, 23.33, 37.893, 48.051, 51.161, 53.39, 62.664, 64.178, 65.546, 71.568, 89.619, 94.802, 115.117, 128.059, 131.263, 151.521, 153.092, 154.31, 156.917, 161.423, 167.584, 180.886, 189.2, 201.299, 209.094, 224.959, 232.552, 238.663, 244.509, 258.945, 265.123, 269.409, 272.701, 274.905, 281.284, 292.327, 297.422, 310.887, 350.398, 352.882, 355.686, 369.042, 371.337, 373.276, 374.884, 389.057, 390.01, 391.034, 394.26, 396.797, 414.914, 418.641, 422.771, 442.317, 447.6, 452.707, 465.651, 477.589, 488.479, 505.745, 509.642, 518.184, 541.583, 544.044, 560.154, 567.276, 568.648, 573.147, 575.132]}, "geometry": {"type": "LineString", "coordinates": [[27.363917, 44.568393, 22.75], [27.363338, 44.568406, 21.5], [27.363335, 44.568356, 21.75], [27.363296, 44.567698, 22.25], [27.363284, 44.567504, 22.75], [27.36401, 44.567488, 24.25], [27.364259, 44.56712, 24.5], [27.364352, 44.566978, 24.0], [27.364439, 44.566868, 23.5], [27.365053, 44.566232, 20.75], [27.365123, 44.566138, 20.75], [27.365166, 44.566055, 21.0], [27.36543, 44.565809, 22.0], [27.366151, 44.565173, 22.75], [27.36639, 44.565479, 21.25], [27.367438, 44.565526, 24.0], [27.368606, 44.565614, 22.0], [27.368853, 44.565634, 22.25], [27.369977, 44.565714, 24.0], [27.370089, 44.565722, 23.5], [27.370138, 44.565668, 23.5], [27.370262, 44.565535, 22.75], [27.370537, 44.565224, 21.0], [27.37087, 44.564832, 20.75], [27.371624, 44.565304, 21.75], [27.372063, 44.565092, 22.5], [27.372722, 44.564791, 22.75], [27.373248, 44.564546, 22.0], [27.374256, 44.564044, 22.0], [27.374674, 44.563757, 22.0], [27.375054, 44.56348, 21.25], [27.375466, 44.563516, 22.0], [27.376136, 44.563593, 24.0], [27.376475, 44.563634, 24.0], [27.376719, 44.563674, 24.0], [27.376907, 44.563713, 24.0], [27.377033, 44.563749, 24.0], [27.377406, 44.563916, 23.75], [27.378092, 44.564292, 23.25], [27.378415, 44.564484, 23.0], [27.379119, 44.564902, 23.75], [27.380657, 44.565849, 26.25], [27.380771, 44.565919, 26.5], [27.380874, 44.56583, 26.75], [27.381765, 44.565117, 24.0], [27.381898, 44.565011, 24.0], [27.381778, 44.56492, 23.75], [27.381811, 44.564816, 23.5], [27.381764, 44.563818, 19.5], [27.381691, 44.563779, 19.25], [27.381734, 44.563726, 19.5], [27.382047, 44.56391, 20.25], [27.382235, 44.56401, 21.25], [27.383036, 44.563116, 21.5], [27.383153, 44.562976, 22.5], [27.383291, 44.562858, 23.25], [27.383694, 44.562356, 25.0], [27.383485, 44.562119, 26.5], [27.383799, 44.562085, 27.25], [27.384561, 44.562004, 27.75], [27.385474, 44.56191, 24.0], [27.386085, 44.561804, 25.25], [27.387268, 44.561535, 24.75], [27.387577, 44.561443, 24.0], [27.388129, 44.561087, 23.75], [27.389797, 44.560007, 22.0], [27.389939, 44.55991, 22.0], [27.390964, 44.559257, 21.5], [27.391336, 44.559042, 22.25], [27.391405, 44.559002, 22.5], [27.39164, 44.558901, 22.75], [27.391617, 44.558814, 23.75]]}}]}