{"type": "FeatureCollection", "features": [{"type": "Feature", "properties": {"creator": "BRouter-1.7.10", "name": "brouter_trekking_0", "track-length": "2113", "filtered ascend": "4", "plain-ascend": "1", "total-time": "378", "total-energy": "37849", "cost": "3504", "messages": [["Longitude", "Latitude", "Elevation", "Distance", "CostPerKm", "ElevCost", "TurnCost", "NodeCost", "InitialCost", "WayTags", "NodeTags", "Time", "Energy"], ["27363338", "44568406", "21", "46", "1150", "0", "0", "0", "0", "reversedirection=yes highway=residential surface=asphalt oneway=no", "", "6", "602"], ["27363335", "44568356", "21", "6", "1150", "0", "89", "0", "0", "highway=residential surface=asphalt", "", "6", "690"], ["27364010", "44567488", "24", "153", "1150", "0", "91", "0", "0", "highway=residential surface=asphalt oneway=yes", "", "37", "3789"], ["27364439", "44566868", "23", "76", "1150", "0", "48", "0", "0", "highway=residential surface=asphalt", "", "53", "5339"], ["27366151", "44565173", "22", "233", "1150", "0", "5", "0", "0", "reversedirection=yes highway=residential surface=asphalt", "", "89", "8962"], ["27369977", "44565714", "24", "325", "1150", "0", "164", "0", "0", "reversedirection=yes highway=residential surface=asphalt access=yes foot=yes bicycle=yes cycleway=no", "highway=crossing crossing=uncontrolled", "151", "15154"], ["27370089", "44565722", "23", "9", "1150", "0", "0", "0", "0", "reversedirection=yes highway=residential surface=asphalt access=yes foot=yes bicycle=yes cycleway=no", "", "153", "15311"], ["27370138", "44565668", "23", "7", "1450", "0", "48", "0", "0", "highway=tertiary surface=asphalt", "highway=crossing", "154", "15433"], ["27370870", "44564832", "20", "110", "1450", "0", "0", "0", "0", "highway=tertiary surface=asphalt", "", "167", "16761"], ["27375054", "44563480", "21", "421", "1150", "0", "173", "0", "0", "highway=residential surface=asphalt", "", "238", "23869"], ["27375466", "44563516", "22", "33", "1150", "0", "35", "0", "0", "reversedirection=yes highway=residential surface=asphalt", "", "244", "24454"], ["27376136", "44563593", "24", "54", "1150", "0", "0", "0", "0", "highway=residential surface=asphalt", "highway=crossing crossing=uncontrolled", "258", "25898"], ["27376475", "44563634", "24", "27", "1150", "0", "0", "0", "0", "highway=residential surface=asphalt", "highway=crossing crossing=uncontrolled", "265", "26516"], ["27377406", "44563916", "23", "82", "1150", "0", "1", "0", "0", "highway=residential surface=asphalt", "highway=crossing crossing=uncontrolled", "281", "28132"], ["27380657", "44565849", "26", "336", "1150", "0", "0", "0", "0", "highway=residential surface=asphalt", "highway=crossing crossing=uncontrolled", "350", "35045"], ["27380771", "44565919", "26", "12", "1150", "0", "0", "0", "0", "highway=residential surface=asphalt", "", "352", "35293"], ["27380874", "44565830", "26", "13", "1150", "0", "91", "0", "0", "highway=residential surface=asphalt oneway=yes", "highway=crossing crossing=uncontrolled", "355", "35573"], ["27381765", "44565117", "24", "106", "1150", "0", "0", "0", "0", "highway=residential surface=asphalt oneway=yes", "highway=crossing crossing=uncontrolled", "369", "36909"], ["27381898", "44565011", "24", "16", "1150", "0", "0", "0", "0", "highway=residential surface=asphalt oneway=yes", "estimated_crossing_class=4", "371", "37139"], ["27381778", "44564920", "23", "14", "3050", "0", "82", "0", "0", "reversedirection=yes highway=primary surface=asphalt smoothness=excellent oneway=no", "estimated_crossing_class=4", "373", "37333"], ["27381570", "44564772", "24", "23", "3050", "0", "0", "0", "0", "reversedirection=yes highway=primary surface=asphalt smoothness=excellent oneway=no", "highway=crossing estimated_crossing_class=4", "376", "37680"], ["27381486", "44564845", "24", "11", "5050", "0", "98", "0", "0", "reversedirection=yes highway=footway", "", "378", "37849"]], "times": [0, 6.025, 6.905, 19.151, 23.33, 37.893, 48.051, 51.161, 53.39, 62.664, 64.178, 65.546, 71.568, 89.619, 94.802, 115.117, 128.059, 131.263, 151.521, 153.092, 154.31, 156.917, 161.423, 167.584, 180.886, 189.2, 201.299, 209.094, 224.959, 232.552, 238.663, 244.509, 258.945, 265.123, 269.409, 272.701, 274.905, 281.284, 292.327, 297.422, 310.887, 350.398, 352.882, 355.686, 369.042, 371.337, 373.276, 376.748, 378.436]}, "geometry": {"type": "LineString", "coordinates": [[27.363917, 44.568393, 22.75], [27.363338, 44.568406, 21.5], [27.363335, 44.568356, 21.75], [27.363296, 44.567698, 22.25], [27.363284, 44.567504, 22.75], [27.36401, 44.567488, 24.25], [27.364259, 44.56712, 24.5], [27.364352, 44.566978, 24.0], [27.364439, 44.566868, 23.5], [27.365053, 44.566232, 20.75], [27.365123, 44.566138, 20.75], [27.365166, 44.566055, 21.0], [27.36543, 44.565809, 22.0], [27.366151, 44.565173, 22.75], [27.36639, 44.565479, 21.25], [27.367438, 44.565526, 24.0], [27.368606, 44.565614, 22.0], [27.368853, 44.565634, 22.25], [27.369977, 44.565714, 24.0], [27.370089, 44.565722, 23.5], [27.370138, 44.565668, 23.5], [27.370262, 44.565535, 22.75], [27.370537, 44.565224, 21.0], [27.37087, 44.564832, 20.75], [27.371624, 44.565304, 21.75], [27.372063, 44.565092, 22.5], [27.372722, 44.564791, 22.75], [27.373248, 44.564546, 22.0], [27.374256, 44.564044, 22.0], [27.374674, 44.563757, 22.0], [27.375054, 44.56348, 21.25], [27.375466, 44.563516, 22.0], [27.376136, 44.563593, 24.0], [27.376475, 44.563634, 24.0], [27.376719, 44.563674, 24.0], [27.376907, 44.563713, 24.0], [27.377033, 44.563749, 24.0], [27.377406, 44.563916, 23.75], [27.378092, 44.564292, 23.25], [27.378415, 44.564484, 23.0], [27.379119, 44.564902, 23.75], [27.380657, 44.565849, 26.25], [27.380771, 44.565919, 26.5], [27.380874, 44.56583, 26.75], [27.381765, 44.565117, 24.0], [27.381898, 44.565011, 24.0], [27.381778, 44.56492, 23.75], [27.38157, 44.564772, 24.0], [27.381486, 44.564845, 24.0]]}}]}