{"type": "FeatureCollection", "features": [{"type": "Feature", "properties": {"creator": "BRouter-1.7.10", "name": "brouter_trekking_0", "track-length": "1477", "filtered ascend": "2", "plain-ascend": "-5", "total-time": "237", "total-energy": "23698", "cost": "2258", "messages": [["Longitude", "Latitude", "Elevation", "Distance", "CostPerKm", "ElevCost", "TurnCost", "NodeCost", "InitialCost", "WayTags", "NodeTags", "Time", "Energy"], ["27364886", "44568365", "24", "77", "1150", "0", "0", "0", "0", "highway=residential surface=asphalt oneway=no", "", "17", "1781"], ["27364901", "44568917", "23", "61", "1150", "0", "92", "0", "0", "reversedirection=yes highway=residential surface=asphalt oneway=no", "", "27", "2735"], ["27364937", "44569700", "23", "87", "1150", "0", "0", "0", "0", "highway=residential surface=asphalt oneway=yes", "", "41", "4193"], ["27364508", "44569715", "23", "34", "1150", "0", "89", "0", "0", "reversedirection=yes highway=residential surface=asphalt", "", "48", "4813"], ["27364355", "44570589", "24", "101", "1350", "0", "117", "0", "0", "highway=service", "", "66", "6640"], ["27371271", "44572196", "21", "577", "1050", "0", "96", "0", "0", "highway=tertiary surface=asphalt access=yes foot=yes bicycle=yes cycleway=no oneway=no", "", "153", "15328"], ["27371024", "44573357", "21", "130", "1550", "0", "77", "0", "0", "reversedirection=yes highway=residential surface=unpaved", "", "180", "18008"], ["27372571", "44573741", "19", "130", "1150", "0", "74", "0", "0", "highway=residential", "highway=crossing crossing=uncontrolled", "196", "19688"], ["27374148", "44574110", "18", "132", "1150", "0", "0", "0", "0", "highway=residential", "highway=crossing crossing=uncontrolled", "212", "21281"], ["27375575", "44574457", "18", "119", "1150", "0", "0", "0", "0", "highway=residential", "highway=crossing crossing=uncontrolled", "232", "23232"], ["27375919", "44574538", "16", "29", "1150", "0", "0", "0", "0", "highway=residential", "", "236", "23698"]], "times": [0, 1.725, 10.535, 17.811, 27.352, 35.159, 41.934, 48.131, 53.37, 58.529, 59.642, 61.537, 66.402, 71.045, 92.651, 106.626, 135.423, 151.757, 153.275, 154.217, 156.27, 175.076, 180.07, 195.619, 196.862, 212.792, 214.879, 224.411, 232.296, 235.324, 236.959]}, "geometry": {"type": "LineString", "coordinates": [[27.363917, 44.568393, 22.75], [27.36403, 44.568391, 23.25], [27.36445, 44.56838, 24.75], [27.364886, 44.568365, 24.25], [27.364901, 44.568917, 23.25], [27.364916, 44.569283, 24.0], [27.364937, 44.5697, 23.0], [27.364508, 44.569715, 23.75], [27.364525, 44.570016, 23.25], [27.364541, 44.570306, 23.25], [27.364495, 44.570343, 23.75], [27.364446, 44.570415, 24.25], [27.364355, 44.570589, 24.75], [27.364765, 44.570686, 22.75], [27.366404, 44.57107, 20.0], [27.367757, 44.571394, 18.0], [27.369983, 44.571916, 21.0], [27.371165, 44.572192, 21.0], [27.371271, 44.572196, 21.5], [27.371277, 44.572238, 21.5], [27.371267, 44.572339, 21.5], [27.371099, 44.573033, 23.0], [27.371024, 44.573357, 21.25], [27.372461, 44.573715, 20.0], [27.372571, 44.573741, 19.75], [27.374148, 44.57411, 18.0], [27.374354, 44.574162, 17.25], [27.375062, 44.574333, 18.25], [27.375575, 44.574457, 18.75], [27.375788, 44.574508, 18.5], [27.375919, 44.574538, 16.5]]}}]}