{"type": "FeatureCollection", "features": [{"type": "Feature", "properties": {"creator": "BRouter-1.7.10", "name": "brouter_trekking_0", "track-length": "1404", "filtered ascend": "8", "plain-ascend": "6", "total-time": "274", "total-energy": "27366", "cost": "2092", "messages": [["Longitude", "Latitude", "Elevation", "Distance", "CostPerKm", "ElevCost", "TurnCost", "NodeCost", "InitialCost", "WayTags", "NodeTags", "Time", "Energy"], ["27377062", "44574800", "13", "96", "1150", "0", "0", "0", "0", "highway=residential", "highway=crossing crossing=uncontrolled", "13", "1304"], ["27378067", "44572982", "21", "230", "1150", "0", "90", "0", "0", "highway=residential", "highway=crossing crossing=uncontrolled", "56", "5697"], ["27379304", "44570323", "22", "311", "1150", "0", "2", "0", "0", "highway=residential", "", "112", "11292"], ["27380280", "44568484", "20", "218", "1150", "0", "1", "0", "0", "highway=residential oneway=no", "", "153", "15335"], ["27380904", "44567987", "21", "74", "1150", "0", "3", "0", "0", "reversedirection=yes highway=residential oneway=no", "", "170", "17023"], ["27380694", "44565970", "26", "284", "1150", "0", "89", "0", "0", "reversedirection=yes highway=residential", "highway=crossing crossing=uncontrolled", "240", "24049"], ["27380771", "44565919", "26", "8", "1150", "0", "0", "0", "0", "reversedirection=yes highway=residential", "", "242", "24303"], ["27380874", "44565830", "26", "13", "1150", "0", "0", "0", "0", "highway=residential surface=asphalt oneway=yes", "highway=crossing crossing=uncontrolled", "247", "24715"], ["27381765", "44565117", "24", "106", "1150", "0", "0", "0", "0", "highway=residential surface=asphalt oneway=yes", "highway=crossing crossing=uncontrolled", "263", "26340"], ["27381898", "44565011", "24", "16", "1150", "0", "0", "0", "0", "highway=residential surface=asphalt oneway=yes", "estimated_crossing_class=4", "265", "26597"], ["27381778", "44564920", "23", "14", "3050", "0", "82", "0", "0", "reversedirection=yes highway=primary surface=asphalt smoothness=excellent oneway=no", "estimated_crossing_class=4", "268", "26809"], ["27381570", "44564772", "24", "23", "3050", "0", "0", "0", "0", "reversedirection=yes highway=primary surface=asphalt smoothness=excellent oneway=no", "highway=crossing estimated_crossing_class=4", "271", "27185"], ["27381486", "44564845", "24", "11", "5050", "0", "98", "0", "0", "reversedirection=yes highway=footway", "", "273", "27366"]], "times": [0, 6.031, 13.042, 14.373, 56.961, 60.094, 85.51, 86.736, 112.913, 145.584, 150.348, 153.336, 170.219, 194.105, 203.017, 205.854, 209.233, 210.545, 211.836, 221.576, 230.836, 240.458, 242.992, 247.112, 263.369, 265.931, 268.055, 271.818, 273.625]}, "geometry": {"type": "LineString", "coordinates": [[27.375919, 44.574538, 18.0], [27.376492, 44.574669, 16.5], [27.377062, 44.5748, 13.75], [27.377222, 44.574837, 14.75], [27.378067, 44.572982, 21.25], [27.378107, 44.572896, 20.5], [27.378756, 44.5715, 17.75], [27.378772, 44.571429, 17.5], [27.379304, 44.570323, 22.0], [27.380058, 44.568783, 19.25], [27.3802, 44.568601, 20.0], [27.38028, 44.568484, 20.25], [27.380904, 44.567987, 21.0], [27.38025, 44.567276, 22.5], [27.379908, 44.566904, 22.0], [27.37981, 44.566795, 22.5], [27.379744, 44.566666, 23.0], [27.379744, 44.566616, 23.0], [27.379777, 44.56657, 23.0], [27.380149, 44.566327, 23.75], [27.380425, 44.566146, 25.25], [27.380694, 44.56597, 26.25], [27.380771, 44.565919, 26.5], [27.380874, 44.56583, 26.75], [27.381765, 44.565117, 24.0], [27.381898, 44.565011, 24.0], [27.381778, 44.56492, 23.75], [27.38157, 44.564772, 24.0], [27.381486, 44.564845, 24.0]]}}]}