{"type": "FeatureCollection", "features": [{"type": "Feature", "properties": {"creator": "BRouter-1.7.10", "name": "brouter_trekking_0", "track-length": "1245", "filtered ascend": "5", "plain-ascend": "1", "total-time": "225", "total-energy": "22472", "cost": "4103", "messages": [["Longitude", "Latitude", "Elevation", "Distance", "CostPerKm", "ElevCost", "TurnCost", "NodeCost", "InitialCost", "WayTags", "NodeTags", "Time", "Energy"], ["27391640", "44558901", "22", "10", "1350", "0", "0", "0", "0", "reversedirection=yes highway=service", "estimated_crossing_class=3", "1", "168"], ["27391336", "44559042", "22", "29", "1650", "0", "59", "0", "0", "highway=secondary surface=asphalt smoothness=excellent oneway=no", "estimated_crossing_class=3", "6", "621"], ["27389939", "44559910", "22", "147", "1650", "0", "0", "0", "0", "highway=secondary surface=asphalt smoothness=excellent oneway=no", "estimated_crossing_class=3", "28", "2866"], ["27389797", "44560007", "22", "16", "1650", "0", "0", "0", "0", "highway=secondary surface=asphalt smoothness=excellent oneway=no", "estimated_crossing_class=3", "31", "3128"], ["27388129", "44561087", "23", "179", "1650", "0", "0", "0", "0", "highway=secondary surface=asphalt smoothness=excellent oneway=no", "estimated_crossing_class=3", "68", "6859"], ["27387577", "44561443", "24", "59", "1650", "0", "0", "0", "0", "highway=secondary surface=asphalt smoothness=excellent oneway=no", "estimated_crossing_class=3", "79", "7966"], ["27386085", "44561804", "25", "126", "1650", "0", "5", "0", "0", "highway=secondary surface=asphalt smoothness=excellent oneway=no", "estimated_crossing_class=3", "106", "10643"], ["27385474", "44561910", "24", "50", "1650", "0", "0", "0", "0", "highway=secondary surface=asphalt smoothness=excellent oneway=no", "estimated_crossing_class=3", "113", "11362"], ["27384561", "44562004", "27", "73", "1650", "0", "0", "0", "0", "highway=secondary surface=asphalt smoothness=excellent oneway=no", "estimated_crossing_class=3", "126", "12658"], ["27383799", "44562085", "27", "61", "1650", "0", "0", "0", "0", "highway=secondary surface=asphalt smoothness=excellent oneway=no", "estimated_crossing_class=3", "144", "14424"], ["27383485", "44562119", "26", "25", "1650", "0", "0", "0", "0", "highway=secondary surface=asphalt smoothness=excellent oneway=no", "estimated_crossing_class=4", "149", "14920"], ["27383694", "44562356", "25", "31", "3050", "0", "126", "0", "0", "reversedirection=yes highway=primary surface=asphalt smoothness=good oneway=no", "estimated_crossing_class=4", "153", "15342"], ["27383036", "44563116", "21", "99", "5050", "0", "50", "0", "0", "reversedirection=yes highway=footway", "", "164", "16416"], ["27382235", "44564010", "21", "118", "1050", "0", "0", "0", "0", "reversedirection=yes highway=footway surface=asphalt foot=yes bicycle=yes", "", "178", "17811"], ["27382047", "44563910", "20", "19", "40000", "0", "96", "0", "0", "reversedirection=yes highway=steps foot=yes", "", "180", "18030"], ["27381734", "44563726", "19", "32", "5050", "0", "0", "0", "0", "reversedirection=yes highway=footway", "", "183", "18380"], ["27381691", "44563779", "19", "7", "5050", "0", "104", "0", "0", "highway=footway", "highway=crossing crossing=zebra", "184", "18458"], ["27381764", "44563818", "19", "7", "10050", "0", "79", "0", "0", "reversedirection=yes highway=trunk surface=asphalt smoothness=good oneway=no", "", "185", "18541"], ["27381811", "44564816", "23", "111", "1350", "0", "33", "0", "0", "reversedirection=yes highway=unclassified surface=asphalt", "highway=crossing", "214", "21436"], ["27381778", "44564920", "23", "12", "1350", "0", "3", "0", "0", "reversedirection=yes highway=unclassified surface=asphalt", "estimated_crossing_class=4", "217", "21706"], ["27381570", "44564772", "24", "23", "3050", "0", "137", "0", "0", "reversedirection=yes highway=primary surface=asphalt smoothness=excellent oneway=no", "highway=crossing estimated_crossing_class=4", "222", "22233"], ["27381486", "44564845", "24", "11", "5050", "0", "98", "0", "0", "reversedirection=yes highway=footway", "", "224", "22472"]], "times": [0, 1.68, 5.162, 6.212, 11.221, 28.663, 31.285, 68.593, 79.655, 85.508, 106.426, 113.612, 126.569, 144.219, 149.185, 153.405, 160.501, 162.364, 164.141, 178.091, 180.278, 183.773, 184.552, 185.388, 214.331, 217.032, 222.293, 224.689]}, "geometry": {"type": "LineString", "coordinates": [[27.391617, 44.558814, 22.75], [27.39164, 44.558901, 22.75], [27.391405, 44.559002, 22.5], [27.391336, 44.559042, 22.25], [27.390964, 44.559257, 21.5], [27.389939, 44.55991, 22.0], [27.389797, 44.560007, 22.0], [27.388129, 44.561087, 23.75], [27.387577, 44.561443, 24.0], [27.387268, 44.561535, 24.75], [27.386085, 44.561804, 25.25], [27.385474, 44.56191, 24.0], [27.384561, 44.562004, 27.75], [27.383799, 44.562085, 27.25], [27.383485, 44.562119, 26.5], [27.383694, 44.562356, 25.0], [27.383291, 44.562858, 23.25], [27.383153, 44.562976, 22.5], [27.383036, 44.563116, 21.5], [27.382235, 44.56401, 21.25], [27.382047, 44.56391, 20.25], [27.381734, 44.563726, 19.5], [27.381691, 44.563779, 19.25], [27.381764, 44.563818, 19.5], [27.381811, 44.564816, 23.5], [27.381778, 44.56492, 23.75], [27.38157, 44.564772, 24.0], [27.381486, 44.564845, 24.0]]}}]}