{"type": "FeatureCollection", "features": [{"type": "Feature", "properties": {"creator": "BRouter-1.7.10", "name": "brouter_trekking_0", "track-length": "4738", "filtered ascend": "14", "plain-ascend": "3", "total-time": "835", "total-energy": "83507", "cost": "10171", "messages": [["Longitude", "Latitude", "Elevation", "Distance", "CostPerKm", "ElevCost", "TurnCost", "NodeCost", "InitialCost", "WayTags", "NodeTags", "Time", "Energy"], ["27348918", "44562180", "21", "95", "1350", "0", "92", "0", "0", "highway=service", "", "18", "1874"], ["27349005", "44562429", "22", "29", "1350", "0", "94", "0", "0", "reversedirection=yes highway=service surface=asphalt", "", "24", "2447"], ["27349189", "44562491", "22", "16", "1350", "0", "15", "0", "0", "highway=service surface=asphalt oneway=yes", "highway=give_way direction=forward", "27", "2799"], ["27349290", "44562525", "23", "9", "1350", "0", "0", "0", "0", "highway=service surface=asphalt oneway=yes", "", "30", "3004"], ["27349624", "44562661", "23", "35", "10050", "0", "0", "0", "0", "highway=trunk surface=asphalt foot=no smoothness=good junction=roundabout", "", "37", "3757"], ["27350307", "44562790", "25", "57", "3050", "0", "19", "0", "0", "highway=primary surface=asphalt oneway=yes", "", "53", "5338"], ["27350782", "44562739", "24", "38", "3050", "0", "1", "0", "0", "highway=primary surface=asphalt oneway=no", "railway=level_crossing", "61", "6127"], ["27352102", "44562614", "27", "105", "3050", "0", "0", "0", "0", "highway=primary surface=asphalt oneway=no", "estimated_crossing_class=5", "80", "8039"], ["27352869", "44562537", "26", "62", "3050", "0", "0", "0", "0", "highway=primary surface=asphalt smoothness=excellent oneway=no", "estimated_crossing_class=5", "96", "9653"], ["27353114", "44564294", "23", "216", "1150", "0", "137", "0", "0", "highway=residential surface=asphalt oneway=yes", "", "129", "12973"], ["27353128", "44564622", "23", "36", "1150", "0", "0", "0", "0", "highway=residential surface=asphalt", "", "134", "13472"], ["27353782", "44564631", "24", "52", "1450", "0", "85", "0", "0", "highway=tertiary surface=asphalt oneway=yes", "highway=crossing crossing=uncontrolled", "144", "14470"], ["27355483", "44564645", "24", "136", "1450", "0", "0", "0", "0", "highway=tertiary surface=asphalt oneway=yes", "highway=crossing crossing=uncontrolled", "169", "16978"], ["27357365", "44564651", "25", "149", "1450", "0", "0", "0", "0", "highway=tertiary surface=asphalt oneway=yes", "highway=crossing", "198", "19843"], ["27358286", "44564654", "30", "73", "1450", "0", "0", "0", "0", "highway=tertiary surface=asphalt oneway=yes", "highway=crossing", "217", "21733"], ["27359762", "44564654", "24", "118", "1450", "0", "0", "0", "0", "highway=tertiary surface=asphalt oneway=yes", "highway=crossing", "235", "23532"], ["27361170", "44564399", "28", "117", "1450", "0", "2", "0", "0", "highway=tertiary surface=asphalt oneway=yes", "highway=crossing", "260", "26019"], ["27363536", "44564052", "23", "194", "1450", "0", "0", "0", "0", "highway=tertiary surface=asphalt oneway=yes", "highway=crossing", "286", "28662"], ["27363887", "44563848", "24", "37", "1450", "0", "0", "0", "0", "highway=tertiary surface=asphalt oneway=yes", "", "292", "29221"], ["27363897", "44563794", "23", "6", "1450", "0", "20", "0", "0", "reversedirection=yes highway=tertiary surface=asphalt oneway=no", "highway=crossing", "293", "29308"], ["27364040", "44563082", "24", "79", "1450", "0", "0", "0", "0", "reversedirection=yes highway=tertiary surface=asphalt oneway=no", "", "305", "30569"], ["27366509", "44563194", "23", "197", "1150", "0", "86", "0", "0", "highway=residential surface=asphalt oneway=yes", "highway=crossing crossing=uncontrolled", "335", "33552"], ["27368156", "44563199", "25", "130", "1150", "0", "0", "0", "0", "highway=residential surface=asphalt oneway=yes", "highway=crossing crossing=uncontrolled", "364", "36416"], ["27368764", "44563418", "24", "55", "1150", "0", "13", "0", "0", "highway=residential surface=asphalt oneway=yes", "", "373", "37347"], ["27369512", "44562865", "23", "85", "1150", "0", "68", "0", "0", "highway=residential surface=asphalt", "", "385", "38566"], ["27371338", "44564290", "20", "217", "1150", "0", "112", "0", "0", "reversedirection=yes highway=residential", "", "414", "41470"], ["27370870", "44564832", "20", "70", "1450", "0", "64", "0", "0", "reversedirection=yes highway=tertiary surface=asphalt", "", "424", "42453"], ["27375054", "44563480", "21", "421", "1150", "0", "143", "0", "0", "highway=residential surface=asphalt", "", "498", "49850"], ["27375466", "44563516", "22", "33", "1150", "0", "35", "0", "0", "reversedirection=yes highway=residential surface=asphalt", "", "504", "50436"], ["27376136", "44563593", "24", "54", "1150", "0", "0", "0", "0", "highway=residential surface=asphalt", "highway=crossing crossing=uncontrolled", "518", "51882"], ["27376475", "44563634", "24", "27", "1150", "0", "0", "0", "0", "highway=residential surface=asphalt", "highway=crossing crossing=uncontrolled", "524", "52500"], ["27377406", "44563916", "23", "82", "1150", "0", "1", "0", "0", "highway=residential surface=asphalt", "highway=crossing crossing=uncontrolled", "541", "54117"], ["27380657", "44565849", "26", "336", "1150", "0", "0", "0", "0", "highway=residential surface=asphalt", "highway=crossing crossing=uncontrolled", "610", "61030"], ["27380771", "44565919", "26", "12", "1150", "0", "0", "0", "0", "highway=residential surface=asphalt", "", "612", "61279"], ["27380874", "44565830", "26", "13", "1150", "0", "91", "0", "0", "highway=residential surface=asphalt oneway=yes", "highway=crossing crossing=uncontrolled", "615", "61559"], ["27381765", "44565117", "24", "106", "1150", "0", "0", "0", "0", "highway=residential surface=asphalt oneway=yes", "highway=crossing crossing=uncontrolled", "628", "62895"], ["27381898", "44565011", "24", "16", "1150", "0", "0", "0", "0", "highway=residential surface=asphalt oneway=yes", "estimated_crossing_class=4", "631", "63125"], ["27381778", "44564920", "23", "14", "3050", "0", "82", "0", "0", "reversedirection=yes highway=primary surface=asphalt smoothness=excellent oneway=no", "estimated_crossing_class=4", "633", "63319"], ["27381811", "44564816", "23", "12", "1350", "0", "40", "0", "0", "highway=unclassified surface=asphalt", "highway=crossing", "634", "63480"], ["27381764", "44563818", "19", "111", "1350", "0", "3", "0", "0", "highway=unclassified surface=asphalt", "", "648", "64897"], ["27381691", "44563779", "19", "7", "10050", "0", "33", "0", "0", "highway=trunk surface=asphalt smoothness=good oneway=no", "highway=crossing crossing=zebra", "649", "64992"], ["27381734", "44563726", "19", "7", "5050", "0", "79", "0", "0", "reversedirection=yes highway=footway", "", "650", "65095"], ["27382047", "44563910", "20", "32", "5050", "0", "104", "0", "0", "highway=footway", "", "654", "65417"], ["27382235", "44564010", "21", "19", "40000", "0", "0", "0", "0", "highway=steps foot=yes", "", "656", "65671"], ["27383036", "44563116", "21", "118", "1050", "0", "96", "0", "0", "highway=footway surface=asphalt foot=yes bicycle=yes", "", "674", "67483"], ["27383694", "44562356", "25", "99", "5050", "0", "2", "0", "0", "highway=footway", "estimated_crossing_class=4", "702", "70224"], ["27383485", "44562119", "26", "31", "3050", "0", "48", "0", "0", "highway=primary surface=asphalt smoothness=good oneway=no", "estimated_crossing_class=4", "707", "70752"], ["27383799", "44562085", "27", "25", "1650", "0", "126", "0", "0", "reversedirection=yes highway=secondary surface=asphalt smoothness=excellent oneway=no", "estimated_crossing_class=3", "712", "71263"], ["27384561", "44562004", "27", "61", "1650", "0", "0", "0", "0", "reversedirection=yes highway=secondary surface=asphalt smoothness=excellent oneway=no", "estimated_crossing_class=3", "725", "72558"], ["27385474", "44561910", "24", "73", "1650", "0", "0", "0", "0", "reversedirection=yes highway=secondary surface=asphalt smoothness=excellent oneway=no", "estimated_crossing_class=3", "737", "73751"], ["27386085", "44561804", "25", "50", "1650", "0", "0", "0", "0", "reversedirection=yes highway=secondary surface=asphalt smoothness=excellent oneway=no", "estimated_crossing_class=3", "748", "74841"], ["27387577", "44561443", "24", "126", "1650", "0", "0", "0", "0", "reversedirection=yes highway=secondary surface=asphalt smoothness=excellent oneway=no", "estimated_crossing_class=3", "769", "76957"], ["27388129", "44561087", "23", "59", "1650", "0", "5", "0", "0", "reversedirection=yes highway=secondary surface=asphalt smoothness=excellent oneway=no", "estimated_crossing_class=3", "777", "77812"], ["27389797", "44560007", "22", "179", "1650", "0", "0", "0", "0", "reversedirection=yes highway=secondary surface=asphalt smoothness=excellent oneway=no", "estimated_crossing_class=3", "801", "80152"], ["27389939", "44559910", "22", "16", "1650", "0", "0", "0", "0", "reversedirection=yes highway=secondary surface=asphalt smoothness=excellent oneway=no", "estimated_crossing_class=3", "803", "80398"], ["27391336", "44559042", "22", "147", "1650", "0", "0", "0", "0", "reversedirection=yes highway=secondary surface=asphalt smoothness=excellent oneway=no", "estimated_crossing_class=3", "827", "82721"], ["27391640", "44558901", "22", "29", "1650", "0", "1", "0", "0", "reversedirection=yes highway=secondary surface=asphalt smoothness=excellent oneway=no", "estimated_crossing_class=3", "832", "83309"], ["27391617", "44558814", "23", "10", "1350", "0", "58", "0", "0", "highway=service", "", "834", "83507"]], "times": [0, 1.848, 16.596, 18.738, 21.198, 22.997, 24.474, 27.99, 30.038, 31.595, 33.122, 34.522, 36.004, 37.566, 40.783, 42.954, 45.91, 53.371, 60.318, 61.261, 67.934, 80.388, 96.52, 98.343, 103.521, 105.166, 105.784, 112.968, 113.663, 114.356, 114.843, 119.614, 122.13, 129.71, 134.699, 144.686, 168.179, 169.761, 196.506, 198.41, 201.196, 202.32, 217.301, 220.088, 229.959, 235.287, 236.456, 237.841, 239.206, 252.508, 255.802, 260.154, 273.563, 275.222, 278.6, 279.995, 282.631, 283.981, 286.582, 288.372, 289.882, 292.174, 293.044, 296.979, 300.87, 305.648, 308.088, 318.558, 329.05, 335.482, 337.35, 349.226, 364.116, 366.129, 373.423, 378.25, 385.606, 399.047, 402.447, 404.483, 405.744, 414.637, 415.648, 424.464, 439.326, 448.162, 460.71, 468.656, 484.673, 492.301, 498.428, 504.286, 518.741, 524.924, 529.213, 532.507, 534.713, 541.094, 552.14, 557.235, 570.701, 610.213, 612.697, 615.502, 628.857, 631.153, 633.092, 634.7, 648.872, 649.826, 650.85, 654.076, 656.613, 674.729, 678.457, 682.586, 702.133, 707.416, 712.523, 725.467, 737.405, 748.294, 765.56, 769.458, 777.999, 801.398, 803.859, 819.969, 827.092, 828.464, 832.963, 834.948]}, "geometry": {"type": "LineString", "coordinates": [[27.347883, 44.56232, 21.0], [27.347873, 44.562222, 21.0], [27.348773, 44.562186, 22.0], [27.348918, 44.56218, 21.75], [27.348929, 44.562295, 22.0], [27.348958, 44.562374, 22.25], [27.349005, 44.562429, 22.5], [27.349189, 44.562491, 22.75], [27.34929, 44.562525, 23.0], [27.349376, 44.562515, 23.0], [27.349461, 44.562526, 23.0], [27.349537, 44.562557, 22.75], [27.349593, 44.562603, 23.0], [27.349624, 44.562661, 23.25], [27.34976, 44.562732, 23.75], [27.34985, 44.562765, 24.25], [27.34998, 44.562779, 24.75], [27.350307, 44.56279, 25.0], [27.350715, 44.562748, 24.25], [27.350782, 44.562739, 24.0], [27.35121, 44.562695, 24.25], [27.352102, 44.562614, 27.0], [27.352869, 44.562537, 26.0], [27.352874, 44.562605, 26.0], [27.352855, 44.562846, 25.5], [27.352873, 44.562936, 25.0], [27.352898, 44.562968, 24.75], [27.353299, 44.563204, 25.25], [27.353329, 44.563229, 25.25], [27.353341, 44.563261, 25.25], [27.353334, 44.563292, 25.0], [27.353157, 44.563586, 24.0], [27.353082, 44.563742, 24.0], [27.353114, 44.564294, 23.0], [27.353128, 44.564622, 23.0], [27.353782, 44.564631, 24.25], [27.355374, 44.564644, 24.5], [27.355483, 44.564645, 24.5], [27.357238, 44.564649, 25.25], [27.357365, 44.564651, 25.5], [27.357525, 44.564651, 26.0], [27.357592, 44.564651, 26.25], [27.358286, 44.564654, 30.5], [27.358421, 44.564655, 30.75], [27.359213, 44.564657, 26.0], [27.359762, 44.564654, 24.5], [27.359871, 44.564654, 24.5], [27.360002, 44.564637, 24.25], [27.360122, 44.564613, 24.5], [27.36081, 44.564436, 26.75], [27.360975, 44.564415, 27.5], [27.36117, 44.564399, 28.0], [27.362201, 44.564337, 26.25], [27.362346, 44.564327, 25.5], [27.362732, 44.564283, 24.0], [27.362891, 44.564252, 23.5], [27.363187, 44.564178, 23.0], [27.363323, 44.564135, 23.0], [27.363536, 44.564052, 23.75], [27.363657, 44.563993, 24.0], [27.36375, 44.563939, 24.0], [27.363887, 44.563848, 24.0], [27.363897, 44.563794, 23.75], [27.363953, 44.563541, 23.5], [27.363999, 44.563291, 23.25], [27.36404, 44.563082, 24.75], [27.3642, 44.563093, 24.5], [27.36519, 44.563182, 22.75], [27.365992, 44.563194, 23.25], [27.366509, 44.563194, 23.0], [27.366652, 44.563194, 23.25], [27.367411, 44.563191, 24.0], [27.368156, 44.563199, 25.5], [27.368275, 44.5632, 25.5], [27.368764, 44.563418, 24.25], [27.36908, 44.563198, 23.5], [27.369512, 44.562865, 23.5], [27.370253, 44.563517, 23.0], [27.370431, 44.563665, 23.0], [27.370575, 44.563714, 23.0], [27.370652, 44.563754, 23.0], [27.371338, 44.56429, 20.5], [27.371283, 44.564355, 20.5], [27.37087, 44.564832, 20.75], [27.371624, 44.565304, 21.75], [27.372063, 44.565092, 22.5], [27.372722, 44.564791, 22.75], [27.373248, 44.564546, 22.0], [27.374256, 44.564044, 22.0], [27.374674, 44.563757, 22.0], [27.375054, 44.56348, 21.25], [27.375466, 44.563516, 22.0], [27.376136, 44.563593, 24.0], [27.376475, 44.563634, 24.0], [27.376719, 44.563674, 24.0], [27.376907, 44.563713, 24.0], [27.377033, 44.563749, 24.0], [27.377406, 44.563916, 23.75], [27.378092, 44.564292, 23.25], [27.378415, 44.564484, 23.0], [27.379119, 44.564902, 23.75], [27.380657, 44.565849, 26.25], [27.380771, 44.565919, 26.5], [27.380874, 44.56583, 26.75], [27.381765, 44.565117, 24.0], [27.381898, 44.565011, 24.0], [27.381778, 44.56492, 23.75], [27.381811, 44.564816, 23.5], [27.381764, 44.563818, 19.5], [27.381691, 44.563779, 19.25], [27.381734, 44.563726, 19.5], [27.382047, 44.56391, 20.25], [27.382235, 44.56401, 21.25], [27.383036, 44.563116, 21.5], [27.383153, 44.562976, 22.5], [27.383291, 44.562858, 23.25], [27.383694, 44.562356, 25.0], [27.383485, 44.562119, 26.5], [27.383799, 44.562085, 27.25], [27.384561, 44.562004, 27.75], [27.385474, 44.56191, 24.0], [27.386085, 44.561804, 25.25], [27.387268, 44.561535, 24.75], [27.387577, 44.561443, 24.0], [27.388129, 44.561087, 23.75], [27.389797, 44.560007, 22.0], [27.389939, 44.55991, 22.0], [27.390964, 44.559257, 21.5], [27.391336, 44.559042, 22.25], [27.391405, 44.559002, 22.5], [27.39164, 44.558901, 22.75], [27.391617, 44.558814, 23.75]]}}]}